"","FID","the_geom","LAYER","NUM_CONSEC","NUMERO","NOMBRE","SISTEMA","DELEGACION","COLONIA","CALLE","PROF_","X","Y","POINT_SYMB","geo_x","geo_y"
"1","iii_1_2_pozos_sacmex.1","MULTIPOINT ((479638 2142298))","Unknown Point Feature",1,"16","ALFONSOÿ XIII","PONIENTE","A.ÿ OBREGON","ALFONSOÿ XIII","ADRIANOÿ BROUWERÿ Yÿ CERRADAÿ FRANZÿ HALS",255,479638,2142298,"Dot",-99.1939012179816,19.374686863486
"2","iii_1_2_pozos_sacmex.2","MULTIPOINT ((479022 2139348))","Unknown Point Feature",2,"18","ALTAVISTA","CENTRO","A.ÿ OBREGON","ALTAVISTA","AIDAÿ ESQUINAÿ CERRADAÿ DEÿ LAÿ CERCA",252,479022,2139348,"Dot",-99.1997347090741,19.3480205571059
"3","iii_1_2_pozos_sacmex.3","MULTIPOINT ((480744 2139530))","Unknown Point Feature",3,"21","ARENALÿ DEÿ SANÿ ANGEL","CENTRO","A.ÿ OBREGON","CHIMALISTAC","ALLENDEÿ ENTREÿ M.ÿ ANGELÿ DEÿ QUEVEDOÿ Yÿ AREN",300,480744,2139530,"Dot",-99.1833411891138,19.3496825808436
"4","iii_1_2_pozos_sacmex.4","MULTIPOINT ((479903 2144234))","Unknown Point Feature",4,"25","AVENIDAÿ CENTRAL","PONIENTE","A.ÿ OBREGON","SANÿ PEDROÿ DEÿ LOSÿ PINOS","AV.ÿ CENTRALÿ ENTREÿ CALLEÿ 10ÿ Yÿ CALLEÿ 4",276,479903,2144234,"Dot",-99.1913981526197,19.392185665841
"5","iii_1_2_pozos_sacmex.5","MULTIPOINT ((481679 2140759))","Unknown Point Feature",5,"26","AXOTLA","CENTRO","A.ÿ OBREGON","AXOTLA","JUAREZÿ ESQ.ÿÿ MORELOS",226,481679,2140759,"Dot",-99.1744506599631,19.3607981569748
"6","iii_1_2_pozos_sacmex.6","MULTIPOINT ((477653 2140794))","Unknown Point Feature",6,"29","BARRANCAÿ DELÿ MUERTO","PONIENTE","A.ÿ OBREGON","PARQUE","TARANGOÿ S/Nÿ ENTREÿ 5ÿ DEÿ MAYOÿ Yÿ CALZ.ÿ LAS",270,477653,2140794,"Dot",-99.2127860454606,19.3610737007917
"7","iii_1_2_pozos_sacmex.7","MULTIPOINT ((479810 2139593))","Unknown Point Feature",7,"32","CAMPESTRE","CENTRO","A.ÿ OBREGON","SANÿ ANGELÿ INN","SANÿ CARLOSÿ ENTREÿ REFORMAÿ Yÿ REINA",220,479810,2139593,"Dot",-99.1922346670493,19.3502427638246
"8","iii_1_2_pozos_sacmex.8","MULTIPOINT ((481592 2141435))","Unknown Point Feature",8,"35","CASTA¥EDAÿ No.5","PONIENTE","A.ÿ OBREGON","MERCEDÿ GOMEZ","M.ÿ GOMEZÿ ENTREÿ MIGUELÿ OCARRANZAÿ Yÿ DR.ÿ FC",1302,481592,2141435,"Dot",-99.1752855913096,19.3669065664113
"9","iii_1_2_pozos_sacmex.9","MULTIPOINT ((478675 2141715))","Unknown Point Feature",9,"36","CASTA¥EDAÿ No.6","PONIENTE","A.ÿ OBREGON","LAÿ CASCADA","CENTENARIOÿ ENTREÿ CUAJIMALPAÿ Yÿ AZCAPOTZALCO",1123,478675,2141715,"Dot",-99.2030650096399,19.3694081375439
"10","iii_1_2_pozos_sacmex.10","MULTIPOINT ((479057 2144020))","Unknown Point Feature",10,"181","CRISTOÿ REY","PONIENTE","A.ÿ OBREGON","CRISTOÿ REY","ESCUADRONÿ 201ÿÿ ESQ.ÿ PROLONGACIONÿ CALLEÿ 10",300,479057,2144020,"Dot",-99.1994528265589,19.3902430366089
"11","iii_1_2_pozos_sacmex.11","MULTIPOINT ((480568 2138793))","Unknown Point Feature",11,"57","HUERTASÿ DELÿ CARMEN","CENTRO","A.ÿ OBREGON","CHIMALISTAC","PASEOÿ DELÿ RIOÿ CASIÿ ESQ.ÿ CONÿ SECRETO",200,480568,2138793,"Dot",-99.1850094163591,19.3430203981999
"12","iii_1_2_pozos_sacmex.12","MULTIPOINT ((479956 2139039))","Unknown Point Feature",12,"63","JARDINÿ SANÿ JACINTO","CENTRO","A.ÿ OBREGON","SANÿ ANGEL","FRONTERAÿ ESQ.ÿ DR.ÿ GALVEZÿ (INT.ÿ PLAZAÿ SANÿ",200,479956,2139039,"Dot",-99.1908387451034,19.3452375647447
"13","iii_1_2_pozos_sacmex.13","MULTIPOINT ((478087 2137505))","Unknown Point Feature",13,"64","JARDINESÿ DELÿ PEDREGALÿ No.1","CENTRO","A.ÿ OBREGON","JARDINESÿ DELÿ PEDREGAL","AV.ÿ SANÿ JERONIMOÿÿ ENTREÿ AGUAÿ Yÿ PERIFERICO",250,478087,2137505,"Dot",-99.2086157838474,19.3313548519811
"14","iii_1_2_pozos_sacmex.14","MULTIPOINT ((478962 2137842))","Unknown Point Feature",14,"65","JARDINESÿ DELÿ PEDREGALÿ No.2","CENTRO","A.ÿ OBREGON","JARDINESÿ DELÿ PEDREGAL","AV.ÿ SANÿ JERONIMOÿ S/Nÿ ESQ.ÿÿ PASEOSÿ DELÿ PE",330,478962,2137842,"Dot",-99.200289374678,19.334409763911
"15","iii_1_2_pozos_sacmex.15","MULTIPOINT ((479515 2136304))","Unknown Point Feature",15,"66","JARDINESÿ DELÿ PEDREGALÿ No.3","CENTRO","A.ÿ OBREGON","JARDINESÿ DELÿ PEDREGAL","FUEGOÿ 690ÿÿÿ  ESQ.ÿ DELÿ FARALLON",239,479515,2136304,"Dot",-99.195008143564,19.3205160871221
"16","iii_1_2_pozos_sacmex.16","MULTIPOINT ((487192 2140232))","Unknown Point Feature",16,"67","JARDINESÿ DELÿ PEDREGALÿ No.4","CENTRO","A.ÿ OBREGON","JARDINESÿ DELÿ PEDREGAL","CRATERÿ No.ÿ 729ÿ ESQ.ÿ AGUA",206,487192,2140232,"Dot",-99.1219530133053,19.3560782168406
"17","iii_1_2_pozos_sacmex.17","MULTIPOINT ((477851 2136122))","Unknown Point Feature",17,"68","JARDINESÿ DELÿ PEDREGALÿ No.4?B","CENTRO","A.ÿ OBREGON","JARDINESÿ DELÿ PEDREGAL","CRATERÿ ESQUINAÿ COLEGIO",262,477851,2136122,"Dot",-99.2108465018417,19.3188536749344
"18","iii_1_2_pozos_sacmex.18","MULTIPOINT ((477179 2135231))","Unknown Point Feature",18,"69","JARDINESÿ DELÿ PEDREGALÿ No.5","CENTRO","A.ÿ OBREGON","JARDINESÿ DELÿ PEDREGAL","PICACHOÿ 279ÿÿ ENTREÿ CRIOQUEÿ Yÿ CDA.ÿ PICACHO",255,477179,2135231,"Dot",-99.2172329081318,19.3107939249605
"19","iii_1_2_pozos_sacmex.19","MULTIPOINT ((487224 2143090))","Unknown Point Feature",19,"70","JARDINESÿ DELÿ PEDREGALÿ No.5?B","CENTRO","A.ÿ OBREGON","JARDINESÿ DELÿ PEDREGAL","PICACHOÿ No.ÿ 279ÿ ESQ.ÿ CAMINOÿ Aÿ SANTAÿ TERE",225,487224,2143090,"Dot",-99.1216674865959,19.3819070307213
"20","iii_1_2_pozos_sacmex.20","MULTIPOINT ((478147 2138857))","Unknown Point Feature",20,"81","LOMASÿ DEÿ SANÿ ANGELÿ INN","PONIENTE","A.ÿ OBREGON","LOMASÿ DEÿ SANÿ ANGELÿ INN","CABRIOÿ CERRADAÿ DELÿ VERGEL",324,478147,2138857,"Dot",-99.2080600526882,19.3435739263818
"21","iii_1_2_pozos_sacmex.21","MULTIPOINT ((479170 2141130))","Unknown Point Feature",21,"88","MERCEDÿ GOMEZÿ No.1","PONIENTE","A.ÿ OBREGON","MERCEDÿ GOMEZ","AV.ÿ 5ÿ DEÿ MAYOÿ ENTREÿ TACUBAYAÿ Yÿ AZCAPOTZA",240,479170,2141130,"Dot",-99.1983450519506,19.3641265315294
"22","iii_1_2_pozos_sacmex.22","MULTIPOINT ((478646 2141438))","Unknown Point Feature",22,"89","MERCEDÿ GOMEZÿ No.2","PONIENTE","A.ÿ OBREGON","U.H.ÿ LOMASÿ DEÿ PLATEROS","CENTENARIOÿ ENTREÿ ALTAÿ TENSIONÿ Yÿ CAMINOÿ RI",250,478646,2141438,"Dot",-99.2033380532675,19.3669045064658
"23","iii_1_2_pozos_sacmex.23","MULTIPOINT ((477883 2138458))","Unknown Point Feature",23,"180","OLIVARÿ DEÿ LOSÿ PADRES","PONIENTE","A.ÿ OBREGON","PROGRESO","AV.ÿ TOLUCAÿ ENTREÿ CERRADAÿ DEÿ TOLUCAÿ Yÿÿ TR",299,477883,2138458,"Dot",-99.2105689316566,19.3399651612123
"24","iii_1_2_pozos_sacmex.24","MULTIPOINT ((478238 2141992))","Unknown Point Feature",24,"98","OLIVARÿ DELÿ CONDE","PONIENTE","A.ÿ OBREGON","U.H.ÿ BATALLONÿ DEÿ SANÿ PATR","CALLEÿ 8ÿ Yÿÿ SUÿ PROLONGACIONÿ PORÿ AV.ÿ ELÿ R",243,478238,2141992,"Dot",-99.2072294391667,19.3719067693012
"25","iii_1_2_pozos_sacmex.25","MULTIPOINT ((476742 2135785))","Unknown Point Feature",25,"289","PADIERNAÿ No.4","SUR/TLA","A.ÿ OBREGON","SANÿ JERONIMOÿ ACULCO","ANILLOÿ PERIFERICOÿ SURÿ ESQ.ÿ CALLEÿ OAXACA",300,476742,2135785,"Dot",-99.2213994241875,19.315795595744
"26","iii_1_2_pozos_sacmex.26","MULTIPOINT ((479611 2143527))","Unknown Point Feature",26,"120","POZOÿ CASSO","PONIENTE","A.ÿ OBREGON","CAROLA","AV.ÿ CENTRALÿ Yÿ PROLONGACIONÿ CALLEÿ 18",279,479611,2143527,"Dot",-99.1941714910588,19.3857933812918
"27","iii_1_2_pozos_sacmex.27","MULTIPOINT ((477800 2141685))","Unknown Point Feature",28,"147","SANTAÿ LUCIAÿ MIXCOAC","PONIENTE","A.ÿ OBREGON","U.ÿ LOMASÿ DEÿ PLATEROS","FTE.ÿ EDIF.ÿ H?7ÿ AV.ÿ RIOÿ MIXCOACÿ OTE.",250,477800,2141685,"Dot",-99.2113967117459,19.3691275340361
"28","iii_1_2_pozos_sacmex.28","MULTIPOINT ((478997 2142360))","Unknown Point Feature",29,"269","SANTAÿ LUCIAÿ No.1","PONIENTE","A.ÿ OBREGON","ALFALFAR","TIZIANOÿ ENTREÿÿ ROSAÿ AMARILLAÿ Yÿ ROSAÿ NEGRA",0,478997,2142360,"Dot",-99.2000059251924,19.3752405676703
"29","iii_1_2_pozos_sacmex.29","MULTIPOINT ((479846 2145003))","Unknown Point Feature",30,"155","TACUBAYAÿ No.1","PONIENTE","A.ÿ OBREGON","BELLAVISTA","PALOMAÿ ENTREÿ TACUBAYAÿ Yÿ J.ÿ ROSALES",270,479846,2145003,"Dot",-99.1919491502721,19.3991347353739
"30","iii_1_2_pozos_sacmex.30","MULTIPOINT ((478737 2144789))","Unknown Point Feature",31,"154","TACUBAYAÿ No.2","PONIENTE","A.ÿ OBREGON","ACUEDUCTO","CALZ.ÿ MINASÿ DEÿ ARENAÿ CERCAÿ METROÿ OBSERVAT",280,478737,2144789,"Dot",-99.202508960936,19.3971893075389
"31","iii_1_2_pozos_sacmex.31","MULTIPOINT ((477658 2144728))","Unknown Point Feature",32,"156","TACUBAYAÿ No.3","PONIENTE","A.ÿ OBREGON","LIBERALESÿ DEÿ 1857","CAMINOÿ BELEMÿ DEÿ LASÿ FLORESÿ ENTREÿ AND.ÿ TU",300,477658,2144728,"Dot",-99.2127845965042,19.3966262995372
"32","iii_1_2_pozos_sacmex.32","MULTIPOINT ((475287 2138676))","Unknown Point Feature",33,"157","TETELPAN","PONIENTE","A.ÿ OBREGON","PUEBLOÿ DEÿ TETELPAN","CAMINOÿ ALÿ DESIERTOÿ DEÿ LOSÿ LEONESÿÿ Yÿ CERR",325,475287,2138676,"Dot",-99.2352872990461,19.3419050569402
"33","iii_1_2_pozos_sacmex.33","MULTIPOINT ((478671 2138488))","Unknown Point Feature",34,"158","TIZAPAN","CENTRO","A.ÿ OBREGON","PROGRESO","AV.ÿÿÿ  VERACRUZÿ ENTREÿ NAYARITÿ Yÿ PUEBLA",300,478671,2138488,"Dot",-99.2030670048791,19.340244793116
"34","iii_1_2_pozos_sacmex.34","MULTIPOINT ((478019 2153673))","Unknown Point Feature",35,"238","AHUIZOTLA","NORTE","AZCAPOTZALCO","SANTIAGOÿ AHUIZOTLA","AV.SANTIAGOÿÿ AHUIZOTLAÿ ENTREÿ FLORESTAÿ Yÿ MO",200,478019,2153673,"Dot",-99.2094500934505,19.4774679960519
"35","iii_1_2_pozos_sacmex.35","MULTIPOINT ((483967 2155388))","Unknown Point Feature",36,"23","ATORONÿ No.1","NORTE","AZCAPOTZALCO","SANÿ ANDRESÿ LASÿÿ SALINAS","CALZADAÿ AZCAPOTZALCOÿ LAÿ VILLAÿ Yÿ CALZ.ÿ VAL",201,483967,2155388,"Dot",-99.1527881703195,19.4930234065647
"36","iii_1_2_pozos_sacmex.36","MULTIPOINT ((483821 2154988))","Unknown Point Feature",37,"24","ATORONÿ No.2","NORTE","AZCAPOTZALCO","SANÿ ANDRESÿ DEÿ LASÿ SALINAS","AZCAPOTZALCOÿÿ LAÿ VILLAÿ ESQ.ÿ NORTEÿ 35",100,483821,2154988,"Dot",-99.1541760665943,19.4894073597777
"37","iii_1_2_pozos_sacmex.37","MULTIPOINT ((482772 2154928))","Unknown Point Feature",38,"183","ATORONÿ No.5","NORTE","AZCAPOTZALCO","U.H.ÿ SANÿ JUANÿ DEÿ ARAGON","INT.ÿ DEPORTIVOÿ GALEANA",0,482772,2154928,"Dot",-99.1641718247701,19.4888563430803
"38","iii_1_2_pozos_sacmex.38","MULTIPOINT ((482655 2154651))","Unknown Point Feature",39,"184","ATORONÿ No.6","NORTE","AZCAPOTZALCO","U.H.ÿ SANÿ JUANÿ DEÿ ARAGON","INT.ÿ DELÿ DEPORTIVOÿ HNOS.ÿ GALEANA,ÿ AV.ÿ JOS",170,482655,2154651,"Dot",-99.1652842162385,19.4863520335969
"39","iii_1_2_pozos_sacmex.39","MULTIPOINT ((478460 2157084))","Unknown Point Feature",40,"229","AZCAPOTZALCOÿ No.1ÿ (ELÿ ROSARI","NORTE","AZCAPOTZALCO","U.H.ÿ ELÿ ROSARIO","AV.ÿ LASÿ CULTURASÿ ENTREÿ RIOÿ BLANCOÿ Yÿ CINC",200,478460,2157084,"Dot",-99.205286821664,19.508298494179
"40","iii_1_2_pozos_sacmex.40","MULTIPOINT ((480818 2154715))","Unknown Point Feature",41,"236","CAMPAMENTOÿ AZCAPOTZALCO","NORTE","AZCAPOTZALCO","BARRIOÿ SANÿ MARCOS","MECOAYAÿ ESQ.ÿ CJONÿ SANÿ MARCOS",200,480818,2154715,"Dot",-99.1827899682019,19.4869135903449
"41","iii_1_2_pozos_sacmex.41","MULTIPOINT ((479360 2154101))","Unknown Point Feature",42,"237","CAMPOÿ ENCANTADO","NORTE","AZCAPOTZALCO","SANÿ BARTOLOÿ CACAHUALTONGO","CALZ.ÿ SANÿ ISIDROÿ ENTREÿ TOCHTLIÿ Yÿ MANUELÿ",200,479360,2154101,"Dot",-99.1966768488749,19.4813502215301
"42","iii_1_2_pozos_sacmex.42","MULTIPOINT ((480962 2152317))","Unknown Point Feature",43,"39","CLAVERIA","NORTE","AZCAPOTZALCO","CLAVERIA","AV.ÿ CLAVERIAÿ Yÿ CALLEÿ PALESTINA",265,480962,2152317,"Dot",-99.1813936414361,19.4652438344557
"43","iii_1_2_pozos_sacmex.43","MULTIPOINT ((482858 2153790))","Unknown Point Feature",44,"241","DEPORTIVOÿ FERRERIAÿÿ No.2","NORTE","AZCAPOTZALCO","EUZKADI","BOULEVARTDÿ FERROCARRILESÿ ENTREÿ AV.ÿ CEYLANÿ",200,482858,2153790,"Dot",-99.1633419906048,19.4785727826296
"44","iii_1_2_pozos_sacmex.44","MULTIPOINT ((480501 2157266))","Unknown Point Feature",45,"231","DEPORTIVOÿ REYNOSA","NORTE","AZCAPOTZALCO","PUEBLOÿ DEÿ SANTAÿ BARBARA","AV.ÿ SANÿ PABLOÿÿ ESQ.ÿ EJEÿ 5ÿ NORTE",200,480501,2157266,"Dot",-99.1858370442152,19.5099642765047
"45","iii_1_2_pozos_sacmex.45","MULTIPOINT ((482187 2152715))","Unknown Point Feature",46,"55","HOGARÿ Yÿ SEGURIDAD","NORTE","AZCAPOTZALCO","HOGARÿ Yÿ SEGURIDAD","MALVONÿ S/Nÿÿ ENTREÿ PI¥ONÿ Yÿ PI¥A",200,482187,2152715,"Dot",-99.1697256517219,19.4688519379378
"46","iii_1_2_pozos_sacmex.46","MULTIPOINT ((480757 2151887))","Unknown Point Feature",47,"239","JARDINÿ SANÿ ALVARO","NORTE","AZCAPOTZALCO","SANÿ ALVARO","BOCAÿ NEGRAÿ ESQ.ÿ GRECIA",200,480757,2151887,"Dot",-99.1833425011227,19.4613558809076
"47","iii_1_2_pozos_sacmex.47","MULTIPOINT ((481605 2153792))","Unknown Point Feature",48,"78","LAÿ LIBERTAD","NORTE","AZCAPOTZALCO","LAÿ LIBERTAD","NORTEÿ 79?ÿ Aÿ No.ÿ 471ÿ ENTREÿ WAKEÿÿ Yÿ SALOM",200,481605,2153792,"Dot",-99.1752815051817,19.4785796989902
"48","iii_1_2_pozos_sacmex.48","MULTIPOINT ((482565 2152254))","Unknown Point Feature",49,"188","NUEVAÿ SANTAÿ MARIA","NORTE","AZCAPOTZALCO","NUEVAÿ SANTAÿ MARIA","CLAVELINASÿ ENTREÿ FRAMBUESAÿ Yÿ CRUZÿ GALVEZ",200,482565,2152254,"Dot",-99.1661197630474,19.464689131445
"49","iii_1_2_pozos_sacmex.49","MULTIPOINT ((481778 2152347))","Unknown Point Feature",50,"240","OBREROÿ POPULAR","NORTE","AZCAPOTZALCO","OBREROÿ POPULAR","CALZ.ÿ CAMARONESÿ ESQ.ÿÿ NTE.ÿ 67",200,481778,2152347,"Dot",-99.1736191273447,19.4655225631992
"50","iii_1_2_pozos_sacmex.50","MULTIPOINT ((482247 2154621))","Unknown Point Feature",51,"100","PANTACOÿ No.1","NORTE","AZCAPOTZALCO","PANTACO","DENTROÿ DEÿ F.F.ÿ C.C.ÿ PANTACO",250,482247,2154621,"Dot",-99.1691718414978,19.4860773286871
"51","iii_1_2_pozos_sacmex.51","MULTIPOINT ((482450 2154252))","Unknown Point Feature",52,"101","PANTACOÿ No.2","NORTE","AZCAPOTZALCO","PANTACO","INTERIORÿÿ DEÿÿ F.F.C.C",250,482450,2154252,"Dot",-99.1672339972866,19.482744409752
"52","iii_1_2_pozos_sacmex.52","MULTIPOINT ((482275 2153576))","Unknown Point Feature",53,"102","PANTACOÿ No.3","NORTE","AZCAPOTZALCO","PANTACO","INTERIORÿÿ DEÿ F.F.C.C.ÿ PANTACO",242,482275,2153576,"Dot",-99.1688952352731,19.4766337333539
"53","iii_1_2_pozos_sacmex.53","MULTIPOINT ((480791 2156436))","Unknown Point Feature",54,"106","PARQUEÿ FERRERIA","NORTE","AZCAPOTZALCO","FERRERIA","AV.ÿ SANÿ PABLOÿÿ INT.ÿ DELÿ DEPORTIVOÿ FRENTEÿ",150,480791,2156436,"Dot",-99.183064743325,19.5024662681275
"54","iii_1_2_pozos_sacmex.54","MULTIPOINT ((479186 2154501))","Unknown Point Feature",56,"189","PETROLERA","NORTE","AZCAPOTZALCO","PETROLERA","FAJAÿ DEÿ OROÿ ENTREÿ EBANOÿ Yÿ FRANCITA",202,479186,2154501,"Dot",-99.1983392738087,19.4849632757443
"55","iii_1_2_pozos_sacmex.55","MULTIPOINT ((478284 2156193))","Unknown Point Feature",57,"230","PRADOSÿ DELÿ ROSARIO","NORTE","AZCAPOTZALCO","HACIENDAÿ ELÿ ROSARIO","AV.ÿ CEMPOALTECASÿ ENTREÿ HDA.ÿ ENCEROÿ Yÿ PEDE",200,478284,2156193,"Dot",-99.2069539396148,19.5002445013937
"56","iii_1_2_pozos_sacmex.56","MULTIPOINT ((479012 2155762))","Unknown Point Feature",58,"233","PRESIDENTEÿ MADERO","NORTE","AZCAPOTZALCO","U.H.ÿ PRESIDENTEÿ MADERO","TOMASÿ MARINÿ ESQ.ÿ DOROTEOÿ ARANGO",202,479012,2155762,"Dot",-99.2000113303445,19.4963572941835
"57","iii_1_2_pozos_sacmex.57","MULTIPOINT ((483645 2153390))","Unknown Point Feature",59,"242","PRO_HOGAR","NORTE","AZCAPOTZALCO","PROÿ HOGAR","AV.ÿ CUITLAHUACÿ ENTREÿ CALLEÿ 8ÿ Yÿ CALLEÿ 10",200,483645,2153390,"Dot",-99.1558394216443,19.4749645157422
"58","iii_1_2_pozos_sacmex.58","MULTIPOINT ((478166 2155332))","Unknown Point Feature",60,"232","PROVIDENCIA","NORTE","AZCAPOTZALCO","PROVIDENCIA","MANUELÿ SALAZARÿ ENTREÿ SANCHEZÿ COLINÿ Yÿ FRAN",200,478166,2155332,"Dot",-99.208068531767,19.4924622378083
"59","iii_1_2_pozos_sacmex.59","MULTIPOINT ((478982 2154932))","Unknown Point Feature",61,"137","SANÿ JUANÿ TLIHUACA","NORTE","AZCAPOTZALCO","PETROLERA","LERDOÿ DEÿ TEJADAÿ Yÿ CUICHAPA",140,478982,2154932,"Dot",-99.200287996518,19.4888561482515
"60","iii_1_2_pozos_sacmex.60","MULTIPOINT ((480091 2156129))","Unknown Point Feature",62,"140","SANÿ MARTINÿ XOCHINAHUACÿ No.1","NORTE","AZCAPOTZALCO","SANÿ MARTINÿ XOCHINAHUAC","16 DEÿ SEPTIEMBREÿ CASIÿ ESQ.ÿ CALZ.ÿ ELÿ ROSAR",201,480091,2156129,"Dot",-99.1897325906573,19.4996849949181
"61","iii_1_2_pozos_sacmex.61","MULTIPOINT ((478750 2156131))","Unknown Point Feature",63,"141","SANÿ MARTINÿ XOCHINAHUACÿ No.2","NORTE","AZCAPOTZALCO","TIERRAÿ NUEVA","AV.ÿ ELÿ ROSARIOÿ ESQ.ÿ AQUILESÿ SERDAN",190,478750,2156131,"Dot",-99.2025122735092,19.4996892222292
"62","iii_1_2_pozos_sacmex.62","MULTIPOINT ((478543 2153488))","Unknown Point Feature",64,"142","SANÿ MIGUELÿ AMANTLA","NORTE","AZCAPOTZALCO","SANÿ MIGUELÿ AMANTLA","CALLEÿ MORELOSÿ ESQ.ÿ DEMOCRACIAS",210,478543,2153488,"Dot",-99.2044549874619,19.4758018251509
"63","iii_1_2_pozos_sacmex.63","MULTIPOINT ((478078 2154410))","Unknown Point Feature",65,"143","SANÿ PEDROÿ XALPAÿ (HIDALGO)","NORTE","AZCAPOTZALCO","SANÿ PEDROÿ XALPA","AV.ÿ HIDALGOÿ ESQUINAÿ MORELOS",190,478078,2154410,"Dot",-99.2088964423583,19.4841290255931
"64","iii_1_2_pozos_sacmex.64","MULTIPOINT ((477320 2154688))","Unknown Point Feature",66,"234","SANÿ PEDROÿ XALPAÿ No.2","NORTE","AZCAPOTZALCO","SANÿ PEDROÿ XALPA","CALZ.ÿ ARMASÿ Yÿ CALZ.ÿ SANÿ ISIDRO",189,477320,2154688,"Dot",-99.2161227788337,19.4866328767733
"65","iii_1_2_pozos_sacmex.65","MULTIPOINT ((481577 2155206))","Unknown Point Feature",67,"145","SANTAÿ CATARINAÿ AZCAPOTZALCO","NORTE","AZCAPOTZALCO","SANTAÿ CATARINA","CALZ.ÿ GUADALUPEÿ ENTREÿ PAPANTLAÿ Yÿ CENTRAL",247,481577,2155206,"Dot",-99.1755620805264,19.4913579917819
"66","iii_1_2_pozos_sacmex.66","MULTIPOINT ((483995 2153789))","Unknown Point Feature",68,"161","TRABAJADORESÿ DELÿ HIERRO","NORTE","AZCAPOTZALCO","TRABAJADORESÿ DELÿ HIERRO","CALLEÿ 16ÿ ENTREÿ MINEROSÿ Yÿ METALURGICOS",200,483995,2153789,"Dot",-99.1525078124932,19.4785731895118
"67","iii_1_2_pozos_sacmex.67","MULTIPOINT ((479653 2155331))","Unknown Point Feature",69,"235","VILLASÿ AZCAPOTZALCOÿ (MECOAYA)","NORTE","AZCAPOTZALCO","LAÿ PRECIOSA","AVÿ TEZOZOMOCÿ ESQ.ÿ AQUILESÿ SERDAN",200,479653,2155331,"Dot",-99.1938981198145,19.4924689301793
"68","iii_1_2_pozos_sacmex.68","MULTIPOINT ((464263 2141154))","Unknown Point Feature",70,"3","ACACIAS","CENTRO","B.ÿ JUAREZ","ACACIAS","ADOLFOÿ PRIETOÿ Yÿ JOSEÿ MA.ÿ ALLOQUI",190,464263,2141154,"Dot",-99.3402897652256,19.3641334599989
"69","iii_1_2_pozos_sacmex.69","MULTIPOINT ((485329 2144936))","Unknown Point Feature",71,"13","ALAMOSÿ JARDINÿ No.1","CENTRO","B.ÿ JUAREZ","ALAMOS","SORIAÿ NO.ÿ 83ÿ CASIÿ ESQ.ÿ CASTILLA",150,485329,2144936,"Dot",-99.1397280107809,19.398576876193
"70","iii_1_2_pozos_sacmex.70","MULTIPOINT ((485125 2145428))","Unknown Point Feature",72,"14","ALAMOSÿ JARDINÿ No.2","CENTRO","B.ÿ JUAREZ","ALAMOS","ANDALUCIAÿ No.ÿ 33ÿ ENTREÿ CORU¥Aÿ Yÿ SEGOVIA",201,485125,2145428,"Dot",-99.1416747707488,19.4030217061482
"71","iii_1_2_pozos_sacmex.71","MULTIPOINT ((485210 2141678))","Unknown Point Feature",73,"15","ALBERTÿ Yÿ BERLIN","CENTRO","B.ÿ JUAREZ","ALBERT","GLORIETAÿ DEÿ LAÿ CALLEÿ ALBERTÿ ESQ.ÿ BERLIN",3,485210,2141678,"Dot",-99.1408360612852,19.3691325412603
"72","iii_1_2_pozos_sacmex.72","MULTIPOINT ((480340 2143404))","Unknown Point Feature",74,"22","ARNAIZÿ ROSENDO","CENTRO","B.ÿ JUAREZ","NONOALCO","AV.ÿ REVOLUCIONÿ CRUCEÿ CONÿ ANDREAÿ DELÿ CASTA",200,480340,2143404,"Dot",-99.1872277297827,19.384689076957
"73","iii_1_2_pozos_sacmex.73","MULTIPOINT ((484221 2144967))","Unknown Point Feature",75,"199","DIAGONALÿ SANÿ ANTONIO","CENTRO","B.ÿ JUAREZ","NARVARTE","DR.ÿ JOSEÿ MA.ÿ VERTIZÿ Yÿ DIAGONALÿ SANÿ ANTON",120,484221,2144967,"Dot",-99.1502809401852,19.398848614379
"74","iii_1_2_pozos_sacmex.74","MULTIPOINT ((480807 2144295))","Unknown Point Feature",76,"72","JARDINÿ POMBO","CENTRO","B.ÿ JUAREZ","SANÿ PEDROÿ DEÿ LOSÿ PINOS","CALLEÿ 7ÿ ENTREÿ AV.ÿ 2ÿ Yÿ AV.ÿ 3ÿÿ INTERIORÿ",280,480807,2144295,"Dot",-99.1827893606516,19.3927457960334
"75","iii_1_2_pozos_sacmex.75","MULTIPOINT ((478967 2142083))","Unknown Point Feature",77,"73","LAÿ CAMPANA","CENTRO","B.ÿ JUAREZ","INSURGENTESÿ MIXCOAC","AV.ÿ RODINÿ ENTREÿ CAMPANAÿ Yÿ CALLEÿ GOYA",200,478967,2142083,"Dot",-99.200288546949,19.3727369317955
"76","iii_1_2_pozos_sacmex.76","MULTIPOINT ((483023 2142786))","Unknown Point Feature",78,"200","LAÿ HUERTA","CENTRO","B.ÿ JUAREZ","DELÿ VALLEÿ DELÿ SUR","HERIBERTOÿ FRIASÿ ENTREÿ MATIASÿ ROMEROÿ Yÿ AV.",129,483023,2142786,"Dot",-99.1616713338446,19.3791285454718
"77","iii_1_2_pozos_sacmex.77","MULTIPOINT ((482060 2142234))","Unknown Point Feature",79,"87","MAYORAZGO","CENTRO","B.ÿ JUAREZ","TLACOQUEMECATLÿ DELÿ VALLE","AV.ÿ SANÿ LORENZOÿ ENTREÿ ADOLFOÿ PRIETOÿ Yÿ DR",200,482060,2142234,"Dot",-99.1708367170623,19.3741315901943
"78","iii_1_2_pozos_sacmex.78","MULTIPOINT ((485153 2144137))","Unknown Point Feature",80,"90","MIGUELÿ ALEMAN","CENTRO","B.ÿ JUAREZ","MIGUELÿ ALEMAN","ISABELÿ LAÿ CATOLICAÿ ESQ.ÿ ESTAFETAS",181,485153,2144137,"Dot",-99.1413980115178,19.3913548018849
"79","iii_1_2_pozos_sacmex.79","MULTIPOINT ((480690 2143895))","Unknown Point Feature",81,"91","MIRAFLORES","CENTRO","B.ÿ JUAREZ","SANÿ PEDROÿ DEÿ LOSÿ PINOS","CALLEÿ 21ÿ Yÿ AV.ÿ 2",260,480690,2143895,"Dot",-99.183899575743,19.3891297708475
"80","iii_1_2_pozos_sacmex.80","MULTIPOINT ((485092 2140817))","Unknown Point Feature",82,"192","MIRAVALLE","CENTRO","B.ÿ JUAREZ","MIRAVALLE","GLORIETAÿ DEÿ LAÿ CALLEÿ MIRAFLORESÿ Yÿ PIRINEO",200,485092,2140817,"Dot",-99.1419529645478,19.3613505542851
"81","iii_1_2_pozos_sacmex.81","MULTIPOINT ((486058 2144751))","Unknown Point Feature",83,"92","MODERNA","CENTRO","B.ÿ JUAREZ","MODERNA","MIGUELÿ ANGELÿ Yÿ JUANAÿ DEÿ ARCO",203,486058,2144751,"Dot",-99.1327836029279,19.3969101850342
"82","iii_1_2_pozos_sacmex.82","MULTIPOINT ((481362 2144417))","Unknown Point Feature",84,"96","NAPOLES","CENTRO","B.ÿ JUAREZ","NAPOLES","PENSILVANIAÿ ENTREÿ GEORGIAÿ Yÿ ALABAMA",200,481362,2144417,"Dot",-99.1775048930231,19.3938535774855
"83","iii_1_2_pozos_sacmex.83","MULTIPOINT ((485677 2142815))","Unknown Point Feature",85,"97","NATIVITAS","CENTRO","B.ÿ JUAREZ","NATIVITAS","JUSTINAÿ ENTREÿ ELENAÿ Yÿ VIRGINIA",279,485677,2142815,"Dot",-99.1363976677911,19.3794113283552
"84","iii_1_2_pozos_sacmex.84","MULTIPOINT ((485940 2142876))","Unknown Point Feature",86,"097?B","NATIVITASÿ DONÿ LUIS","CENTRO","B.ÿ JUAREZ","NATIVITAS","CAMELLONÿ PLUTARCOÿ ELIASÿ CALLESÿ FRENTEÿ ALÿ",230,485940,2142876,"Dot",-99.1338935791753,19.3799644631691
"85","iii_1_2_pozos_sacmex.85","MULTIPOINT ((485735 2142077))","Unknown Point Feature",87,"318","NORMANDIA","CENTRO","B.ÿ JUAREZ","ZACAHUIZCO","PLUTARCOÿ ELIASÿ CALLESÿ Yÿ NORMANDIA",300,485735,2142077,"Dot",-99.1358398080162,19.3727422213508
"86","iii_1_2_pozos_sacmex.86","MULTIPOINT ((485037 2143952))","Unknown Point Feature",88,"090?A","NUEVOÿ MIGUELÿ ALEMAN","CENTRO","B.ÿ JUAREZ","MIGUELÿ ALEMAN","ALMEIDAÿ ENTREÿ CASTILLAÿ Yÿ ANDALUCIA",181,485037,2143952,"Dot",-99.142501300509,19.389682043982
"87","iii_1_2_pozos_sacmex.87","MULTIPOINT ((488098 2142229))","Unknown Point Feature",89,"193","ORTIZÿ RUBIO","CENTRO","B.ÿ JUAREZ","SANÿ SIMONÿ TICUMAC","CENTENARIOÿ ENTREÿ AV.ÿ DEÿ LAÿ LUZÿ Eÿ ING.ÿ P",200,488098,2142229,"Dot",-99.1133389034165,19.374131294622
"88","iii_1_2_pozos_sacmex.88","MULTIPOINT ((482761 2144108))","Unknown Point Feature",90,"105","PARQUEÿ CENTRALÿ (MARISCALÿ SUC","CENTRO","B.ÿ JUAREZ","VALLEÿ CENTRO","DIVISIONÿ DELÿ NORTEÿ PROLONGÿ .ÿ SANÿ ANTONIO",150,482761,2144108,"Dot",-99.1641783160474,19.3910735817988
"89","iii_1_2_pozos_sacmex.89","MULTIPOINT ((483839 2142017))","Unknown Point Feature",91,"198","PARQUEÿ DEÿ LOSÿ VENADOS","CENTRO","B.ÿ JUAREZ","LETRANÿ VALLE","DR.ÿ VERTIZÿ ENTREÿ MUNICIPIOÿ LIBREÿ Yÿ MIGUEL",200,483839,2142017,"Dot",-99.1538940922147,19.372185613171
"90","iii_1_2_pozos_sacmex.90","MULTIPOINT ((484567 2141063))","Unknown Point Feature",92,"119","PORTALES","CENTRO","B.ÿ JUAREZ","PORTALES","AV.ÿ REPUBLICASÿ ENTREÿ CALLEÿ RUMANIAÿ Yÿ BELG",0,484567,2141063,"Dot",-99.1469539587708,19.3635697642683
"91","iii_1_2_pozos_sacmex.91","MULTIPOINT ((484249 2143830))","Unknown Point Feature",93,"127","RADIOÿ MIL","CENTRO","B.ÿ JUAREZ","NARVARTE","MITLAÿ ENTREÿ CONCEPCIONÿ BEISTEGUIÿ Yÿ TORRESÿ",200,484249,2143830,"Dot",-99.1500048516253,19.3885734618633
"92","iii_1_2_pozos_sacmex.92","MULTIPOINT ((396234 2168007))","Unknown Point Feature",94,"CH?1","CHARCOÿ LAÿ CURVAÿ No.1","NORTE","CHICONAUTLA","JARDINESÿ DEÿ MORELOS","PLAYAÿ OLAÿ VERDEÿ Yÿ PLAYAÿ TECOLUTLA",66,396234,2168007,"Dot",-99.9894903902686,19.6044105304063
"93","iii_1_2_pozos_sacmex.93","MULTIPOINT ((395973 2168132))","Unknown Point Feature",95,"CH?2","CHARCOÿ LAÿ CURVAÿ No.2","NORTE","CHICONAUTLA","JARDINESÿ DEÿ MORELOS","PLAYAÿ MANZANILLOÿ Yÿ PLAYAÿ TECOLUTLA",65,395973,2168132,"Dot",-99.9919858771909,19.6055263123772
"94","iii_1_2_pozos_sacmex.94","MULTIPOINT ((395738 2167856))","Unknown Point Feature",96,"CH?3","CHARCOÿ LAÿ CURVAÿ No.3","NORTE","CHICONAUTLA","JARDINESÿ DEÿ MORELOS","PLAYAÿ LINDAÿ ENTREÿ PLAYAÿ AZULÿ Yÿ PLAYAÿ DEÿ",88,395738,2167856,"Dot",-99.9942112279169,19.6030201027017
"95","iii_1_2_pozos_sacmex.95","MULTIPOINT ((395419 2168104))","Unknown Point Feature",97,"CH?4","CHARCOÿ LAÿ CURVAÿ No.4","NORTE","CHICONAUTLA","JARDINESÿ DEÿ MORELOS","PLAYAÿ AZULÿ ESQ.ÿ FLAMINGOS",71,395419,2168104,"Dot",-99.9972665839735,19.6052441515281
"96","iii_1_2_pozos_sacmex.96","MULTIPOINT ((499738 2167737))","Unknown Point Feature",98,"CH?5","CHARCOÿ LAÿ CURVAÿ No.5","NORTE","CHICONAUTLA","JARDINESÿ DEÿ MORELOS","PLAYAÿ COPACABANAÿ Yÿ PLAYAÿ AZUL",64,499738,2167737,"Dot",-99.0024984771502,19.6046875428677
"97","iii_1_2_pozos_sacmex.97","MULTIPOINT ((496067 2167984))","Unknown Point Feature",99,"GC?1","GRANÿ CANALÿ No.1","NORTE","CHICONAUTLA","LASÿ HUERTAS","MARGENÿ DERECHOÿ DELÿ GRANÿ CANALÿ DELÿ DESAGE",NA,496067,2167984,"Dot",-99.0375062801639,19.6069158168765
"98","iii_1_2_pozos_sacmex.98","MULTIPOINT ((495660 2168752))","Unknown Point Feature",100,"GC?2","GRANÿ CANALÿ No.2","NORTE","CHICONAUTLA","LASÿ HUERTAS","MARGENÿ DERECHOÿ DELÿ GRANÿ CANALÿ DELÿ DESAGE",NA,495660,2168752,"Dot",-99.0413893304657,19.613855444403
"99","iii_1_2_pozos_sacmex.99","MULTIPOINT ((495369 2169398))","Unknown Point Feature",101,"GC?3","GRANÿ CANALÿ No.3","NORTE","CHICONAUTLA","GRANJASÿ ECATEPEC","MARGENÿ DERECHOÿ DELÿ GRANÿ CANALÿ DELÿ DESAGUE",321,495369,2169398,"Dot",-99.044166107441,19.6196927345233
"100","iii_1_2_pozos_sacmex.100","MULTIPOINT ((494495 2171027))","Unknown Point Feature",102,"GC?4","GRANÿ CANALÿ No.4","NORTE","CHICONAUTLA","GRANJASÿ ECATEPEC","MARGENÿ DERECHOÿ DELÿ GRANÿ CANALÿ DELÿ DESAGUE",210,494495,2171027,"Dot",-99.0525062744084,19.6344118706618
"101","iii_1_2_pozos_sacmex.101","MULTIPOINT ((499650 2169858))","Unknown Point Feature",103,"VO?1","OJOÿ DEÿ AGUAÿ No.1","NORTE","CHICONAUTLA","PUEBLOÿ DEÿ STO.ÿ TOMASÿ CHIC","AV.ÿ OJOÿ DEÿ AGUAÿ S/Nÿ ENTREÿ CALZ.ÿ NTRA.ÿ S",115,499650,2169858,"Dot",-99.0033380558804,19.6238551722333
"102","iii_1_2_pozos_sacmex.102","MULTIPOINT ((498253 2173332))","Unknown Point Feature",104,"VO?10","OJOÿ DEÿ AGUAÿ No.10","NORTE","CHICONAUTLA","HACIENDAÿ OJOÿ DEÿ AGUA","BOULEVARDÿ OJOÿ DEÿ AGUAÿ S/N",101,498253,2173332,"Dot",-99.016664906209,19.6552491526844
"103","iii_1_2_pozos_sacmex.103","MULTIPOINT ((498020 2173823))","Unknown Point Feature",105,"VO?11","OJOÿ DEÿ AGUAÿ No.11","NORTE","CHICONAUTLA","HACIENDAÿ OJOÿ DEÿ AGUA","BOULEVARDÿ OJOÿ DEÿ AGUAÿ S/N",108,498020,2173823,"Dot",-99.0188880489687,19.6596861168512
"104","iii_1_2_pozos_sacmex.104","MULTIPOINT ((497991 2174469))","Unknown Point Feature",106,"VO?12","OJOÿ DEÿ AGUAÿ No.12","NORTE","CHICONAUTLA","HACIENDAÿ OJOÿ DEÿ AGUA","BOULEVARDÿ OJOÿ DEÿ AGUAÿ S/N",102,497991,2174469,"Dot",-99.0191653856995,19.6655240084694
"105","iii_1_2_pozos_sacmex.105","MULTIPOINT ((498253 2175053))","Unknown Point Feature",107,"VO?13","OJOÿ DEÿ AGUAÿ No.13","NORTE","CHICONAUTLA","HACIENDAÿ OJOÿ DEÿ AGUA","BOULEVARDÿ OJOÿ DEÿ AGUAÿ ESQ.ÿ CALZ.ÿ HACIENDA",105,498253,2175053,"Dot",-99.0166665130839,19.6708018795137
"106","iii_1_2_pozos_sacmex.106","MULTIPOINT ((498515 2175268))","Unknown Point Feature",108,"VO?14","OJOÿ DEÿ AGUAÿ No.14","NORTE","CHICONAUTLA","HACIENDAÿ OJOÿ DEÿ AGUA","BOULEVARDÿ OJOÿ DEÿ AGUAÿ ESQ.ÿ ARCOSÿ DEÿ BELE",101,498515,2175268,"Dot",-99.0141671839155,19.6727450533246
"107","iii_1_2_pozos_sacmex.107","MULTIPOINT ((499417 2170350))","Unknown Point Feature",109,"VO?2","OJOÿ DEÿ AGUAÿ No.2","NORTE","CHICONAUTLA","LASÿ BRISAS","AV.ÿ OJOÿ DEÿ AGUAÿ S/Nÿ ENTREÿ CALZ.ÿ DEÿ GUAD",156,499417,2170350,"Dot",-99.0055604003135,19.6283013539788
"108","iii_1_2_pozos_sacmex.108","MULTIPOINT ((499272 2170750))","Unknown Point Feature",110,"VO?3","OJOÿ DEÿ AGUAÿ No.3","NORTE","CHICONAUTLA","PUEBLOÿ SANTOÿ TOMASÿ CHICONA","LAÿ VIAÿ FERROCARRILÿ Aÿ HIDALGOÿ ESQ.ÿ CALLEÿ",93,499272,2170750,"Dot",-99.0069435025301,19.6319161308736
"109","iii_1_2_pozos_sacmex.109","MULTIPOINT ((498892 2156518))","Unknown Point Feature",111,"VO?4","OJOÿ DEÿ AGUAÿ No.4","NORTE","CHICONAUTLA","PUEBLOÿ SANTOÿ TOMASÿ CHICONA","LAÿ VIAÿ FERROCARRILÿ Aÿ HIDALGOÿ ENTREÿ HIPODR",149,498892,2156518,"Dot",-99.0105594795857,19.5032995943435
"110","iii_1_2_pozos_sacmex.110","MULTIPOINT ((498689 2171918))","Unknown Point Feature",112,"VO?5","OJOÿ DEÿ AGUAÿ No.5","NORTE","CHICONAUTLA","PUEBLOÿ SANTOÿ TOMASÿ CHICONA","LAÿ VIAÿ FERROCARRILÿ Aÿ HIDALGOÿ ESQ.ÿ AV.ÿ JU",138,498689,2171918,"Dot",-99.0125048442279,19.642471110767
"111","iii_1_2_pozos_sacmex.111","MULTIPOINT ((498515 2172194))","Unknown Point Feature",113,"VO?6","OJOÿ DEÿ AGUAÿ No.6","NORTE","CHICONAUTLA","MARGARITOÿ F.ÿ AYALA","LEONARDOÿ MARTINEZÿ ENTREÿÿ MARCELINAÿ MARTINEZ",50,498515,2172194,"Dot",-99.0141647448263,19.6449652131202
"112","iii_1_2_pozos_sacmex.112","MULTIPOINT ((498311 2172471))","Unknown Point Feature",114,"VO?7","OJOÿ DEÿ AGUAÿ No.7","NORTE","CHICONAUTLA","HACIENDAÿ OJOÿ DEÿ AGUA","BOULEVARDÿ OJOÿ DEÿ AGUA",101,498311,2172471,"Dot",-99.0161108584955,19.6474683110735
"113","iii_1_2_pozos_sacmex.113","MULTIPOINT ((498136 2172871))","Unknown Point Feature",115,"VO?8","OJOÿ DEÿ AGUAÿ No.8","NORTE","CHICONAUTLA","HACIENDAÿ OJOÿ DEÿ AGUA","BOULEVARDÿ OJOÿ DEÿ AGUA",141,498136,2172871,"Dot",-99.0177805284885,19.6510829708908
"114","iii_1_2_pozos_sacmex.114","MULTIPOINT ((497991 2173086))","Unknown Point Feature",116,"VO?9","OJOÿ DEÿ AGUAÿ No.9","NORTE","CHICONAUTLA","HACIENDAÿ OJOÿ DEÿ AGUA","BOULEVARDÿ OJOÿ DEÿ AGUA",102,497991,2173086,"Dot",-99.0191639010955,19.6530257923877
"115","iii_1_2_pozos_sacmex.115","MULTIPOINT ((493825 2169552))","Unknown Point Feature",117,"SCE?1","SANÿ CRISTOBALÿ ECATEPECÿ No.1","NORTE","CHICONAUTLA","GRANJASÿ ECATEPEC","AV.ÿ CIPRESÿ ENTREÿ DELÿ CASTILLOÿ Yÿ MELON",106,493825,2169552,"Dot",-99.0588918241105,19.6210802293204
"116","iii_1_2_pozos_sacmex.116","MULTIPOINT ((493825 2169367))","Unknown Point Feature",118,"SCE?2","SANÿ CRISTOBALÿ ECATEPECÿ No.2","NORTE","CHICONAUTLA","EJIDOSÿ DEÿ SANÿ CRISTOBAL","AV.ÿ CIPRESÿ ENTREÿ VALLEÿ GOMEZÿ Yÿ DELÿ CASTI",141,493825,2169367,"Dot",-99.0588912151654,19.6194083718379
"117","iii_1_2_pozos_sacmex.117","MULTIPOINT ((493854 2168753))","Unknown Point Feature",119,"SCE?3","SANÿ CRISTOBALÿ ECATEPECÿ No.3","NORTE","CHICONAUTLA","ELÿ CARMEN","AV.ÿ REVOLUCIONÿ Yÿ LOSÿ REYESÿ TEXCOCO",224,493854,2168753,"Dot",-99.058612630043,19.6138597003945
"118","iii_1_2_pozos_sacmex.118","MULTIPOINT ((494116 2168476))","Unknown Point Feature",120,"SCE?4","SANÿ CRISTOBALÿ ECATEPECÿ No.4","NORTE","CHICONAUTLA","RESIDENCIALÿ SANÿ CRISTOBALÿ","FRANCISCOÿ I.ÿ MADEROÿ S/Nÿ ENTREÿ LIBRAÿ Yÿ TA",207,494116,2168476,"Dot",-99.056113144096,19.6113572261917
"119","iii_1_2_pozos_sacmex.119","MULTIPOINT ((395712 2168348))","Unknown Point Feature",121,"TXN?1","TEPEXPANÿ NORTEÿ No.1","NORTE","CHICONAUTLA","JARDINESÿ DEÿ MORELOS","MONTEÿ MILÿ CUMBRESÿ ENTREÿ MONTEÿ APENINOSÿ Yÿ",82,395712,2168348,"Dot",-99.9944864514655,19.6074643083878
"120","iii_1_2_pozos_sacmex.120","MULTIPOINT ((396878 2168434))","Unknown Point Feature",122,"TXN?2","TEPEXPANÿ NORTEÿ No.2","NORTE","CHICONAUTLA","JARDINESÿ DEÿ MORELOS","MONTEÿ CALVARIOÿ ESQ.ÿ AV.ÿ CONTROL",106,396878,2168434,"Dot",-99.9833734700477,19.6083024116842
"121","iii_1_2_pozos_sacmex.121","MULTIPOINT ((397461 2168461))","Unknown Point Feature",123,"TXN?3","TEPEXPANÿ NORTEÿ No.3","NORTE","CHICONAUTLA","JARDINESÿ DEÿ MORELOS","FERROCARRILESÿ ENTREÿ ALVAROÿ OBREGONÿ Yÿ VENUS",126,397461,2168461,"Dot",-99.9778160499932,19.6085766358789
"122","iii_1_2_pozos_sacmex.122","MULTIPOINT ((398014 2168489))","Unknown Point Feature",124,"TXN?4","TEPEXPANÿ NORTEÿ No.4","NORTE","CHICONAUTLA","GRANJASÿ ECATEPEC","MARGENÿ DERECHOÿ DEÿ ELÿ GRANÿ CANALÿ DELÿ DESA",116,398014,2168489,"Dot",-99.9725447083409,19.6088581810957
"123","iii_1_2_pozos_sacmex.123","MULTIPOINT ((395333 2168258))","Unknown Point Feature",125,"TXS?1","TEPEXPANÿ SURÿ No.1","NORTE","CHICONAUTLA","JARDINESÿ DEÿ MORELOSÿ (SECCI","SN.ÿ BLASÿ Yÿ PLAYAÿ ESCONDIDA",81,395333,2168258,"Dot",-99.9980951564269,19.6066311099836
"124","iii_1_2_pozos_sacmex.124","MULTIPOINT ((499738 2167891))","Unknown Point Feature",126,"TXS?2","TEPEXPANÿ SURÿ No.2","NORTE","CHICONAUTLA","JARDINESÿ DEÿ MORELOSÿ (SECCI","PLAYAÿ BOCAÿ ANDREAÿ Yÿ ALHELIES",77,499738,2167891,"Dot",-99.0024984986382,19.6060792542902
"125","iii_1_2_pozos_sacmex.125","MULTIPOINT ((499272 2167860))","Unknown Point Feature",127,"TXS?3","TEPEXPANÿ SURÿ No.3","NORTE","CHICONAUTLA","COLONIALÿ ECATEPEC","2DOÿ RETORNOÿ DEÿ VIOLETAÿ ENTREÿ RETORNOÿ 1ÿ Y",162,499272,2167860,"Dot",-99.0069423811266,19.6057989881856
"126","iii_1_2_pozos_sacmex.126","MULTIPOINT ((499796 2169643))","Unknown Point Feature",128,"VCH?1","VENTAÿ DEÿ CARPIOÿ CHARCOÿ No.1","NORTE","CHICONAUTLA","SANTAÿ CRUZÿ VENTAÿ DEÿ CARPI","PROGRESOÿ ENTREÿ AV.ÿ DEÿ LASÿ BOMBASÿ Yÿ CARR.",115,499796,2169643,"Dot",-99.0019455863305,19.6219122226965
"127","iii_1_2_pozos_sacmex.127","MULTIPOINT ((395571 2169087))","Unknown Point Feature",129,"VCH?2","VENTAÿ DEÿ CARPIOÿ CHARCOÿ No.2","NORTE","CHICONAUTLA","LOSÿ CORDELES","AV.ÿ BOMBASÿ ESQ.ÿ PREOFESORÿ CARLOSÿ HANKÿ GON",130,395571,2169087,"Dot",-99.9958719806714,19.6141342712098
"128","iii_1_2_pozos_sacmex.128","MULTIPOINT ((395481 2168688))","Unknown Point Feature",130,"VCH?3","VENTAÿ DEÿ CARPIOÿ CHARCOÿ No.3","NORTE","CHICONAUTLA","MEXICANOSÿ UNIDOS","AV.ÿ LASÿ BOMBASÿ ENTREÿ MAZATANLÿ Yÿ FLORA",155,395481,2168688,"Dot",-99.9967079386946,19.6105242773748
"129","iii_1_2_pozos_sacmex.129","MULTIPOINT ((395683 2168441))","Unknown Point Feature",131,"VCH?4","VENTAÿ DEÿ CARPIOÿ CHARCOÿ No.4","NORTE","CHICONAUTLA","JARDINESÿ DEÿ MORELOS","AV.ÿ DEÿ LASÿ BOMBASÿ ESQ.ÿ PLAYAÿ ESCONDIDA",83,395683,2168441,"Dot",-99.994768130334,19.6083031033039
"130","iii_1_2_pozos_sacmex.130","MULTIPOINT ((499330 2169366))","Unknown Point Feature",132,"VC?1","VENTAÿ DEÿ CARPIOÿ No.1","NORTE","CHICONAUTLA","VENTAÿ DEÿ CARPIO","AV.ÿ NACIONALÿ ENTREÿ VENTAÿ DEÿ CARPIOÿ Yÿ AV.",126,499330,2169366,"Dot",-99.0063898169444,19.6194088509384
"131","iii_1_2_pozos_sacmex.131","MULTIPOINT ((487220 2138480))","Unknown Point Feature",133,"322","20 DEÿ AGOSTO","SUR/COY","COYOACAN","PRADOSÿ DELÿ ROSARIO","HACIENDAÿ DEÿ SOTELOÿ ENTREÿ AV.ÿ CEMPOALTECASÿ",200,487220,2138480,"Dot",-99.1216746712426,19.3402450052689
"132","iii_1_2_pozos_sacmex.132","MULTIPOINT ((483338 2136177))","Unknown Point Feature",134,"10","AJUSCO","SUR/COY","COYOACAN","AJUSCO","REYÿ MECOMETZINÿ ENTREÿ CHICHIMECAÿ Yÿ MIXTECAS",205,483338,2136177,"Dot",-99.1586138819584,19.319403620483
"133","iii_1_2_pozos_sacmex.133","MULTIPOINT ((480480 2138117))","Unknown Point Feature",135,"19","ALTILLOÿ UNIVERSIDAD","SUR/COY","COYOACAN","MANUELÿ ROMEROÿ DEÿ TERREROSÿ","CERROÿ ACASULCOÿ ESQ.ÿ AVENIDAÿ UNIVERSIDAD",200,480480,2138117,"Dot",-99.1858403356164,19.3369103283177
"134","iii_1_2_pozos_sacmex.134","MULTIPOINT ((487044 2136205))","Unknown Point Feature",137,"010?A","AUXILIARÿ XOTEPINGOÿ No.10?A","SUR/AUX","COYOACAN","LOSÿ CIPRESES","CALZADAÿ DEÿ LAÿ VIRGENÿ INT.ÿ SRIA.ÿ DEÿ MARIN",103,487044,2136205,"Dot",-99.1233348802304,19.3196839293802
"135","iii_1_2_pozos_sacmex.135","MULTIPOINT ((487131 2136236))","Unknown Point Feature",138,"010?B","AUXILIARÿ XOTEPINGOÿ No.10?B","SUR/AUX","COYOACAN","SANÿ PEDROÿ TEPETLAPA","CALZADAÿ DEÿ LAÿ VIRGENÿ FRENTEÿ Aÿ ALAÿ ESCUEL",176,487131,2136236,"Dot",-99.1225068922959,19.3199646453132
"136","iii_1_2_pozos_sacmex.136","MULTIPOINT ((486927 2136359))","Unknown Point Feature",139,"010?C","AUXILIARÿ XOTEPINGOÿ No.10?C","SUR/AUX","COYOACAN","PRESIDENTESÿ EJIDALES","CERRADAÿ MANUELÿ OROZCOÿ ESQ.ÿ HEROICAÿ ESCUELA",0,486927,2136359,"Dot",-99.1244497154466,19.3210749247925
"137","iii_1_2_pozos_sacmex.137","MULTIPOINT ((486898 2136174))","Unknown Point Feature",140,"011?A","AUXILIARÿ XOTEPINGOÿ No.11?A","SUR/AUX","COYOACAN","LOCÿ CIPRESES","PEDROÿ SAINZÿ DEÿ BARANDAÿ ESQ.ÿ SGTO.ÿ 2øÿ MIG",200,486898,2136174,"Dot",-99.1247245149519,19.319402826559
"138","iii_1_2_pozos_sacmex.138","MULTIPOINT ((487481 2136174))","Unknown Point Feature",141,"011?B","AUXILIARÿ XOTEPINGOÿ No.11?B","SUR/AUX","COYOACAN","EX?EJIDOÿ DEÿ SANÿ PABLOÿ TEP","CALZADAÿ DEÿ LAÿ VIRGENÿ FRENTEÿ Aÿ LAÿ ESCUELA",183,487481,2136174,"Dot",-99.1191746544272,19.319406536596
"139","iii_1_2_pozos_sacmex.139","MULTIPOINT ((485469 2137682))","Unknown Point Feature",142,"001?B","AUXILIARÿ XOTEPINGOÿ No.1?B","SUR/AUX","COYOACAN","AVANTE","CALZ.ÿ DEÿ LAÿ VIRGENÿ ESQUINAÿ AV.ÿ DEÿ TLALPA",181,485469,2137682,"Dot",-99.1383393261177,19.3330213255484
"140","iii_1_2_pozos_sacmex.140","MULTIPOINT ((485907 2137651))","Unknown Point Feature",143,"001?C","AUXILIARÿ XOTEPINGOÿ No.1?C","SUR/AUX","COYOACAN","AVANTE","RETORNOÿ 20ÿ ENTREÿ SANTAÿ ANAÿ Yÿ RETORNOÿ 19",181,485907,2137651,"Dot",-99.1341692191716,19.332744284563
"141","iii_1_2_pozos_sacmex.141","MULTIPOINT ((485498 2137344))","Unknown Point Feature",144,"002?A","AUXILIARÿ XOTEPINGOÿ No.2?A","SUR/AUX","COYOACAN","AVANTE","AV.ÿ XOTEPINGOÿ ESQ.ÿ CALLEÿ ANGUIANOÿ 16ÿ ENTR",120,485498,2137344,"Dot",-99.1380606715579,19.3299669160676
"142","iii_1_2_pozos_sacmex.142","MULTIPOINT ((485702 2137528))","Unknown Point Feature",145,"002?B","AUXILIARÿ XOTEPINGOÿ No.2?B","SUR/AUX","COYOACAN","AVANTE","CALZADAÿ DEÿ LAÿ VIRGENÿ ESQ.ÿ AVENIDAÿ SANTANA",166,485702,2137528,"Dot",-99.136119950285,19.3316312458467
"143","iii_1_2_pozos_sacmex.143","MULTIPOINT ((486052 2137528))","Unknown Point Feature",146,"002?C","AUXILIARÿ XOTEPINGOÿ No.2?C","SUR/AUX","COYOACAN","AVANTE","AV.ÿ SANTAÿ ANAÿ ESQ.ÿ RETORNOÿ 23ÿÿ ENTREÿ RET",175,486052,2137528,"Dot",-99.1327878838208,19.3316337030128
"144","iii_1_2_pozos_sacmex.144","MULTIPOINT ((485731 2137097))","Unknown Point Feature",147,"003?A","AUXILIARÿ XOTEPINGOÿ No.3?A","SUR/AUX","COYOACAN","AVANTE","CANALÿ DEÿ MIRAMONTESÿ ENTREÿ AV.ÿ DELÿ PARQUEÿ",202,485731,2137097,"Dot",-99.1358406447435,19.327736359829
"145","iii_1_2_pozos_sacmex.145","MULTIPOINT ((485906 2137159))","Unknown Point Feature",148,"003?B","AUXILIARÿ XOTEPINGOÿ No.3?B","SUR/AUX","COYOACAN","SANÿ DIEGOÿ CHURUBUSCO","XICOTENCATLÿ ESQ.ÿ RIOÿ CHURUBUSCO",216,485906,2137159,"Dot",-99.1341751085266,19.3282979082219
"146","iii_1_2_pozos_sacmex.146","MULTIPOINT ((486256 2137159))","Unknown Point Feature",149,"003?C","AUXILIARÿ XOTEPINGOÿ No.3?C","SUR/AUX","COYOACAN","AVANTE","RETORNOÿ 32ÿ Yÿ AV.ÿ SANTAÿ ANA",182,486256,2137159,"Dot",-99.1308431093914,19.3283003294456
"147","iii_1_2_pozos_sacmex.147","MULTIPOINT ((485964 2136821))","Unknown Point Feature",150,"004?A","AUXILIARÿ XOTEPINGOÿ No.4?A","SUR/AUX","COYOACAN","AVANTE","RETORNOÿ 49ÿ ENTREÿ CALLEÿ DELÿ PARQUEÿ Yÿ CALL",181,485964,2136821,"Dot",-99.133620465148,19.3252436927535
"148","iii_1_2_pozos_sacmex.148","MULTIPOINT ((486052 2137097))","Unknown Point Feature",151,"004?B","AUXILIARÿ XOTEPINGOÿ No.4?B","SUR/AUX","COYOACAN","AVANTE","CALZADAÿ DEÿ LAÿ VIRGENÿ ENTREÿ RETORNOÿ 35ÿ Yÿ",201,486052,2137097,"Dot",-99.1327847362057,19.3277386105989
"149","iii_1_2_pozos_sacmex.149","MULTIPOINT ((486256 2136882))","Unknown Point Feature",152,"005?B","AUXILIARÿ XOTEPINGOÿ No.5?B","SUR/AUX","COYOACAN","AVANTE","CALZADAÿ DEÿ LAÿ VIRGENÿ Yÿ AV.ÿ DEÿ LASÿ TORRE",161,486256,2136882,"Dot",-99.1308411163588,19.3257969860695
"150","iii_1_2_pozos_sacmex.150","MULTIPOINT ((486490 2136882))","Unknown Point Feature",153,"005?C","AUXILIARÿ XOTEPINGOÿ No.5?C","SUR/AUX","COYOACAN","PRESIDENTESÿ EJIDALES","AV.ÿ EJIDOÿ DEÿ SANÿ FRANCISCOÿ CULHUACANÿ ESQ.",150,486490,2136882,"Dot",-99.1286134705934,19.3257985706505
"151","iii_1_2_pozos_sacmex.151","MULTIPOINT ((486256 2136544))","Unknown Point Feature",154,"006?A","AUXILIARÿ XOTEPINGOÿ No.6?A","SUR/AUX","COYOACAN","AVANTE","RETORNOÿ 64ÿ FRENTEÿ ALÿ RETORNOÿ 57",120,486256,2136544,"Dot",-99.1308386848459,19.3227423639802
"152","iii_1_2_pozos_sacmex.152","MULTIPOINT ((486344 2136759))","Unknown Point Feature",155,"006?C","AUXILIARÿ XOTEPINGOÿ No.6?C","SUR/AUX","COYOACAN","PRESIDENTESÿ EJIDALES","MARINOÿ MOZCOÿ ENTREÿ A.ÿ TERREROSÿ Yÿ CALZ.ÿ D",200,486344,2136759,"Dot",-99.130002490031,19.3246859920083
"153","iii_1_2_pozos_sacmex.153","MULTIPOINT ((486373 2136421))","Unknown Point Feature",156,"007?A","AUXILIARÿ XOTEPINGOÿ No.7?A","SUR/AUX","COYOACAN","AVANTE","RETORNOÿ 66ÿ FRENTEÿ Aÿ RETORNOÿ 60",200,486373,2136421,"Dot",-99.1297240054944,19.3216315659879
"154","iii_1_2_pozos_sacmex.154","MULTIPOINT ((486548 2136667))","Unknown Point Feature",157,"007?B","AUXILIARÿ XOTEPINGOÿ No.7?B","SUR/AUX","COYOACAN","PRESIDENTESÿ EJIDALES","CALZADAÿ DEÿ LAÿ VIRGENÿ ENTREÿ A.ÿ ROMEROÿ IBA",174,486548,2136667,"Dot",-99.1280598051804,19.3238559302627
"155","iii_1_2_pozos_sacmex.155","MULTIPOINT ((486898 2136636))","Unknown Point Feature",158,"007?C","AUXILIARÿ XOTEPINGOÿ No.7?C","SUR/AUX","COYOACAN","PRESIDENTESÿ EJIDALES","AGUSTINÿ ROMEROÿ IBA¥EZÿ ESQ.ÿ AGUSTINÿ PASTEN",97,486898,2136636,"Dot",-99.1247276827071,19.3235780815072
"156","iii_1_2_pozos_sacmex.156","MULTIPOINT ((486489 2136328))","Unknown Point Feature",159,"008?A","AUXILIARÿ XOTEPINGOÿ No.8?A","SUR/AUX","COYOACAN","LOSÿ CIRUELOS","PEDROÿ SAENZÿ DEÿ BARANDAÿ S/Nÿ ESQ.ÿ JOSEÿ AZU",197,486489,2136328,"Dot",-99.1286190728681,19.3207918746843
"157","iii_1_2_pozos_sacmex.157","MULTIPOINT ((486635 2136574))","Unknown Point Feature",160,"008?B","AUXILIARÿ XOTEPINGOÿ No.8?B","SUR/AUX","COYOACAN","PRESIDENTESÿ EJIDALES","CALZADAÿ DEÿ LAÿ VIRGENÿ ESQ.ÿ ESCUELAÿ NAVALÿ",95,486635,2136574,"Dot",-99.1272309370806,19.3230160367543
"158","iii_1_2_pozos_sacmex.158","MULTIPOINT ((487014 2136297))","Unknown Point Feature",161,"008?C","AUXILIARÿ XOTEPINGOÿ No.8?C","SUR/AUX","COYOACAN","PRESIDENTESÿ EJIDALES","R.ÿ RIVERAÿ FERNANDEZÿ S/Nÿ ENTREÿ AGUSTINÿ PAS",147,487014,2136297,"Dot",-99.1236210904582,19.3205151722862
"159","iii_1_2_pozos_sacmex.159","MULTIPOINT ((486606 2136236))","Unknown Point Feature",162,"009?A","AUXILIARÿ XOTEPINGOÿ No.9?A","SUR/AUX","COYOACAN","LOSÿ CIRUELOS","PEDROÿ SAENZÿ BARANDAÿ S/Nÿ ESQ.ÿ JOSEÿ AZUETAÿ",138,486606,2136236,"Dot",-99.1275046390062,19.3199612205485
"160","iii_1_2_pozos_sacmex.160","MULTIPOINT ((487715 2136481))","Unknown Point Feature",163,"009?B","AUXILIARÿ XOTEPINGOÿ No.9?B","SUR/AUX","COYOACAN","PRESIDENTESÿ EJIDALES","CALZADAÿ DEÿ LAÿ VIRGENÿ ESQ.ÿ HEROICAÿ ESCUELA",110,487715,2136481,"Dot",-99.11694906791,19.3221824451779
"161","iii_1_2_pozos_sacmex.161","MULTIPOINT ((487044 2136512))","Unknown Point Feature",164,"009?C","AUXILIARÿ XOTEPINGOÿ No.9?C","SUR/AUX","COYOACAN","PRESIDENTESÿ EJIDALES","CERRADAÿ MANUELÿ OROZCOÿ ENTREÿ ANTONIOÿ V.ÿ BO",171,487044,2136512,"Dot",-99.1233369617001,19.3224583956045
"162","iii_1_2_pozos_sacmex.162","MULTIPOINT ((481708 2140359))","Unknown Point Feature",165,"165","AV.UNIVERSIDADÿ (VIVEROSÿ DEÿ C","SUR/COY","COYOACAN","BARRIOÿ SANTAÿ CATARINA","AV.ÿ UNIVERSIDADÿ S/Nÿ VIVEROSÿ DEÿ COYOACAN",200,481708,2140359,"Dot",-99.1741706879596,19.3571835049966
"163","iii_1_2_pozos_sacmex.163","MULTIPOINT ((484036 2134025))","Unknown Point Feature",166,"217","BOSQUESÿ DEÿ TETLAMEYA","SUR/COY","COYOACAN","BOSQUESÿ DEÿ TETLAMEYA","LEONARDOÿÿ OLIVAÿ Yÿ LUISÿ MURILLO",221,484036,2134025,"Dot",-99.151951324392,19.2999609003884
"164","iii_1_2_pozos_sacmex.164","MULTIPOINT ((483137 2140204))","Unknown Point Feature",167,"40","COLONIAÿ DELÿ CARMENÿ (LAÿ FRAG","SUR/COY","COYOACAN","ELÿ CARMEN","CALLEÿ ABASOLOÿ ESQ.ÿ PARIS",200,483137,2140204,"Dot",-99.1605628686567,19.3557952274993
"165","iii_1_2_pozos_sacmex.165","MULTIPOINT ((481064 2138669))","Unknown Point Feature",168,"44","COPILCOÿ UNIVERSIDAD","SUR/COY","COYOACAN","COPILCO","PASEOÿ DEÿ LASÿ FACULTADESÿ CASIÿ ESQ.ÿ CONÿ EJ",306,481064,2138669,"Dot",-99.180285855353,19.3419045054724
"166","iii_1_2_pozos_sacmex.166","MULTIPOINT ((485091 2139864))","Unknown Point Feature",169,"194","COUNTRYÿ CLUBÿ CHURUBUSCO","SUR/COY","COYOACAN","CHURUBUSCO","CICLISTASÿ ESQ.ÿ CALLEÿ GOLF",200,485091,2139864,"Dot",-99.1419550345212,19.3527379934864
"167","iii_1_2_pozos_sacmex.167","MULTIPOINT ((483719 2138175))","Unknown Point Feature",170,"272","DEPORTIVOÿ CANTIL","SUR/COY","COYOACAN","UNIDADÿ ROSEDAL","CERRADAÿ DEÿ MONTSERRATÿ ENTRADAÿ PORÿ AV.ÿ AZT",202,483719,2138175,"Dot",-99.1550039938553,19.3374633228482
"168","iii_1_2_pozos_sacmex.168","MULTIPOINT ((483366 2135593))","Unknown Point Feature",171,"265","DEPORTIVOÿ DURANGO","SUR/COY","COYOACAN","ADOLFOÿ RUIZÿ CORTINES","ITZCUINAÿ ENTREÿ CIHUACALLIÿ Yÿ TEOCALLI",201,483366,2135593,"Dot",-99.1583422545339,19.3141260455527
"169","iii_1_2_pozos_sacmex.169","MULTIPOINT ((485236 2138389))","Unknown Point Feature",172,"47","EDUCACIONÿ No.1","SUR/COY","COYOACAN","CENTINELA","AV.ÿ 7ÿ ESQ.ÿ GALVEZÿ ENTREÿ AV.ÿ 8ÿ Yÿ CALLEÿ",204,485236,2138389,"Dot",-99.1405630161712,19.3394090197806
"170","iii_1_2_pozos_sacmex.170","MULTIPOINT ((486170 2138050))","Unknown Point Feature",173,"48","EDUCACIONÿ No.2","SUR/COY","COYOACAN","EDUCACION","AV.ÿ 3ÿ ENTREÿ LAÿ CALLEÿ ""K""ÿ Yÿ CALLEÿ ""A""ÿ C",201,486170,2138050,"Dot",-99.1316682822494,19.3363520058066
"171","iii_1_2_pozos_sacmex.171","MULTIPOINT ((483015 2134610))","Unknown Point Feature",174,"267","ELÿ CARACOL","SUR/COY","COYOACAN","CARACOL","AV.ÿ DELÿ IMANÿ ESQ.ÿ SANÿ GUILLERMOÿ ENTREÿ CH",250,483015,2134610,"Dot",-99.1616747502739,19.3052394049474
"172","iii_1_2_pozos_sacmex.172","MULTIPOINT ((486375 2140078))","Unknown Point Feature",175,"52","FRACC.ÿ PRADOSÿ DEÿ CHURUBUSCO","SUR/COY","COYOACAN","PRADOSÿ CHURUBUSCO","CRUZÿ DELÿ SURÿ Yÿ OSAÿ MAYOR",200,486375,2140078,"Dot",-99.1297310687463,19.3546810957444
"173","iii_1_2_pozos_sacmex.173","MULTIPOINT ((483748 2137806))","Unknown Point Feature",177,"74","LAÿ CIENEGA","SUR/COY","COYOACAN","PEDREGALÿ DEÿ SANTOÿ DOMINGO","PEDROÿ ENRIQUEZÿ URE¥Aÿ (EJE10ÿ SUR)ÿ ESQ.ÿÿ CU",250,483748,2137806,"Dot",-99.1547247576409,19.3341287853762
"174","iii_1_2_pozos_sacmex.174","MULTIPOINT ((488065 2135528))","Unknown Point Feature",178,"316","LOSÿ CEDROS","SUR/COY","COYOACAN","LOSÿ CEDROS","ELÿ ESCORIALÿ ENTREÿ MURALLAÿ CHINAÿ Yÿ TORREÿ",200,488065,2135528,"Dot",-99.1136112395689,19.3135719511082
"175","iii_1_2_pozos_sacmex.175","MULTIPOINT ((485498 2137497))","Unknown Point Feature",179,"254","LOSÿ COYOTES","SUR/COY","COYOACAN","LOSÿ CIPRESES","CALZ.ÿ DEÿ LAÿ SALUDÿ S/Nÿ ENTREÿ TEPETLAPAÿ Yÿ",159,485498,2137497,"Dot",-99.1380618333752,19.331349628238
"176","iii_1_2_pozos_sacmex.176","MULTIPOINT ((483457 2138636))","Unknown Point Feature",180,"259","LOSÿ REYESÿ COYOACAN","SUR/COY","COYOACAN","PUEBLOÿ DEÿ LOSÿ REYES","PLAZUELAÿ DEÿ LOSÿ REYESÿ ESQ.ÿ REALÿ DEÿ LOSÿ",201,483457,2138636,"Dot",-99.1575023652187,19.3416273881317
"177","iii_1_2_pozos_sacmex.177","MULTIPOINT ((481616 2136640))","Unknown Point Feature",181,"266","METROÿ C.U.","SUR/COY","COYOACAN","PEDREGALÿ SANTOÿ DOMINGO","AV.ÿ A.ÿ DELFINÿ MADRIGALÿ S/Nÿ CERCAÿ DEÿ LASÿ",200,481616,2136640,"Dot",-99.1750108584251,19.3235729137191
"178","iii_1_2_pozos_sacmex.178","MULTIPOINT ((483951 2136792))","Unknown Point Feature",182,"309","NAHUATLACAS","SUR/COY","COYOACAN","AMPLIACIONÿ LAÿ CANDELARIA","NAHUATLACASÿ S/Nÿ ENTREÿ REYÿ TIZOCÿ Yÿ 2DA.ÿ C",0,483951,2136792,"Dot",-99.1527836106802,19.3249665631205
"179","iii_1_2_pozos_sacmex.179","MULTIPOINT ((487133 2138971))","Unknown Point Feature",185,"255","PASEOSÿ DEÿ TAXQUE¥A","SUR/COY","COYOACAN","PASEOSÿ DEÿ TAXQUE¥A","AV.ÿ PASEOÿ DEÿ LAÿ HACIENDAÿ S/Nÿ ENTREÿ PASEO",202,487133,2138971,"Dot",-99.1225062821023,19.3446817786482
"180","iii_1_2_pozos_sacmex.180","MULTIPOINT ((482140 2134980))","Unknown Point Feature",186,"310","PEDREGALÿ DEÿ CARRRASCO","SUR/COY","COYOACAN","PEDREGALÿ CARRASCO","PANAMERICANAÿ Yÿ RINCONADAÿ DEÿ LOSÿ INSTRUMENT",0,482140,2134980,"Dot",-99.1700070222887,19.3085756554452
"181","iii_1_2_pozos_sacmex.181","MULTIPOINT ((482552 2138422))","Unknown Point Feature",187,"197","PEDREGALÿ DEÿ SANÿ FRANCISCO","SUR/COY","COYOACAN","PEDREGALÿ DEÿ SN.ÿ FRANCISCO","CERROÿ DEÿ LAÿ ESCONDIDAÿ ENTREÿ MOCTEZUMAÿ Yÿ",900,482552,2138422,"Dot",-99.16611669411,19.3396857531699
"182","iii_1_2_pozos_sacmex.182","MULTIPOINT ((481936 2135195))","Unknown Point Feature",188,"256","PEDREGALÿ IMAN","SUR/COY","COYOACAN","RINCONADAÿ DEÿ LASÿ PLAYAS","AV.ÿ IMANÿ ENTREÿ CJON.ÿ DEÿ LOSÿ PUERTOSÿ Yÿ D",201,481936,2135195,"Dot",-99.1719508963189,19.3105168645805
"183","iii_1_2_pozos_sacmex.183","MULTIPOINT ((485468 2136391))","Unknown Point Feature",189,"PER?1","PERIFERICOÿ No.1","SUR/COY","COYOACAN","ELÿ RELOJ","CALZ.ÿ DEÿ TLALPANÿ ESQ.ÿ AV.ÿ DIVISIONÿ DELÿ N",140,485468,2136391,"Dot",-99.1383390249099,19.3213541152564
"184","iii_1_2_pozos_sacmex.184","MULTIPOINT ((488238 2133192))","Unknown Point Feature",190,"PER?12","PERIFERICOÿ No.12","SUR/COY","COYOACAN","RINCONADAÿ COAPAÿ 1a.ÿ SECCIO","HACIENDAÿ DEÿ CRISTOÿ ENTREÿ HDA.ÿ MONTECILLOÿ",350,488238,2133192,"Dot",-99.1119500638336,19.2924616707618
"185","iii_1_2_pozos_sacmex.185","MULTIPOINT ((486810 2135621))","Unknown Point Feature",191,"PER?13","PERIFERICOÿ No.13","SUR/COY","COYOACAN","LOSÿ OLIVOS","AV.ÿ MARÿ DEÿ LAÿ TRANQUILIDADÿ ENTREÿ MARÿ COP",200,486810,2135621,"Dot",-99.1255584135467,19.3144045958864
"186","iii_1_2_pozos_sacmex.186","MULTIPOINT ((487947 2134145))","Unknown Point Feature",192,"PER?14","PERIFERICOÿ No.14","SUR/COY","COYOACAN","LOSÿ SAUCES","RANCHOÿ PIEDRASÿ NEGRASÿ ESQ.ÿ CALZ.ÿ DELÿ HUES",301,487947,2134145,"Dot",-99.1147257836065,19.3010725715118
"187","iii_1_2_pozos_sacmex.187","MULTIPOINT ((488181 2134913))","Unknown Point Feature",193,"PER?15","PERIFERICOÿ No.15","SUR/COY","COYOACAN","SANTAÿ CECILIA","RANCHOÿ GRANDEÿ S/Nÿ ENTREÿ RANCHOÿ SANÿ ISIDRO",0,488181,2134913,"Dot",-99.1125032165969,19.3080146570566
"188","iii_1_2_pozos_sacmex.188","MULTIPOINT ((489464 2134021))","Unknown Point Feature",194,"PER?16","PERIFERICOÿ No.16","SUR/COY","COYOACAN","VILLAÿ QUIETUD","CANALÿ NACIONALÿ ESQ.ÿÿ CALZ.ÿ DELÿ HUESO",1127,489464,2134021,"Dot",-99.1002856416183,19.2999604394088
"189","iii_1_2_pozos_sacmex.189","MULTIPOINT ((489435 2134113))","Unknown Point Feature",195,"PER?17","PERIFERICOÿ No.17","SUR/COY","COYOACAN","VILLAÿ QUIETUD","CANALÿ NACIONALÿ ENTREÿÿ CALZ.ÿ DEÿ LASÿ BOMBAS",1200,489435,2134113,"Dot",-99.1005621822923,19.3007917262488
"190","iii_1_2_pozos_sacmex.190","MULTIPOINT ((489495 2136326))","Unknown Point Feature",196,"PER?18","PERIFERICOÿ No.18","SUR/COY","COYOACAN","VILLAÿ QUIETUD","CANALÿ NACIONALÿ Yÿ CALZ.ÿ LASÿ BOMBAS",994,489495,2136326,"Dot",-99.100003235307,19.3207917323177
"191","iii_1_2_pozos_sacmex.191","MULTIPOINT ((488824 2137034))","Unknown Point Feature",197,"PER?19","PERIFERICOÿ No.19","SUR/COY","COYOACAN","SANÿ LORENZOÿ HUIPULCO","CAMELLONÿ DEÿ VIADUCTOÿ TLALPANÿ ESQ.ÿ SANÿ JUA",373,488824,2137034,"Dot",-99.1063950100894,19.3271865636916
"192","iii_1_2_pozos_sacmex.192","MULTIPOINT ((484591 2134301))","Unknown Point Feature",198,"PER?3","PERIFERICOÿ No.3","SUR/COY","COYOACAN","SANTAÿ URSULAÿ COAPA","CLZA.ÿ DEÿ TALPANÿ Yÿ VIADUCTOÿ TLALPAN",401,484591,2134301,"Dot",-99.1466708626974,19.3024595318777
"193","iii_1_2_pozos_sacmex.193","MULTIPOINT ((484240 2133748))","Unknown Point Feature",199,"PER?4","PERIFERICOÿ No.4","SUR/COY","COYOACAN","SANÿ LORENZOÿ HUIPULCO","CALZADAÿ DEÿ TLALPANÿ CASIÿ ESQ.ÿ CALLEÿ AJUSCO",80,484240,2133748,"Dot",-99.1500072996848,19.2974591569943
"194","iii_1_2_pozos_sacmex.194","MULTIPOINT ((483190 2134026))","Unknown Point Feature",200,"PER?5","PERIFERICOÿ No.5ÿ (No.240)","SUR/COY","COYOACAN","PUEBLOÿ QUIETO","ANILLOÿ PERIFERICOÿ SURÿ Yÿ AV.ÿ ESTADIOÿ AZTEC",400,483190,2134026,"Dot",-99.1600038549354,19.2999630584808
"195","iii_1_2_pozos_sacmex.195","MULTIPOINT ((485206 2137190))","Unknown Point Feature",201,"270","REYÿ MOCTEZUMA","SUR/COY","COYOACAN","AJUSCO","AV.ÿ REYÿÿ MOCTEZUMAÿ FRENTEÿ Aÿ LAÿ CALLEÿ ZAP",221,485206,2137190,"Dot",-99.1408393453744,19.3285730405305
"196","iii_1_2_pozos_sacmex.196","MULTIPOINT ((482056 2138822))","Unknown Point Feature",202,"129","ROMEROÿ DEÿ TERREROS","SUR/COY","COYOACAN","MANUELÿ ROMEROÿ DEÿ TERREROS","MELHORÿ OCAMPOÿ ENTREÿ PADILLAÿ ARAGONÿ Yÿ EPSI",250,482056,2138822,"Dot",-99.1708426931632,19.3432963119884
"197","iii_1_2_pozos_sacmex.197","MULTIPOINT ((484767 2136084))","Unknown Point Feature",203,"130","RUIZÿ CORTINEZ","SUR/COY","COYOACAN","RUIZÿ CORTINEZ","ITZCOATLÿ S/Nÿ ENTREÿ HUITZILOPOZTLIÿ Yÿ DIEGOÿ",200,484767,2136084,"Dot",-99.145009811412,19.3185744681272
"198","iii_1_2_pozos_sacmex.198","MULTIPOINT ((487745 2137557))","Unknown Point Feature",204,"218","SANÿ FRANCISCOÿ CULHUACAN","SUR/COY","COYOACAN","AMPLIACIONÿ SANÿ FRANCISCOÿ C","ESCUELAÿ NAVALÿ MILITARÿ Yÿ AV.ÿ DEÿ LOSÿ APACH",199,487745,2137557,"Dot",-99.1166703815879,19.3319068118919
"199","iii_1_2_pozos_sacmex.199","MULTIPOINT ((482115 2139683))","Unknown Point Feature",205,"146","SANTAÿ CATARINAÿ COYOACAN","CENTRO","COYOACAN","BARRIOÿ SANTAÿ CATARINA","MELCHORÿ OCAMPOÿ ESQ.ÿ FRANCISCOÿ SOSA",200,482115,2139683,"Dot",-99.1702890345233,19.3510779567605
"200","iii_1_2_pozos_sacmex.200","MULTIPOINT ((448609 2135412))","Unknown Point Feature",206,"311","SANTAÿ URSULAÿ (PEDREGAL)","SUR/COY","COYOACAN","PEDREGALÿ DEÿ STAÿ URSULA","SANÿ HERMILOÿ ESQ.ÿ SANÿ RICARDO",0,448609,2135412,"Dot",-99.4891900451785,19.3119032766904
"201","iii_1_2_pozos_sacmex.201","MULTIPOINT ((483891 2134609))","Unknown Point Feature",207,"268","SANTAÿ URSULAÿ COAPA","SUR/COY","COYOACAN","JOYASÿ DELÿ PEDREGAL","SANÿ ALEJANDROÿ ENTREÿ SANÿ BENITOÿ Yÿ SANÿ GAB",200,483891,2134609,"Dot",-99.1533364024875,19.3052375624739
"202","iii_1_2_pozos_sacmex.202","MULTIPOINT ((487219 2136820))","Unknown Point Feature",208,"315","SANTOÿ DOMINGO","SUR/COY","COYOACAN","PEDREGALÿ DEÿ SANTOÿ DOMINGO","AMATLÿ CASIÿ ESQ.ÿ AUSTEPEC",240,487219,2136820,"Dot",-99.1216730810762,19.3252430173844
"203","iii_1_2_pozos_sacmex.203","MULTIPOINT ((480247 2138148))","Unknown Point Feature",209,"313","TERRANOVA","SUR/COY","COYOACAN","COPILCOÿ ELÿ BAJO","AV.ÿ COPILCOÿ ENTREÿ INSURGENTESÿ Yÿ AV.ÿ UNIVE",0,480247,2138148,"Dot",-99.1880589261463,19.337188209763
"204","iii_1_2_pozos_sacmex.204","MULTIPOINT ((480330 2134766))","Unknown Point Feature",215,"171","VILLAÿ OLIMPICAÿ No.1","SUR/COY","COYOACAN","JARDINESÿ DELÿ PEDREGAL","INSURGENTESÿ SURÿ ENTREÿ PRADERASÿ Yÿ AV.ÿ CENT",300,480330,2134766,"Dot",-99.187233911208,19.3066248037833
"205","iii_1_2_pozos_sacmex.205","MULTIPOINT ((484329 2135316))","Unknown Point Feature",216,"176","VIVEROSÿ DELÿ RELOJÿ No.1","SUR/COY","COYOACAN","PEDREGALÿ DEÿ SANTAÿ URSULA","SANÿ LEONÿ S/Nÿ ENTREÿ SANÿ ALBEROÿ Yÿ SANÿ RAU",250,484329,2135316,"Dot",-99.1491730251058,19.3116304249594
"206","iii_1_2_pozos_sacmex.206","MULTIPOINT ((485234 2135961))","Unknown Point Feature",217,"248","VIVEROSÿ DELÿ RELOJÿ No.2","SUR/COY","COYOACAN","ELÿ RELOJ","CALLEÿ COROLAÿ Yÿ CALIZ",200,485234,2135961,"Dot",-99.1405632871866,19.3174663540715
"207","iii_1_2_pozos_sacmex.207","MULTIPOINT ((483163 2136577))","Unknown Point Feature",222,"314","ZAPOTECAS","SUR/COY","COYOACAN","AJUSCO","ZAPOTECASÿ ENTREÿ REYÿ MECONETZINÿ Yÿ REYÿ TOPI",0,483163,2136577,"Dot",-99.1602833137844,19.3230170982615
"208","iii_1_2_pozos_sacmex.208","MULTIPOINT ((471293 2140987))","Unknown Point Feature",223,"253","TOTOLAPAN","PONIENTE","CUAJIMALPA","SANTAÿ FE","CARR.ÿ MEX?TOLÿ KM?18ÿ ENTREÿ LOMAÿ VISTAÿ HERM",250,471293,2140987,"Dot",-99.2733478221214,19.3627370493128
"209","iii_1_2_pozos_sacmex.209","MULTIPOINT ((472580 2142676))","Unknown Point Feature",224,"175","VISTAÿ HERMOSA","PONIENTE","CUAJIMALPA","LOMASÿ DEÿ VISTAÿ HERMOSA","TLAPEXCOÿ No.ÿ 80ÿ KM.ÿ 16.5ÿ DEÿ LAÿ CARRETERA",406,472580,2142676,"Dot",-99.2611174251434,19.3780189108926
"210","iii_1_2_pozos_sacmex.210","MULTIPOINT ((484576 2150654))","Unknown Point Feature",225,"1","ABASOLOÿ JARDIN","CENTRO","CUAUHTEMOC","U.H.ÿ ESTRELLA","ABASOLOÿ ENTREÿ LUNAÿ Yÿ ESTRELLA",150,484576,2150654,"Dot",-99.1469460869463,19.450246149175
"211","iii_1_2_pozos_sacmex.211","MULTIPOINT ((483497 2150624))","Unknown Point Feature",226,"12","ALAMEDAÿ SANTAÿ MARIA","CENTRO","CUAUHTEMOC","SANTAÿ MARIAÿ LAÿ RIVERA","MANUELÿ CARPIOÿ ENTREÿ TORRESÿ BODETÿ Yÿ PINO",150,483497,2150624,"Dot",-99.1572255455798,19.4499664140301
"212","iii_1_2_pozos_sacmex.212","MULTIPOINT ((485242 2145858))","Unknown Point Feature",227,"17","ALGARIN","CENTRO","CUAUHTEMOC","ALGARIN","ANTONIOÿ PLAZAÿ No.ÿ 31ÿ ENTREÿ TORIBIOÿ MEDINA",188,485242,2145858,"Dot",-99.14056376198,19.4069085930152
"213","iii_1_2_pozos_sacmex.213","MULTIPOINT ((483698 2147488))","Unknown Point Feature",228,"20","AMADOÿ NERVO","CENTRO","CUAUHTEMOC","ROMA","MORELIAÿ ENTREÿ COLIMAÿ Yÿ TABASCO",200,483698,2147488,"Dot",-99.1552836622703,19.4216273320684
"214","iii_1_2_pozos_sacmex.214","MULTIPOINT ((483405 2146382))","Unknown Point Feature",229,"196","ANTONIOÿ M.ÿ ANZA","CENTRO","CUAUHTEMOC","ROMA","JALAPAÿ Yÿ ANTONIOÿ M.ÿ ANZAÿ FRENTEÿ Aÿ MULTIF",300,483405,2146382,"Dot",-99.1580649454399,19.4116297358383
"215","iii_1_2_pozos_sacmex.215","MULTIPOINT ((485858 2150622))","Unknown Point Feature",230,"149","SANTIAGOÿ TLATELOLCO","CENTRO","CUAUHTEMOC","GUERRERO","RICARDOÿ FLORESÿ MAGONÿ ENTREÿ REFORMAÿ Yÿ EJEÿ",200,485858,2150622,"Dot",-99.1347321242713,19.4499664413947
"216","iii_1_2_pozos_sacmex.216","MULTIPOINT ((486059 2146288))","Unknown Point Feature",231,"174","VISTAÿ ALEGRE","CENTRO","CUAUHTEMOC","VISTAÿ ALEGRE","JOSEÿ ANTONIOÿ TORRESÿ ENTREÿ JOSEÿ MA.ÿ ROAÿ B",226,486059,2146288,"Dot",-99.1327853496884,19.4108004664993
"217","iii_1_2_pozos_sacmex.217","MULTIPOINT ((485370 2159137))","Unknown Point Feature",232,"75","LAÿ PASTORA","NORTE","G.ÿ A.ÿ MADERO","LAÿ PASTORA","AV.ÿ PUERTOÿ MAZATLANÿ ESQ.ÿ CERRADAÿ LOPEZÿ PO",194,485370,2159137,"Dot",-99.139447203523,19.5269144919904
"218","iii_1_2_pozos_sacmex.218","MULTIPOINT ((484841 2153758))","Unknown Point Feature",233,"99","PANAMERICANA","NORTE","G.ÿ A.ÿ MADERO","PANAMERICANA","PONIENTEÿ 112ÿ ENTREÿ NORTEÿ 9ÿ Yÿ NORTEÿ 11",300,484841,2153758,"Dot",-99.1444462523524,19.4782996433701
"219","iii_1_2_pozos_sacmex.219","MULTIPOINT ((485162 2154987))","Unknown Point Feature",234,"321","VALLEÿ DELÿ TEPEYAC","NORTE","G.ÿ A.ÿ MADERO","VALLEÿ DELÿ TEPEYAC","AV.ÿ 45ÿ METROSÿ ENTREÿÿ AZCAPOTZALCOÿ LAÿ VILL",200,485162,2154987,"Dot",-99.1413971715828,19.4894087516201
"220","iii_1_2_pozos_sacmex.220","MULTIPOINT ((493087 2143794))","Unknown Point Feature",235,"4","AGRICOLAÿ ORIENTALÿ No.1","ORIENTE","IZTACALCO","PROGRESISTA","BATALLONESÿ ROJOSÿ ESQUINAÿ CALLEÿ CENTRAL",208,493087,2143794,"Dot",-99.0658359816093,19.3882980624513
"221","iii_1_2_pozos_sacmex.221","MULTIPOINT ((489559 2146377))","Unknown Point Feature",236,"28","BALBUENAÿ No.2","ORIENTE","IZTACALCO","JARDINÿ BALBUENA","LIC.ÿ GENAROÿ GARCIAÿ ENTREÿ RUIZÿ DEÿ LAÿ ROSA",200,489559,2146377,"Dot",-99.099449053968,19.4116260872265
"222","iii_1_2_pozos_sacmex.222","MULTIPOINT ((490550 2145332))","Unknown Point Feature",237,"38","CIUDADÿ DEPORTIVAÿ No.2ÿ (MAGDA","ORIENTE","IZTACALCO","GRANJASÿ MEXICO","A¥ILÿ ENTREÿ RESINAÿ Yÿ AVENA",231,490550,2145332,"Dot",-99.0900047323554,19.4021870571327
"223","iii_1_2_pozos_sacmex.223","MULTIPOINT ((488129 2145026))","Unknown Point Feature",238,"45","COYUYA","ORIENTE","IZTACALCO","FRACCIONAMIENTOÿ LAÿ COYUYA","COYUYAÿ ENTREÿ PAPALOAQUEÿ Yÿ PENACITO",205,488129,2145026,"Dot",-99.1130611472665,19.3994087713842
"224","iii_1_2_pozos_sacmex.224","MULTIPOINT ((487487 2143858))","Unknown Point Feature",239,"60","IZTACALCO","ORIENTE","IZTACALCO","BARRIOÿ LAÿ CRUZ","AMADOÿ NERVOÿ ENTREÿ CALLEÿ SANTAÿ CRUZÿ Yÿ AGR",200,487487,2143858,"Dot",-99.1191679570081,19.3888493248045
"225","iii_1_2_pozos_sacmex.225","MULTIPOINT ((486671 2145088))","Unknown Point Feature",240,"323","NUEVAÿ SANTAÿ ANITA","ORIENTE","IZTACALCO","NUEVAÿ SANTAÿ ANITA","SURÿ 77ÿ ENTREÿ 1aÿ Yÿ 2da.ÿ CERRADASÿ DEÿ SURÿ",250,486671,2145088,"Dot",-99.1269477639828,19.3999599155876
"226","iii_1_2_pozos_sacmex.226","MULTIPOINT ((486378 2143583))","Unknown Point Feature",241,"128","REFORMAÿ IZTACCIHUATL","ORIENTE","IZTACALCO","REFORMAÿ IZTACCIHUATL","PLAYAÿ ERIZOÿ ESQ.ÿ PLAYAÿ OLAÿ VERDE",102,486378,2143583,"Dot",-99.1297275663392,19.3863568456973
"227","iii_1_2_pozos_sacmex.227","MULTIPOINT ((487196 2145057))","Unknown Point Feature",242,"144","SANTAÿ ANITA","ORIENTE","IZTACALCO","STA.ÿ ANITA","HIDALGOÿ ENTREÿ CALZ.ÿ DEÿ LAÿ VIGAÿ Yÿ H.ÿ CON",206,487196,2145057,"Dot",-99.1219473705799,19.3996831831861
"228","iii_1_2_pozos_sacmex.228","MULTIPOINT ((490549 2143918))","Unknown Point Feature",243,"160","TLACOTAL","ORIENTE","IZTACALCO","GABRIELÿ RAMOSÿ MILLAN","ORIENTEÿ 110ÿ ESQ.ÿ SURÿ 183",200,490549,2143918,"Dot",-99.090007230853,19.3894083313979
"229","iii_1_2_pozos_sacmex.229","MULTIPOINT ((487224 2143029))","Unknown Point Feature",244,"170","VIGAÿ No.4","ORIENTE","IZTACALCO","BENITOÿ JUAREZ","CAMELLONÿ CALZ.ÿ DEÿ LAÿ VIGAÿ ESQ.ÿ ROQUETA",222,487224,2143029,"Dot",-99.1216670772287,19.3813557560429
"230","iii_1_2_pozos_sacmex.230","MULTIPOINT ((490345 2143303))","Unknown Point Feature",245,"5","AGRICOLAÿ ORIENTALÿ No.2","ORIENTE","IZTAPALAPA","PASEOSÿ DEÿ CHURUBUSCO","CANALÿ DEÿ TEZONTLEÿ Yÿ RIOÿ CHURURUBUSCO",200,490345,2143303,"Dot",-99.0919469166934,19.3838494239459
"231","iii_1_2_pozos_sacmex.231","MULTIPOINT ((490695 2143272))","Unknown Point Feature",246,"6","AGRICOLAÿ ORIENTALÿ No.4","ORIENTE","IZTAPALAPA","PASEOSÿ DEÿ CHURUBUSCO","EJEÿ 5ÿ SURÿ ENTREÿ BARATILLOÿ Yÿ ENCOMENDEROSÿ",195,490695,2143272,"Dot",-99.088613632925,19.3835709218918
"232","iii_1_2_pozos_sacmex.232","MULTIPOINT ((491220 2143241))","Unknown Point Feature",247,"7","AGRICOLAÿ ORIENTALÿ No.5","ORIENTE","IZTAPALAPA","ALFONSOÿ ORTIZÿ TIRADO","AV.ÿ CANALÿ DEÿ TEZONTLEÿ Aÿ 500ÿ MTS.ÿ DEÿ AV.",202,491220,2143241,"Dot",-99.0836137995205,19.3832931323288
"233","iii_1_2_pozos_sacmex.233","MULTIPOINT ((491978 2143241))","Unknown Point Feature",248,"8","AGRICOLAÿ ORIENTALÿ No.6","ORIENTE","IZTAPALAPA","ALFONSOÿ ORTIZÿ TIRADO","AV.ÿ CANALÿ DEÿ TEZONTLEÿ ESQ.ÿ CALZADAÿ ROJOÿ",150,491978,2143241,"Dot",-99.0763952099806,19.3832963069292
"234","iii_1_2_pozos_sacmex.234","MULTIPOINT ((492591 2143302))","Unknown Point Feature",249,"9","AGRICOLAÿ ORIENTALÿ No.7","ORIENTE","IZTAPALAPA","U.H.ÿ CUCHILLAÿ DELÿ MORALÿ I","FERROCARILÿ DEÿ RIOÿ FRIOÿ ENTREÿ ORIENTEÿ 247ÿ",177,492591,2143302,"Dot",-99.0705577216262,19.383849940155
"235","iii_1_2_pozos_sacmex.235","MULTIPOINT ((485381 2137497))","Unknown Point Feature",260,"001?A","AUXILIARÿ XOTEPINGOÿ No.1?A","SUR/AUX","IZTAPALAPA","MIGUELÿ DEÿ LAÿ MADRIDÿ HURTA","AV.ÿ DEÿ LASÿ TORRESÿ INTERIORÿ DELÿ PARQUEÿ UB",198,485381,2137497,"Dot",-99.139175693479,19.3313487814109
"236","iii_1_2_pozos_sacmex.236","MULTIPOINT ((486344 2137035))","Unknown Point Feature",261,"004?C","AUXILIARÿ XOTEPINGOÿ No.4?C","SUR/AUX","IZTAPALAPA","MIGUELÿ DEÿ LAÿ MADRIDÿ HURTA","AV.ÿ DEÿ LASÿ TORRESÿ INTERIORÿ DELÿ PARQUEÿ UB",182,486344,2137035,"Dot",-99.1300044630174,19.3271802984319
"237","iii_1_2_pozos_sacmex.237","MULTIPOINT ((486344 2136790))","Unknown Point Feature",262,"006?B","AUXILIARÿ XOTEPINGOÿ No.6?B","SUR/AUX","IZTAPALAPA","MIGUELÿ DEÿ LAÿ MADRIDÿ HURTA","AV.ÿ DEÿ LASÿ TORRESÿ INTERIORÿ DELÿ PARQUEÿ UB",175,486344,2136790,"Dot",-99.1300027116193,19.3249661496478
"238","iii_1_2_pozos_sacmex.238","MULTIPOINT ((494982 2140812))","Unknown Point Feature",264,"325","CARLOSÿ GRACIDAS","ORIENTE","IZTAPALAPA","SANTAÿ CRUZÿ MEYEHUALCO","LUISÿ MENDEZÿ Yÿ GENAROÿ ESTRADA",130,494982,2140812,"Dot",-99.0477810907237,19.3613544296835
"239","iii_1_2_pozos_sacmex.239","MULTIPOINT ((491276 2137985))","Unknown Point Feature",266,"324","CERROÿ DEÿ LAÿ ESTRELLAÿ No.2","ORIENTE","IZTAPALAPA","SANÿ NICOLASÿ TOLENTINO","AV.ÿ 11ÿ ENTREÿ BILBAOÿ Yÿ SABADEL",300,491276,2137985,"Dot",-99.0830564472305,19.3357932088063
"240","iii_1_2_pozos_sacmex.240","MULTIPOINT ((498104 2141119))","Unknown Point Feature",267,"246","DEPORTIVOÿ SANÿ SEBASTIAN","ORIENTE","IZTAPALAPA","ELÿ EDEN","FEDERICOÿ GONZALEZÿ GARZAÿ ESQ.ÿ PEDROÿ ACEVES",202,498104,2141119,"Dot",-99.0180539040476,19.3641342634786
"241","iii_1_2_pozos_sacmex.241","MULTIPOINT ((487660 2140938))","Unknown Point Feature",268,"50","FRACCIONAMIENTOÿ BANJIDAL","ORIENTE","IZTAPALAPA","BANJIDAL","SURÿ 69?Aÿ ENTREÿ CALZ.ÿ ERMITAÿ IZTAPALAPAÿ Yÿ",201,487660,2140938,"Dot",-99.1175014683415,19.3624614892878
"242","iii_1_2_pozos_sacmex.242","MULTIPOINT ((490079 2136849))","Unknown Point Feature",269,"41","GRANJASÿ ESTRELLAÿ No.1","ORIENTE","IZTAPALAPA","LOMASÿ ESTRELLAÿ 1RAÿ SECC.","LESBOSÿ FRENTEÿ Aÿ CALLEÿÿ LESINA",200,490079,2136849,"Dot",-99.0944465193831,19.3255212325383
"243","iii_1_2_pozos_sacmex.243","MULTIPOINT ((490371 2136726))","Unknown Point Feature",270,"42","GRANJASÿ ESTRELLAÿ No.2","ORIENTE","IZTAPALAPA","LOMASÿ ESTRELLAÿ 1RAÿ SECC.","BOULEVARDÿ CAPRIÿ ENTREÿ 2DAÿ Yÿ 4TAÿ CDA.ÿ DEÿ",82,490371,2136726,"Dot",-99.0916661033475,19.3244110562707
"244","iii_1_2_pozos_sacmex.244","MULTIPOINT ((488798 2141122))","Unknown Point Feature",271,"53","GRANJASÿ SANÿ ANTONIO","ORIENTE","IZTAPALAPA","GRANJASÿ SANÿ ANTONIO","AV.ÿ CULTURASÿ PREHISPANICASÿ ENTREÿ CALLEÿ 10ÿ",75,488798,2141122,"Dot",-99.1066665295449,19.3641310250647
"245","iii_1_2_pozos_sacmex.245","MULTIPOINT ((490343 2140629))","Unknown Point Feature",272,"59","IZTAPALAPAÿ No.1","ORIENTE","IZTAPALAPA","BARRIOÿ DEÿ SANÿ LUCAS","AYUNTAMIENTOÿ Yÿ CALLEÿ LERDOÿ ENÿ LAÿ EXPLANAD",150,490343,2140629,"Dot",-99.0919524072936,19.3596836517116
"246","iii_1_2_pozos_sacmex.246","MULTIPOINT ((497637 2139459))","Unknown Point Feature",273,"247","IZTAPALAPAÿ No.12ÿ (MERC.ÿ ASTA","ORIENTE","IZTAPALAPA","STA.ÿ MARIAÿ AZTAHUACAN","CALLEÿ PALMASÿ Yÿ CALLEÿ PRIMAVERA",100,497637,2139459,"Dot",-99.0224986678602,19.3491317931472
"247","iii_1_2_pozos_sacmex.247","MULTIPOINT ((489439 2140230))","Unknown Point Feature",274,"61","IZTAPALAPAÿ No.2","ORIENTE","IZTAPALAPA","BARRIOÿ SANÿ LUCAS","AV.ÿ ERMITAÿ IZTAPALAPAÿ Yÿ CALZ.ÿ ERMITAÿ FREN",150,489439,2140230,"Dot",-99.100557930886,19.3560732112588
"248","iii_1_2_pozos_sacmex.248","MULTIPOINT ((493319 2141058))","Unknown Point Feature",275,"244","IZTAPALAPAÿ No.4ÿ (LUISÿ RODRIG","ORIENTE","IZTAPALAPA","U.H.ÿ VICENTEÿ GUERRERO","JOSUEÿ ARCOÿ ESCOBEDO,ÿ ESQ.ÿ CALLEÿ 1",115,493319,2141058,"Dot",-99.0636169314836,19.3635727676984
"249","iii_1_2_pozos_sacmex.249","MULTIPOINT ((494165 2140904))","Unknown Point Feature",276,"243","IZTAPALAPAÿ No.6ÿ (LUISÿ MENDEZ","ORIENTE","IZTAPALAPA","U.H.ÿ VICENTEÿ GUERRERO","AV.ÿ LUISÿ MENDEZÿ ENTREÿ CALLEÿ 2ÿ Yÿ 3ÿ DEÿ R",170,494165,2140904,"Dot",-99.0555607941248,19.3621836561499
"250","iii_1_2_pozos_sacmex.250","MULTIPOINT ((496995 2138414))","Unknown Point Feature",277,"IZT?8","IZTAPALAPAÿ No.8","ORIENTE","IZTAPALAPA","SANTAÿ CRUZÿ MEYEHUALCO","CARLOSÿ VILLASE¥ORÿ (CALLEÿ 29)ÿ ENTREÿ AV.ÿ 4ÿ",207,496995,2138414,"Dot",-99.0286096516901,19.3396869091073
"251","iii_1_2_pozos_sacmex.251","MULTIPOINT ((489962 2136418))","Unknown Point Feature",278,"43","LOMASÿ ESTRELLA","ORIENTE","IZTAPALAPA","LOMASÿ ESTRELLASÿ 2da.ÿ SECCI","AV.ÿ TLAHUACÿ S/Nÿ ESQ.ÿ PASEOÿ DEÿ LASÿ GALIAS",72,489962,2136418,"Dot",-99.0955580773226,19.3216255522342
"252","iii_1_2_pozos_sacmex.252","MULTIPOINT ((488884 2139032))","Unknown Point Feature",279,"82","LOSÿ REYESÿ IZTAPALAPA","ORIENTE","IZTAPALAPA","AMP.ÿ LOSÿ REYES","CUITLAHUACÿ ENTREÿ AHUITZOTLÿ Yÿ AXAYACATL",150,488884,2139032,"Dot",-99.1058354471032,19.345243501011
"253","iii_1_2_pozos_sacmex.253","MULTIPOINT ((492122 2138323))","Unknown Point Feature",280,"103","PANTEONÿ CIVILÿ IZTAPALAPAÿ No.","ORIENTE","IZTAPALAPA","SANÿ JUANÿ XALPA","CALZ.ÿ SANÿ LORENZOÿ INTERIORÿ PANTEONÿ CIVIL",115,492122,2138323,"Dot",-99.0750035427787,19.338851323639
"254","iii_1_2_pozos_sacmex.254","MULTIPOINT ((492093 2138600))","Unknown Point Feature",281,"104","PANTEONÿ CIVILÿ IZTAPALAPAÿ No.","ORIENTE","IZTAPALAPA","SANÿ JUANÿ XALPA","CALZ.ÿ SANÿ LORENZOÿ INTERIORÿ PANTEONÿ CIVIL",150,492093,2138600,"Dot",-99.0752807884754,19.3413545540017
"255","iii_1_2_pozos_sacmex.255","MULTIPOINT ((491597 2138600))","Unknown Point Feature",282,"204","PANTEONÿ CIVILÿ IZTAPALAPAÿ No.","ORIENTE","IZTAPALAPA","SANÿ JUANÿ XALPA","CALZ.ÿ SANÿ LORENZOÿ INTERIONÿ PANTEONÿ CIVIL",0,491597,2138600,"Dot",-99.0800030908434,19.3413525422201
"256","iii_1_2_pozos_sacmex.256","MULTIPOINT ((496820 2143055))","Unknown Point Feature",283,"107","PE¥ONÿ No.1","ORIENTE","IZTAPALAPA","PUEBLOÿ SN.ÿ LORENZOÿ XICOTEN","GENERALÿ FLORENTINOÿ ANTILLONÿ ESQ.ÿ ELÿ FUERTE",250,496820,2143055,"Dot",-99.030283513204,19.3816288876942
"257","iii_1_2_pozos_sacmex.257","MULTIPOINT ((497112 2143301))","Unknown Point Feature",284,"108","PE¥ONÿ No.2","ORIENTE","IZTAPALAPA","EJERCITOÿ AGUAÿ PRIETA","EJEÿ 5ÿ SURÿ ESQ.ÿ CALLEÿ 10",264,497112,2143301,"Dot",-99.0275031363932,19.3838525071169
"258","iii_1_2_pozos_sacmex.258","MULTIPOINT ((497579 2142901))","Unknown Point Feature",285,"109","PE¥ONÿ No.3","ORIENTE","IZTAPALAPA","ZONAÿ URBANAÿ EJIDALÿ STA.ÿ M","FCO.ÿ CESARÿ MORALESÿ ENTREÿ E.ÿ AGUIRREÿ COLOR",174,497579,2142901,"Dot",-99.0230552717984,19.3802382014772
"259","iii_1_2_pozos_sacmex.259","MULTIPOINT ((497958 2142625))","Unknown Point Feature",286,"110","PE¥ONÿ No.4","ORIENTE","IZTAPALAPA","U.H.ÿ FUERTEÿ DEÿ LORETO","AV.ÿ CIRCUNVALACIONÿÿ ENTREÿ JOSEÿ AGUILARÿ Yÿ",202,497958,2142625,"Dot",-99.0194457450723,19.3777443248094
"260","iii_1_2_pozos_sacmex.260","MULTIPOINT ((497666 2142348))","Unknown Point Feature",287,"111","PE¥ONÿ No.5","ORIENTE","IZTAPALAPA","SANTAÿ MARTHAÿ ACATITLA","ROSALIOÿ BUSTAMANTEÿ ENTREÿ LUISÿ GARCIAÿ Yÿ DI",175,497666,2142348,"Dot",-99.0222260898408,19.3752406702257
"261","iii_1_2_pozos_sacmex.261","MULTIPOINT ((497404 2142102))","Unknown Point Feature",288,"112","PE¥ONÿ No.6","ORIENTE","IZTAPALAPA","SANTAÿ MARTHAÿ ACATITLAÿ SUR","FRANCISCOÿ CANOÿ ENTREÿ AND.ÿ SITIOÿ DEÿ IZUCAR",193,497404,2142102,"Dot",-99.0247207139097,19.37301716845
"262","iii_1_2_pozos_sacmex.262","MULTIPOINT ((496879 2141856))","Unknown Point Feature",289,"113","PE¥ONÿ No.7","ORIENTE","IZTAPALAPA","U.H.ÿ EJERCITOÿ DEÿ ORIENTE","FELIXÿ GUTIERREZÿ ESQ.ÿ LUISÿ ZAMORA",200,496879,2141856,"Dot",-99.0297196843647,19.3707932403252
"263","iii_1_2_pozos_sacmex.263","MULTIPOINT ((496441 2142041))","Unknown Point Feature",290,"114","PE¥ONÿ No.8","ORIENTE","IZTAPALAPA","ALVAROÿ OBREGON","BATALLAÿ DEÿ SANTAÿ ROSAÿ ENTREÿ BATALLAÿ DEÿ C",200,496441,2142041,"Dot",-99.0338908791405,19.3724644154729
"264","iii_1_2_pozos_sacmex.264","MULTIPOINT ((496383 2142563))","Unknown Point Feature",291,"115","PE¥ONÿ No.9","ORIENTE","IZTAPALAPA","ALVAROÿ OBREGON","QUETZALÿ ESQ.ÿ PIRAMIDESÿ DEÿ TEOTIHUCAN",178,496383,2142563,"Dot",-99.0344441803283,19.3771817904332
"265","iii_1_2_pozos_sacmex.265","MULTIPOINT ((492415 2140136))","Unknown Point Feature",292,"245","PURISIMA","ORIENTE","IZTAPALAPA","AMPLIACIONÿ SANÿ MIGUEL","SANÿ FELIPEÿ DEÿ JESUSÿ Yÿ 5a.ÿ CERRADAÿ DEÿ SA",155,492415,2140136,"Dot",-99.0722212071078,19.3552371428385
"266","iii_1_2_pozos_sacmex.266","MULTIPOINT ((492269 2139891))","Unknown Point Feature",293,"205","PURISIMAÿ IZTAPALAPA","ORIENTE","IZTAPALAPA","1a.ÿ AMPLIACIONÿ DEÿ SANTIAGO","CAMINOÿ Aÿ SANTIAGOÿ Yÿ AV.LASÿ TORRES",131,492269,2139891,"Dot",-99.0736103641475,19.3530224404526
"267","iii_1_2_pozos_sacmex.267","MULTIPOINT ((492415 2140167))","Unknown Point Feature",294,"123","PURISIMAÿ IZTAPALAPAÿ No.1","ORIENTE","IZTAPALAPA","SANÿ MIGUELÿ TEOTONGO","AV.ÿ DEÿ LASÿ TORRESÿ ENTREÿ S.ÿ DIAZÿ MIRONÿ Y",50,492415,2140167,"Dot",-99.0722213304185,19.3555173000411
"268","iii_1_2_pozos_sacmex.268","MULTIPOINT ((492415 2140198))","Unknown Point Feature",295,"124","PURISIMAÿ IZTAPALAPAÿ No.2","ORIENTE","IZTAPALAPA","LAÿ PURISIMA","QUETZALÿ INTERIORÿ DELÿ DEPORTIVOÿÿ LAÿ PURISIM",131,492415,2140198,"Dot",-99.0722214537314,19.3557974572351
"269","iii_1_2_pozos_sacmex.269","MULTIPOINT ((492415 2140290))","Unknown Point Feature",296,"125","PURISIMAÿ IZTAPALAPAÿ No.3","ORIENTE","IZTAPALAPA","ALBARRADA","PURISIMAÿ S/Nÿ ENTREÿ CALLEÿ 2ÿ Yÿ CALLEÿ 4",50,492415,2140290,"Dot",-99.0722218197047,19.3566288914376
"270","iii_1_2_pozos_sacmex.270","MULTIPOINT ((492444 2140352))","Unknown Point Feature",297,"126","PURISIMAÿ IZTAPALAPAÿ No.4","ORIENTE","IZTAPALAPA","U.ÿ H.ÿ STA.ÿ MARIAÿ AZTAHUAC","MAIZÿ ESQ.ÿ PARAISO",50,492444,2140352,"Dot",-99.0719459373193,19.3571893150388
"271","iii_1_2_pozos_sacmex.271","MULTIPOINT ((492473 2140536))","Unknown Point Feature",298,"187","PURISIMAÿ IZTAPALAPAÿ No.5","ORIENTE","IZTAPALAPA","2da.ÿ AMPLIACIONÿ DEÿ SANTIAG","CERRADAÿ DEÿ OCOTEÿ ESQ.ÿ OCOTE",50,492473,2140536,"Dot",-99.0716705347181,19.3588522920057
"272","iii_1_2_pozos_sacmex.272","MULTIPOINT ((492502 2140751))","Unknown Point Feature",299,"126?A","PURISIMAÿ IZTAPALAPAÿ No.7","ORIENTE","IZTAPALAPA","PURISIMA","LAÿ PURISIMAÿ ESQ.ÿ SANÿ FELIPEÿ DEÿ JESUS",150,492502,2140751,"Dot",-99.0713952485282,19.3607954253161
"273","iii_1_2_pozos_sacmex.273","MULTIPOINT ((485706 2142046))","Unknown Point Feature",300,"138","SANÿ JUANICOÿ IZTAPALAPA","ORIENTE","IZTAPALAPA","SN.ÿ JUANICOÿ NEXTIPAC","CALZ.ÿ SANÿ JUANICOÿ ENTREÿ CUAUHTEMOCYÿ CDA.ÿ",120,485706,2142046,"Dot",-99.1361157300451,19.3724618589272
"274","iii_1_2_pozos_sacmex.274","MULTIPOINT ((493142 2135157))","Unknown Point Feature",301,"SC?10","SANTAÿ CATARINAÿ No.10","ORIENTE","IZTAPALAPA","PUEBLOÿ SANÿ LORENZOÿ TEZONCO","AV.ÿ TLAHUACÿ S/Nÿ INT.ÿ PANTEONÿ SANÿ LORENZOÿ",160,493142,2135157,"Dot",-99.0652811378357,19.3102427761545
"275","iii_1_2_pozos_sacmex.275","MULTIPOINT ((492442 2134788))","Unknown Point Feature",302,"SC?11","SANTAÿ CATARINAÿ No.11","ORIENTE","IZTAPALAPA","BARRIOÿ GUADALUPE","PINOÿ SUAREZÿ ENTREÿ FRANCISCOÿ VILLAÿ Yÿ EMILI",965,492442,2134788,"Dot",-99.0719429590188,19.306905479431
"276","iii_1_2_pozos_sacmex.276","MULTIPOINT ((493201 2135894))","Unknown Point Feature",303,"SC?12","SANTAÿ CATARINAÿ No.12","ORIENTE","IZTAPALAPA","LOMASÿ DEÿ SANÿ LORENZO","BENITOÿ JUAREZÿ ENTREÿ GARDENIASÿ Yÿ GUADALUPEÿ",85,493201,2135894,"Dot",-99.0647221395455,19.3169035193055
"277","iii_1_2_pozos_sacmex.277","MULTIPOINT ((492442 2136202))","Unknown Point Feature",304,"SC?13","SANTAÿ CATARINAÿ No.13","ORIENTE","IZTAPALAPA","LOMASÿ DEÿ SANÿ LORENZO","REFORMAÿ S/Nÿ ENÿ ELÿ JARDINÿ DELÿ RECLUSORIOÿ",115,492442,2136202,"Dot",-99.0719485489728,19.3196843218097
"278","iii_1_2_pozos_sacmex.278","MULTIPOINT ((493638 2134542))","Unknown Point Feature",305,"SC?8","SANTAÿ CATARINAÿ No.8","ORIENTE","IZTAPALAPA","PUEBLOÿ DEÿ SANÿÿ LORENZOÿ TE","AV.ÿ TLAHUACÿ ,ÿ INT.ÿ DELÿ PANTEONÿ CIVILÿ SAN",960,493638,2134542,"Dot",-99.0605576819417,19.304686416068
"279","iii_1_2_pozos_sacmex.279","MULTIPOINT ((493667 2134695))","Unknown Point Feature",306,"SC?9","SANTAÿ CATARINAÿ No.9","ORIENTE","IZTAPALAPA","PUEBLOÿ DEÿ SANÿÿ LORENZOÿ TE","AV.ÿ TLAHUACÿ S/Nÿ INT.ÿ PANTEONÿ SANÿ LORENZOÿ",56,493667,2134695,"Dot",-99.0602821476363,19.3060692266994
"280","iii_1_2_pozos_sacmex.280","MULTIPOINT ((496178 2138967))","Unknown Point Feature",308,"203","SANTAÿ CRUZÿ MEYEHUALCOÿ No.2","ORIENTE","IZTAPALAPA","REFORMAÿÿ POLITICA","REFORMAÿ ADMINISTRATIVAÿ ESQ.ÿ REFORMAÿ SOCIAL",55,496178,2138967,"Dot",-99.0363891559656,19.3446831753789
"281","iii_1_2_pozos_sacmex.281","MULTIPOINT ((488068 2141430))","Unknown Point Feature",309,"150","SECTORÿ POPULARÿ No.1","ORIENTE","IZTAPALAPA","SECTORÿ POPULAR","CAMELLONÿ DEÿ LAÿ CALLEÿ ALFONSOÿ DELÿ TOROÿ EN",401,488068,2141430,"Dot",-99.1136195789359,19.3669103110252
"282","iii_1_2_pozos_sacmex.282","MULTIPOINT ((485880 2140970))","Unknown Point Feature",310,"151","SECTORÿ POPULARÿ No.2","ORIENTE","IZTAPALAPA","SECTORÿ POPULAR","CAMELLONÿ DEÿ LAÿ CALLEÿ RODOLFOÿ USIGLIÿ ENTRE",401,485880,2140970,"Dot",-99.1344508312122,19.3627389566155
"283","iii_1_2_pozos_sacmex.283","MULTIPOINT ((488330 2140446))","Unknown Point Feature",311,"152","SECTORÿ POPULARÿ No.3","ORIENTE","IZTAPALAPA","U.H.ÿ ALCANFORE","ESTRELLAÿ S/N",70,488330,2140446,"Dot",-99.1111187261863,19.3580191357737
"284","iii_1_2_pozos_sacmex.284","MULTIPOINT ((488039 2141768))","Unknown Point Feature",312,"185","SIFON","ORIENTE","IZTAPALAPA","PARAJEÿ ZACATEPE","ZACATEPECÿ ESQUINAÿ MORELOS",77,488039,2141768,"Dot",-99.1138978458718,19.3699647477051
"285","iii_1_2_pozos_sacmex.285","MULTIPOINT ((395646 2126570))","Unknown Point Feature",313,"TEC?2","TECOMITLÿ No.2","SUR/M.ALT","IZTAPALAPA","LEYESÿ DEÿ REFORMA","EJEÿ 5ÿ Yÿ PERIFERICOÿ SUR",202,395646,2126570,"Dot",-99.9928206283513,19.2299587480996
"286","iii_1_2_pozos_sacmex.286","MULTIPOINT ((487193 2141461))","Unknown Point Feature",314,"162","UNIDADÿ MODELOÿ No.1","ORIENTE","IZTAPALAPA","UNIDADÿ MODELO","RETORNOÿ 110ÿ Yÿ AV.ÿ RIOÿ CHURUBUSCOÿ Yÿ ANDAD",202,487193,2141461,"Dot",-99.12195174923,19.3671850766585
"287","iii_1_2_pozos_sacmex.287","MULTIPOINT ((486551 2140877))","Unknown Point Feature",315,"163","UNIDADÿ MODELOÿ No.2","ORIENTE","IZTAPALAPA","UNIDADÿ MODELO","AV.ÿ UNIDADÿ MODELOÿ ESQ.ÿ RET.ÿ CENTRALÿ PONIE",215,486551,2140877,"Dot",-99.1280609160777,19.3619030928914
"288","iii_1_2_pozos_sacmex.288","MULTIPOINT ((487164 2140785))","Unknown Point Feature",316,"164","UNIDADÿ MODELOÿ No.3","ORIENTE","IZTAPALAPA","SANÿ JUANÿ XALPA","AV.ÿ SANÿ LORENZOÿ S/Nÿ ESQUINAÿ ESTRELLAS",60,487164,2140785,"Dot",-99.1222233417083,19.3610756719398
"289","iii_1_2_pozos_sacmex.289","MULTIPOINT ((487251 2140293))","Unknown Point Feature",317,"167","VIGAÿ No.1","ORIENTE","IZTAPALAPA","HEROESÿ DEÿ CHURUBUSCO","CAMELLONÿ DEÿ CALZ.ÿ DEÿ LAÿ VIGAÿ CASIÿ ESQ.ÿ",400,487251,2140293,"Dot",-99.1213916460482,19.3566298683404
"290","iii_1_2_pozos_sacmex.290","MULTIPOINT ((487222 2141092))","Unknown Point Feature",318,"168","VIGAÿ No.2","ORIENTE","IZTAPALAPA","UNIDADÿ MODELO","CAMELLONÿ DEÿ CALZ.ÿ DEÿ LAÿ VIGAÿ ESQ.ÿ RETORN",402,487222,2141092,"Dot",-99.1216731295216,19.3638504955998
"291","iii_1_2_pozos_sacmex.291","MULTIPOINT ((487252 2142352))","Unknown Point Feature",319,"169","VIGAÿ No.3","ORIENTE","IZTAPALAPA","SANÿ JUANICOÿ NEXTIPAC","CAMELLONÿ CALZ.ÿÿ DEÿ LAÿ VIGAÿ ENTREÿ FISICOSÿ",404,487252,2142352,"Dot",-99.1213958985666,19.3752376866622
"292","iii_1_2_pozos_sacmex.292","MULTIPOINT ((499708 2123045))","Unknown Point Feature",320,"R?18","R?18","SUR/M.ALT","M.ÿ ALTA","PBLO.ÿ SANÿ FRANCISCOÿ TECOXP","CAMINOÿ Aÿ MILPAÿ ALTAÿ ENTRADAÿ PORÿ BELISARIO",0,499708,2123045,"Dot",-99.0027776983833,19.2007930172613
"293","iii_1_2_pozos_sacmex.293","MULTIPOINT ((498569 2122461))","Unknown Point Feature",321,"R?19","R?19","SUR/M.ALT","M.ÿ ALTA","PBLO.ÿ SANÿ FRANCISCOÿ TECOXP","MATAMOROSÿ ESQ.ÿ CERRADAÿ DEÿ MATAMOROS",201,498569,2122461,"Dot",-99.0136121904643,19.1955146380663
"294","iii_1_2_pozos_sacmex.294","MULTIPOINT ((499591 2122338))","Unknown Point Feature",322,"R?21","R?21","SUR/M.ALT","M.ÿ ALTA","SANÿ FRANCISCOÿ TECOXPA","ESQ.ÿ CAMINOÿ Aÿ LOSÿ PIRULES",200,499591,2122338,"Dot",-99.0038905301008,19.194403490056
"295","iii_1_2_pozos_sacmex.295","MULTIPOINT ((499504 2122553))","Unknown Point Feature",323,"R?22","R?22","SUR/M.ALT","M.ÿ ALTA","PUEBLOÿ SANÿ FRANCISCOÿ TECOX","CAMINOÿ Aÿ MILPAÿ ALTA",198,499504,2122553,"Dot",-99.0047181554438,19.1963465319225
"296","iii_1_2_pozos_sacmex.296","MULTIPOINT ((499708 2123137))","Unknown Point Feature",324,"R?24","R?24","SUR/M.ALT","M.ÿ ALTA","PUEBLOÿ SANÿ FCO.ÿ TECOXPAN","CAMINOÿ Aÿ MILPAÿ ALTAÿ Yÿ AV.ÿ MATAMOROSÿ ENTR",200,499708,2123137,"Dot",-99.0027777123374,19.2016244662155
"297","iii_1_2_pozos_sacmex.297","MULTIPOINT ((498861 2122738))","Unknown Point Feature",325,"R?25","R?25","SUR/M.ALT","M.ÿ ALTA","SANÿ FCO.ÿ TECOXPAN","CARRETERAÿ TECOMITLÿ MILPAÿ ALTAÿ S/Nÿ ENTREÿ T",201,498861,2122738,"Dot",-99.0108347445493,19.1980182086934
"298","iii_1_2_pozos_sacmex.298","MULTIPOINT ((499942 2122338))","Unknown Point Feature",326,"R?26","R?26","SUR/M.ALT","M.ÿ ALTA","SANÿ FCO.ÿ TECOXPAN","CAMINOÿ Aÿ LOSÿ PIRULES",251,499942,2122338,"Dot",-99.0005517133155,19.1944035304859
"299","iii_1_2_pozos_sacmex.299","MULTIPOINT ((499445 2122000))","Unknown Point Feature",327,"R?27","R?27","SUR/M.ALT","M.ÿ ALTA","","",0,499445,2122000,"Dot",-99.0052792282931,19.1913487814209
"300","iii_1_2_pozos_sacmex.300","MULTIPOINT ((500000 2122738))","Unknown Point Feature",328,"R?28","R?28","SUR/M.ALT","M.ÿ ALTA","SANÿ FCO.ÿ TECOXPAN","CAMINOÿ Aÿ LOSÿ PIRULES",0,500000,2122738,"Dot",-99,19.1980185287408
"301","iii_1_2_pozos_sacmex.301","MULTIPOINT ((396337 2124814))","Unknown Point Feature",331,"TEC?10","TECOMITLÿ No.10","SUR/M.ALT","M.ÿ ALTA","BARRIOÿ XOCHITEPEC","SANTAÿ CRUZÿ S/Nÿ ENTREÿ IGNACIOÿ ALLENDEÿ Yÿ N",135,396337,2124814,"Dot",-99.9861525339444,19.214126838328
"302","iii_1_2_pozos_sacmex.302","MULTIPOINT ((396482 2124629))","Unknown Point Feature",332,"TEC?11","TECOMITLÿ No.11","SUR/M.ALT","M.ÿ ALTA","BARRIOÿ NOXCALCO","PARAJEÿ LAÿ FABRICAÿ DEÿ TECOMITL",80,396482,2124629,"Dot",-99.9847633371466,19.2124625705841
"303","iii_1_2_pozos_sacmex.303","MULTIPOINT ((396920 2124565))","Unknown Point Feature",333,"TEC?12","TECOMITLÿ No.12","SUR/M.ALT","M.ÿ ALTA","BARRIOÿ NOXCALCO","PARAJEÿ LAÿ FABRICAÿ DEÿ TECOMITL",150,396920,2124565,"Dot",-99.9805936827281,19.2119065970647
"304","iii_1_2_pozos_sacmex.304","MULTIPOINT ((396656 2124474))","Unknown Point Feature",334,"TEC?13","TECOMITLÿ No.13","SUR/M.ALT","M.ÿ ALTA","BARRIOÿ NOXCALCO","PARAJEÿ LAÿ FABRICAÿ DEÿ TECOMITL",150,396656,2124474,"Dot",-99.9830999367148,19.2110708548535
"305","iii_1_2_pozos_sacmex.305","MULTIPOINT ((396950 2124780))","Unknown Point Feature",335,"TEC?14","TECOMITLÿ No.14","SUR/M.ALT","M.ÿ ALTA","BARRIOÿ NOXCALCO","PARAJEÿ DEÿ LAÿ FABRICAÿ ENÿ TECOMITL",91,396950,2124780,"Dot",-99.9803198413994,19.2138508953432
"306","iii_1_2_pozos_sacmex.306","MULTIPOINT ((397037 2124656))","Unknown Point Feature",336,"TEC?15","TECOMITLÿ No.15","SUR/M.ALT","M.ÿ ALTA","BARRIOÿ NOXCALCO","PARAJEÿÿ TECOXPANÿ S/N",61,397037,2124656,"Dot",-99.9794856596069,19.212734838012
"307","iii_1_2_pozos_sacmex.307","MULTIPOINT ((397445 2124562))","Unknown Point Feature",337,"TEC?16","TECOMITLÿ No.16","SUR/M.ALT","M.ÿ ALTA","BARRIOÿ NOXCALCO","CAMINOÿ Aÿ NOXCALCOÿ S/N",110,397445,2124562,"Dot",-99.9755997691024,19.2119061402387
"308","iii_1_2_pozos_sacmex.308","MULTIPOINT ((397708 2124468))","Unknown Point Feature",338,"TEC?17","TECOMITLÿ No.17","SUR/M.ALT","M.ÿ ALTA","PUEBLOÿ SANÿ NICOLASÿ TETELCO","AV.ÿ CUAUHTEMOCÿ S/NENTREÿ JOSEÿ MA.ÿ MORELOSÿ",63,397708,2124468,"Dot",-99.9730931362317,19.2110700404855
"309","iii_1_2_pozos_sacmex.309","MULTIPOINT ((395782 2124786))","Unknown Point Feature",339,"TEC?9","TECOMITLÿ No.22","SUR/M.ALT","M.ÿ ALTA","BARRIOÿ XOCHITEPEC","PROLONGACIONÿ ALLENDEÿ ESQ.ÿ SALVADORÿ NOVO",126,395782,2124786,"Dot",-99.9914301811683,19.2138453412997
"310","iii_1_2_pozos_sacmex.310","MULTIPOINT ((395615 2126294))","Unknown Point Feature",340,"TEC?3","TECOMITLÿ No.3","SUR/M.ALT","M.ÿ ALTA","TORRESÿ BODET","AV.ÿ SURÿ DELÿ COMERCIOÿ ESQ.ÿ HIDALGO",219,395615,2126294,"Dot",-99.9931005391693,19.227463186319
"311","iii_1_2_pozos_sacmex.311","MULTIPOINT ((395641 2125710))","Unknown Point Feature",341,"TEC?4","TECOMITLÿ No.4","SUR/M.ALT","M.ÿ ALTA","SANÿ ANTONIOÿ TECOMITL","AV.ÿ HIDALGOÿ No.ÿ 8ÿ ENTREÿ NARCISOÿ MENDOZAÿ",228,395641,2125710,"Dot",-99.9928215063828,19.2221874441672
"312","iii_1_2_pozos_sacmex.312","MULTIPOINT ((395346 2125096))","Unknown Point Feature",342,"TEC?5","TECOMITLÿ No.5","SUR/M.ALT","M.ÿ ALTA","BARRIOÿ TENANTITLA","AV.ÿ GASTONÿ MELOÿ ESQ.ÿ PROLONGACIONÿ CUAUHTEM",150,395346,2125096,"Dot",-99.9955942684812,19.2166240489611
"313","iii_1_2_pozos_sacmex.313","MULTIPOINT ((395461 2124911))","Unknown Point Feature",343,"TEC?6","TECOMITLÿ No.6","SUR/M.ALT","M.ÿ ALTA","SANÿ ANTONIOÿ TECOMITL","5 DEÿ MAYOÿ Yÿ CALLEJONÿ CUAHUTEMOC",200,395461,2124911,"Dot",-99.9944903191667,19.2149583099591
"314","iii_1_2_pozos_sacmex.314","MULTIPOINT ((395547 2124573))","Unknown Point Feature",344,"TEC?7","TECOMITLÿ No.7","SUR/M.ALT","M.ÿ ALTA","SANÿ ANTONIOÿ TECOMITL","CARRETERAÿ TECOMITLÿ MILPAÿ ALTAÿ ESQ.ÿ CALLEÿ",70,395547,2124573,"Dot",-99.9936539326719,19.2119085425031
"315","iii_1_2_pozos_sacmex.315","MULTIPOINT ((395400 2124420))","Unknown Point Feature",345,"TEC?8","TECOMITLÿ No.8","SUR/M.ALT","M.ÿ ALTA","SANÿ ANTONIOÿ TECOMITL","CAMINOÿ Aÿ LOSÿ PIRULESÿ S/N",81,395400,2124420,"Dot",-99.9950438593757,19.2105184314074
"316","iii_1_2_pozos_sacmex.316","MULTIPOINT ((478382 2140578))","Unknown Point Feature",348,"298","PEDREGALÿ No.2","SUR/TLA","M.ÿ CONTRERAS","SANTAÿ TERESA","RIOÿ CHICOÿ ESQ.ÿ SANÿ RAMON",0,478382,2140578,"Dot",-99.2058421599556,19.3591296289462
"317","iii_1_2_pozos_sacmex.317","MULTIPOINT ((476597 2136338))","Unknown Point Feature",350,"134","SANÿ JERONIMOÿ No.3ÿ (ANZALDO)","SUR/TLA","M.ÿ CONTRERAS","SANÿ JERONIMOÿ ACULCO","LUISÿ CABRERAÿ ESQ.ÿ EMILIANOÿ ZAPATA",300,476597,2136338,"Dot",-99.2227864835641,19.3207915449223
"318","iii_1_2_pozos_sacmex.318","MULTIPOINT ((480663 2145186))","Unknown Point Feature",352,"11","ALAMEDAÿ DEÿ TACUBAYA","CENTRO","M.ÿ HIDALGO","TACUBAYA","ITURBIDEÿ ENTREÿ AV.ÿ REVOLUCIONÿ Yÿ AV.ÿ PARQU",220,480663,2145186,"Dot",-99.1841698341974,19.4007966005793
"319","iii_1_2_pozos_sacmex.319","MULTIPOINT ((477605 2149401))","Unknown Point Feature",353,"195","AVENIDAÿ DELÿ CASTILLO","CENTRO","M.ÿ HIDALGO","LOSÿ MORALES","LATERALÿ BOULEVARDÿ M.ÿ AVILAÿ CAMACHOÿ ENTREÿ",200,477605,2149401,"Dot",-99.2133444582805,19.4388565972349
"320","iii_1_2_pozos_sacmex.320","MULTIPOINT ((481013 2145893))","Unknown Point Feature",354,"30","BENJAMINÿ FRANKLIN","CENTRO","M.ÿ HIDALGO","ESCANDON","AVÿ BENJAMINÿ FRANKLINÿ Yÿ CARLOSÿ B.ÿ ZETINA",250,481013,2145893,"Dot",-99.1808434307616,19.4071892779833
"321","iii_1_2_pozos_sacmex.321","MULTIPOINT ((478741 2148170))","Unknown Point Feature",355,"33","CAMPOSÿ ELISEOS","CENTRO","M.ÿ HIDALGO","POLANCO","CAMPOSÿ ELISEOSÿ Yÿ EDGARÿ ALLANÿ POE",300,478741,2148170,"Dot",-99.202508692162,19.4277442007056
"322","iii_1_2_pozos_sacmex.322","MULTIPOINT ((480459 2146047))","Unknown Point Feature",356,"34","CASAÿÿ AMARILLA","CENTRO","M.ÿ HIDALGO","OBSERVATORIO","PARQUEÿ LIRAÿ Yÿ CALLEÿÿ VICENTEÿ EGUIA",200,480459,2146047,"Dot",-99.1861216176731,19.4085756849069
"323","iii_1_2_pozos_sacmex.323","MULTIPOINT ((478742 2148846))","Unknown Point Feature",357,"37","CEDROSÿ Yÿ MOLIERE","CENTRO","M.ÿ HIDALGO","POLANCOÿ REFORMA","GLORIETAÿ DEÿ LAÿ CALLEÿ HORACIOÿ ESQ.ÿ MOLIERE",200,478742,2148846,"Dot",-99.2025067378054,19.4338533617093
"324","iii_1_2_pozos_sacmex.324","MULTIPOINT ((480346 2149305))","Unknown Point Feature",358,"46","CHAPULTEPECÿ MORALES","CENTRO","M.ÿ HIDALGO","CHAPULTEPECÿ MORALES","HORACIOÿ ENTREÿ NEWTONÿ Yÿ HEGEL",350,480346,2149305,"Dot",-99.1872316229032,19.438017843446
"325","iii_1_2_pozos_sacmex.325","MULTIPOINT ((478625 2148508))","Unknown Point Feature",359,"261","CICERON","CENTRO","M.ÿ HIDALGO","LOSÿ MORALESÿ SECCIONÿ ALAMED","CICERONÿ Yÿ AV.ÿ FFCCÿ DEÿ CUERNAVACA",200,478625,2148508,"Dot",-99.2036174843717,19.4307975404101
"326","iii_1_2_pozos_sacmex.326","MULTIPOINT ((480139 2146816))","Unknown Point Feature",360,"56","HORMIGA","CENTRO","M.ÿ HIDALGO","BOSQUESÿ DEÿ CHAPULTEPEC","AV.ÿ MOLINOÿ DELÿ REYÿ CASIÿ ESQ.ÿ AV.ÿ CONSTIT",102,480139,2146816,"Dot",-99.1891775381789,19.4155221679291
"327","iii_1_2_pozos_sacmex.327","MULTIPOINT ((478102 2150046))","Unknown Point Feature",361,"58","IRRIGACION","CENTRO","M.ÿ HIDALGO","IRRIGACION","PRESAÿ DEÿ LAÿ ANGOSTURAÿ Yÿ PRESAÿ SALINILLAS",200,478102,2150046,"Dot",-99.2086172916,19.4446910891171
"328","iii_1_2_pozos_sacmex.328","MULTIPOINT ((481275 2145401))","Unknown Point Feature",362,"71","JARDINÿ MORELOS","CENTRO","M.ÿ HIDALGO","ESCANDON","PROGRESOÿ ESQ.ÿ AVENIDAÿ COMERCIO",200,481275,2145401,"Dot",-99.1783431504837,19.4027454205009
"329","iii_1_2_pozos_sacmex.329","MULTIPOINT ((476965 2150324))","Unknown Point Feature",363,"116","LAÿ PERIODISTA","CENTRO","M.ÿ HIDALGO","PERIODISTA","JOSEÿ FERNANDEZÿ DEÿ LIZARDIÿ ESQ.ÿ RAFAELÿ ALD",250,476965,2150324,"Dot",-99.2194525527997,19.447190647065
"330","iii_1_2_pozos_sacmex.330","MULTIPOINT ((478714 2150291))","Unknown Point Feature",364,"76","LAÿ PIRULERA","CENTRO","M.ÿ HIDALGO","PENSIL","LAGOÿÿ YOJOAÿ ESQ.ÿ LAGOÿ GINEBRA",151,478714,2150291,"Dot",-99.2027896838545,19.4469118107399
"331","iii_1_2_pozos_sacmex.331","MULTIPOINT ((479298 2150474))","Unknown Point Feature",365,"262","LAGOÿ GINEBRA","CENTRO","M.ÿ HIDALGO","PENSILÿ SUR","LAGOSÿ GINEBRAÿ ESQ.ÿ LAGOÿ MALAR",200,479298,2150474,"Dot",-99.1972279947769,19.4485717504513
"332","iii_1_2_pozos_sacmex.332","MULTIPOINT ((478686 2150905))","Unknown Point Feature",366,"77","LEGARIA","CENTRO","M.ÿ HIDALGO","UNIDADÿ LEGARIA","LEGARIAÿ COACALCO",300,478686,2150905,"Dot",-99.2030633390516,19.4524603443255
"333","iii_1_2_pozos_sacmex.333","MULTIPOINT ((476347 2145898))","Unknown Point Feature",368,"79","LOMASÿ DEÿ CHAPULTEPECÿ No.3","PONIENTE","M.ÿ HIDALGO","LOMASÿ DEÿ VIRREYES","SIERRAÿ IXTRLANÿ Yÿ BOULEVARDÿ DEÿ LOSÿ VIRREYE",300,476347,2145898,"Dot",-99.2252850095252,19.4071848053361
"334","iii_1_2_pozos_sacmex.334","MULTIPOINT ((476933 2148110))","Unknown Point Feature",369,"80","LOMASÿ DEÿ CHAPULTEPECÿ No.7","PONIENTE","M.ÿ HIDALGO","REFORMAÿ SOCIAL","CALLEÿ SIERRAÿ MOJADAÿ ENTREÿ SIERRAÿ GORDAÿ Yÿ",200,476933,2148110,"Dot",-99.2197304943106,19.427181943187
"335","iii_1_2_pozos_sacmex.335","MULTIPOINT ((481689 2150994))","Unknown Point Feature",370,"263","MARÿ MEDITERRANEO","CENTRO","M.ÿ HIDALGO","POPOTLA","MARÿ MEDITERRANEOÿ Yÿ CLZÿ MEXICO?ÿ TACUBA",201,481689,2150994,"Dot",-99.1744540397497,19.453294429793
"336","iii_1_2_pozos_sacmex.336","MULTIPOINT ((481367 2149765))","Unknown Point Feature",371,"83","MARINAÿ NACIONALÿ No.1","CENTRO","M.ÿ HIDALGO","ANAHUAC","MARINAÿ NACIONALÿ ESQ.ÿÿ LAGUNAÿ MAYRAN",229,481367,2149765,"Dot",-99.1775097353173,19.4421847330043
"337","iii_1_2_pozos_sacmex.337","MULTIPOINT ((480756 2150626))","Unknown Point Feature",372,"84","MARINAÿ NACIONALÿ No.3","CENTRO","M.ÿ HIDALGO","ANAHUAC","AV.ÿ MARINAÿ NACIONALÿ ENTREÿ LAGOÿ MASKÿ Yÿ LA",263,480756,2150626,"Dot",-99.1833392237356,19.449959974435
"338","iii_1_2_pozos_sacmex.338","MULTIPOINT ((480173 2151365))","Unknown Point Feature",373,"85","MARINAÿ NACIONALÿ No.4","CENTRO","M.ÿ HIDALGO","TACUBA","AV.ÿ MARINAÿ NACIONALÿ Yÿ CALLEÿ LAGOÿ HURON",272,480173,2151365,"Dot",-99.1889012227131,19.4566327587529
"339","iii_1_2_pozos_sacmex.339","MULTIPOINT ((480720 2144756))","Unknown Point Feature",374,"86","MARTIRESÿ DEÿ TACUBAYA","CENTRO","M.ÿ HIDALGO","TACUBAYA","MARTIRESÿ DEÿ TACUBAYAÿ ENTREÿ REVOLUCIONÿ Yÿ P",241,480720,2144756,"Dot",-99.1836225963713,19.3969111337721
"340","iii_1_2_pozos_sacmex.340","MULTIPOINT ((479760 2146908))","Unknown Point Feature",375,"93","MOLINOÿ DELÿ REY","CENTRO","M.ÿ HIDALGO","SANÿ MIGUELÿ CHAPULTEPEC","MOLINOÿ DELÿ REYÿ INTERIORÿ ESTACIONAMIENTOÿ MA",273,479760,2146908,"Dot",-99.1927885071756,19.4163497974534
"341","iii_1_2_pozos_sacmex.341","MULTIPOINT ((481340 2151333))","Unknown Point Feature",376,"121","POPOTLA","CENTRO","M.ÿ HIDALGO","POPOTLA","CALZ.MEXICO?TACUBAÿ ENTREÿ MARÿ ROJOÿ Yÿ CLZ.ÿ",150,481340,2151333,"Dot",-99.1777823867789,19.4563548097603
"342","iii_1_2_pozos_sacmex.342","MULTIPOINT ((476820 2150969))","Unknown Point Feature",377,"182","RIOÿ HONDO","PONIENTE","M.ÿ HIDALGO","PERIODISTA","BOULEVARÿ M.ÿ Aÿ VAILAÿ CAMACHOÿ ESQ.ÿ CALZ.ÿ I",290,476820,2150969,"Dot",-99.2208418349965,19.4530179484936
"343","iii_1_2_pozos_sacmex.343","MULTIPOINT ((481514 2150349))","Unknown Point Feature",378,"131","SALECIANO","CENTRO","M.ÿ HIDALGO","ANAHUAC","LAGUNAÿ TAMIAGUAÿ ENTREÿ LAGOÿ XOCHIMILCOÿ Yÿ S",200,481514,2150349,"Dot",-99.1761150183075,19.4474638250345
"344","iii_1_2_pozos_sacmex.344","MULTIPOINT ((481631 2151333))","Unknown Point Feature",379,"132","SANÿ FELIPEÿ POPOTLA","CENTRO","M.ÿ HIDALGO","NEXTITLA","MARÿ EGEOÿ ENTREÿ MARÿ ARAFURAÿ Yÿ CALLEÿ NEXTI",200,481631,2151333,"Dot",-99.1750099058824,19.456357506595
"345","iii_1_2_pozos_sacmex.345","MULTIPOINT ((477898 2150507))","Unknown Point Feature",380,"136","SANÿ JOAQUINÿ RIO","CENTRO","M.ÿ HIDALGO","SANÿ JOAQUIN","CASAÿ DEÿ LAÿ MONEDAÿ Yÿ RIOÿ SANÿ JOAQUIN",512,477898,2150507,"Dot",-99.2105661173412,19.4488549860127
"346","iii_1_2_pozos_sacmex.346","MULTIPOINT ((478190 2150998))","Unknown Point Feature",381,"135","SANÿ JOAQUINÿ TACUBA","CENTRO","M.ÿ HIDALGO","ARGENTINAÿ ANTIGUA","CALLEJONÿ SANÿ JOAQUINÿ ENTREÿ SANTAÿ CRUZÿ CAC",254,478190,2150998,"Dot",-99.2077898914409,19.4532954499216
"347","iii_1_2_pozos_sacmex.347","MULTIPOINT ((480174 2151764))","Unknown Point Feature",382,"153","TACUBA","CENTRO","M.ÿ HIDALGO","TACUBA","AV.ÿ MARINAÿ NACIONALÿ Yÿ CALZ.ÿ MEXICOÿ ?ÿ TAC",150,480174,2151764,"Dot",-99.1888958702625,19.4602386053219
"348","iii_1_2_pozos_sacmex.348","MULTIPOINT ((481775 2148935))","Unknown Point Feature",383,"166","VERONICA","CENTRO","M.ÿ HIDALGO","VERONICAÿ ANZURES","BAHIAÿ DEÿ LAÿ CONCEPCIONÿ ENTREÿ BAHIAÿ MAGDAL",300,481775,2148935,"Dot",-99.1736149092134,19.4346876076419
"349","iii_1_2_pozos_sacmex.349","MULTIPOINT ((481654 2145001))","Unknown Point Feature",384,"264","VIADUCTO","CENTRO","M.ÿ HIDALGO","ESCANDON","VIADUCTOÿ MIGUELÿ ALEMANÿ Yÿ CALLEÿ 12ÿ DEÿ OCT",200,481654,2145001,"Dot",-99.1747295812967,19.3991340268626
"350","iii_1_2_pozos_sacmex.350","MULTIPOINT ((499942 2127133))","Unknown Point Feature",386,"R?16","R?16","SUR/M.ALT","TLAHUAC","SNÿ JUANÿ IXTAYAPAN","JOSEFAÿ ORTIZÿ DEÿ DOMINGUEZÿ ENTREÿ EMILIANOÿ",202,499942,2127133,"Dot",-99.0005518579088,19.2377382183204
"351","iii_1_2_pozos_sacmex.351","MULTIPOINT ((483160 2133411))","Unknown Point Feature",387,"139","SANÿ LORENZOÿ TEZONCO","SUR/TLA","TLAHUAC","VILLAÿ CENTROAMERICANAÿ Yÿ DE","NORPONIENTEÿ DELÿ BOSQUEÿ DEÿ TLAHUAC",100,483160,2133411,"Dot",-99.1602839935924,19.2944048326032
"352","iii_1_2_pozos_sacmex.352","MULTIPOINT ((398439 2135254))","Unknown Point Feature",388,"SC?1","SANTAÿ CATARINAÿ No.1","SUR/XOC","TLAHUAC","BARRIOÿ SANÿ MIGUEL","CAMINOÿ REALÿ Aÿ STA.ÿ CATARINAÿ ESQ.ÿ EMILIANO",81,398439,2135254,"Dot",-99.9667109820998,19.3085706149835
"353","iii_1_2_pozos_sacmex.353","MULTIPOINT ((394961 2134290))","Unknown Point Feature",389,"SC?2","SANTAÿ CATARINAÿ No.2","ORIENTE","TLAHUAC","3 DEÿ MAYO","PROLÿ VALLEÿ ALPINOÿ S/N",128,394961,2134290,"Dot",-99.9997598019236,19.2996815577192
"354","iii_1_2_pozos_sacmex.354","MULTIPOINT ((499475 2134018))","Unknown Point Feature",390,"SC?3","SANTAÿ CATARINAÿ No.3","SUR/XOC","TLAHUAC","SANÿ FRANCISCOÿ TLALTENCO","CARRETERAÿ Aÿ STAÿ CATARINAÿ Yÿ CERROÿ DEÿ GUAD",141,499475,2134018,"Dot",-99.0049971510124,19.2999608008077
"355","iii_1_2_pozos_sacmex.355","MULTIPOINT ((497753 2134049))","Unknown Point Feature",391,"SC?4","SANTAÿ CATARINAÿ No.4","SUR/XOC","TLAHUAC","LAÿ CONCHITAÿ ZAPOTITLAN","GUILLERMOÿ PRIETOÿ ESQ.ÿ AV.ÿ REVOLUCION",85,497753,2134049,"Dot",-99.0213878422145,19.3002397755898
"356","iii_1_2_pozos_sacmex.356","MULTIPOINT ((497461 2134387))","Unknown Point Feature",392,"SC?5","SANTAÿ CATARINAÿ No.5","SUR/XOC","TLAHUAC","ZAPOTITLAN","ANTIGUOÿ CAMINOÿ Aÿ TLALTENCOÿ ESQ.ÿ MACLOVIOÿ",106,497461,2134387,"Dot",-99.0241676630661,19.3032940661976
"357","iii_1_2_pozos_sacmex.357","MULTIPOINT ((495622 2134695))","Unknown Point Feature",393,"SC?6","SANTAÿ CATARINAÿ No.6","ORIENTE","TLAHUAC","PUEBLOÿ ZAPOTITLAN","AV.ÿ LASÿ BOMBASÿ ENTREÿ CDA.ÿ LASÿ BOMBASÿ Eÿ",48,495622,2134695,"Dot",-99.041673025531,19.3060744238812
"358","iii_1_2_pozos_sacmex.358","MULTIPOINT ((494134 2134357))","Unknown Point Feature",394,"SC?7","SANTAÿ CATARINAÿ No.7","ORIENTE","TLAHUAC","LASÿ ARBOLEDAS","DEÿ LAÿ BUENAÿ SUERTEÿ S/Nÿ ENTREÿ 2da.ÿ Yÿ 3a.",135,494134,2134357,"Dot",-99.0558358635906,19.3030160054075
"359","iii_1_2_pozos_sacmex.359","MULTIPOINT ((395501 2126725))","Unknown Point Feature",395,"TEC?1","TECOMITLÿ No.1","SUR/M.ALT","TLAHUAC","JAIMEÿ TORRESÿ BODET","EDUCACIONÿ SECUNDARIAÿ ESQ.ÿ VERSO",120,395501,2126725,"Dot",-99.9942084277291,19.2313518586697
"360","iii_1_2_pozos_sacmex.360","MULTIPOINT ((397825 2124529))","Unknown Point Feature",396,"TEC?18","TECOMITLÿ No.18","SUR/M.ALT","TLAHUAC","SANÿ NICOLASÿ TETELCO","J.ÿ ORTIZÿ DEÿ DOMINGUEZÿ Yÿ CUAUHTEMOC",53,397825,2124529,"Dot",-99.9719834856237,19.2116271524351
"361","iii_1_2_pozos_sacmex.361","MULTIPOINT ((398086 2124312))","Unknown Point Feature",397,"TEC?19","TECOMITLÿ No.19","SUR/M.ALT","TLAHUAC","LAÿ CONCHITA","JOSEÿ MARIAÿ MORELOSÿ Yÿ VICENTEÿ GUERRERO",72,398086,2124312,"Dot",-99.9694893822422,19.209679451543
"362","iii_1_2_pozos_sacmex.362","MULTIPOINT ((398902 2123847))","Unknown Point Feature",398,"TEC?20","TECOMITLÿ No.20","SUR/M.ALT","TLAHUAC","SANÿ NICOLASÿ TETELCO","BENITOÿ JUAREZÿ ENTREÿ PUEBLAÿ Yÿ AV.ÿ GUADALAJ",150,398902,2123847,"Dot",-99.9617033109092,19.2055185083147
"363","iii_1_2_pozos_sacmex.363","MULTIPOINT ((398726 2123848))","Unknown Point Feature",399,"TEC?21","TECOMITLÿ No.21","SUR/M.ALT","TLAHUAC","SANÿ NICOLASÿ TETELCO","AV.ÿ LASÿ NIEVESÿ Yÿ 20ÿ DEÿ NOVIEMBRE",100,398726,2123848,"Dot",-99.9633774029293,19.2055187547699
"364","iii_1_2_pozos_sacmex.364","MULTIPOINT ((395245 2127864))","Unknown Point Feature",400,"TUL?1","TULYEHUALCOÿ No.1","SUR/M.ALT","TLAHUAC","SNAÿ JUANÿ IXTAYOPAN","SURÿ DELÿ COMERCIOÿ ENTREÿ CAMINOÿ REALÿ Yÿ AV.",106,395245,2127864,"Dot",-99.9967058577804,19.2416307140113
"365","iii_1_2_pozos_sacmex.365","MULTIPOINT ((499737 2127871))","Unknown Point Feature",401,"TUL?2","TULYEHUALCOÿ No.2","SUR/M.ALT","TLAHUAC","SANÿ JUANÿ IXTAYOPAN","SURÿ DELÿ COMERCIOÿ ENTREÿ EDUC.ÿ SECUNDARIAÿ Y",111,499737,2127871,"Dot",-99.0025024912409,19.24440783967
"366","iii_1_2_pozos_sacmex.366","MULTIPOINT ((499329 2127656))","Unknown Point Feature",402,"TUL?3","TULYEHUALCOÿ No.3","ORIENTE","TLAHUAC","MIGUELÿ DEÿ LAÿ MADRID","FRENTEÿ ALÿ PARQUEÿ ECOLOGICOÿ SIERRAÿ DEÿ SANT",70,499329,2127656,"Dot",-99.0063846078304,19.2424646943168
"367","iii_1_2_pozos_sacmex.367","MULTIPOINT ((499591 2127932))","Unknown Point Feature",403,"TUL?4","TULYEHUALCOÿ No.4","SUR/M.ALT","TLAHUAC","SNÿ JUANÿ IXTAYOPAN","AV.ÿ DIVISIàNÿ DELÿ NORTEÿ PORÿ BELISARIOÿ DOMI",201,499591,2127932,"Dot",-99.0038917199033,19.2449590995952
"368","iii_1_2_pozos_sacmex.368","MULTIPOINT ((499650 2128117))","Unknown Point Feature",404,"TUL?5","TULYEHUALCOÿ No.5","SUR/M.ALT","TLAHUAC","PBLO.ÿ TULYEHUALCO","FRANCISCOÿ I.ÿ MADEROÿ ENTREÿ ESC.ÿ NACIONALÿ Y",77,499650,2128117,"Dot",-99.003330356383,19.2466310379384
"369","iii_1_2_pozos_sacmex.369","MULTIPOINT ((485116 2133686))","Unknown Point Feature",405,"PS?31","ACOXPAÿ No.31","SUR/COY","TLALPAN","EXHACIENDAÿ COAPA","CALZADAÿ ACOXPAÿ Yÿ CLUBÿ DEPORT.ÿ TOLUCA",0,485116,2133686,"Dot",-99.141668867783,19.2969054996339
"370","iii_1_2_pozos_sacmex.370","MULTIPOINT ((485407 2133717))","Unknown Point Feature",406,"PS?32","ACOXPAÿ No.32","SUR/COY","TLALPAN","ARBOLEDASÿ DELÿ SUR","CALZADAÿ ACOXPAÿ Yÿ CLUBÿ DEPORT.ÿ VERACRUZ",0,485407,2133717,"Dot",-99.138899314487,19.2971877858905
"371","iii_1_2_pozos_sacmex.371","MULTIPOINT ((485201 2131627))","Unknown Point Feature",407,"302","ARENAL","SUR/TLA","TLALPAN","VALLEÿ ESCONDIDO","ESMERALDAÿ ENTREÿ ZAFIROÿ Yÿ AV.ÿ ELÿ ARENAL",200,485201,2131627,"Dot",-99.1408439098591,19.2782981684109
"372","iii_1_2_pozos_sacmex.372","MULTIPOINT ((480475 2133445))","Unknown Point Feature",408,"280","ARTESANIASÿ (VILLAÿ OLIMPICAÿ N","SUR/TLA","TLALPAN","AILESÿ DOS","CAMINOÿ SANTAÿ TERESA",0,480475,2133445,"Dot",-99.185840216693,19.2946878846499
"373","iii_1_2_pozos_sacmex.373","MULTIPOINT ((479512 2133538))","Unknown Point Feature",409,"281","BOSQUESÿ DEÿ TLALPANÿ No.1","SUR/TLA","TLALPAN","BOSQUEÿ DEÿ TLALPAN","CAMINOÿ SANTAÿ TERESAÿ INERIORÿ BOSQUEÿ DEÿ TLA",0,479512,2133538,"Dot",-99.1950070701544,19.2955188001528
"374","iii_1_2_pozos_sacmex.374","MULTIPOINT ((479541 2133353))","Unknown Point Feature",410,"282","BOSQUESÿ DEÿ TLALPANÿ No.2","SUR/TLA","TLALPAN","BOSQUEÿ DEÿ TLALPAN","CAMINOÿ Aÿ SANTAÿ TERESAÿ INT.ÿ DELÿ BOSQUEÿ DE",0,479541,2133353,"Dot",-99.1947290686526,19.2938471860697
"375","iii_1_2_pozos_sacmex.375","MULTIPOINT ((478287 2134461))","Unknown Point Feature",411,"283","CANALÿ 13","SUR/TLA","TLALPAN","JARDINESÿ DEÿ LAÿ MONTA¥A","CARRETERAÿ PICACHOÿ AJUSCOÿ CASIÿ ESQ.ÿ ANILLOÿ",0,478287,2134461,"Dot",-99.2066771759062,19.3038474348464
"376","iii_1_2_pozos_sacmex.376","MULTIPOINT ((481963 2133105))","Unknown Point Feature",416,"319","DEPORTIVOÿ VIVANCO","SUR/TLA","TLALPAN","TLALPAN","CALLEJONÿ CARRASCOÿÿ ENTREÿ CALLEÿ IGNACIOÿ ALL",250,481963,2133105,"Dot",-99.1716741816424,19.2916290465014
"377","iii_1_2_pozos_sacmex.377","MULTIPOINT ((481292 2132890))","Unknown Point Feature",417,"320","DEPORTIVOÿ XOCHITL","SUR/TLA","TLALPAN","BARRIOÿ LAÿ LONJA","CALLEÿ XOCHITLÿ ENTREÿ CUAUHTEMOCÿ Yÿ CUAHUTEMO",0,481292,2132890,"Dot",-99.1780585624095,19.2896799003511
"378","iii_1_2_pozos_sacmex.378","MULTIPOINT ((482516 2131475))","Unknown Point Feature",418,"31","ELÿ CAMINERO","SUR/TLA","TLALPAN","VILLAÿ TLALPAN","CAMELLONÿ LATERALÿ NORTEÿ DEÿ VIADUCTOÿ TLALPAN",401,482516,2131475,"Dot",-99.1663959254062,19.2769030073817
"379","iii_1_2_pozos_sacmex.379","MULTIPOINT ((482370 2131660))","Unknown Point Feature",419,"49","ELÿ TREBOL","SUR/TLA","TLALPAN","TLALCOLIGIA","AV.ÿ INSURGENTESÿ SURÿ Yÿ CALZADAÿ DEÿ TLALPAN",200,482370,2131660,"Dot",-99.1677871110499,19.2785736512814
"380","iii_1_2_pozos_sacmex.380","MULTIPOINT ((481293 2134058))","Unknown Point Feature",420,"317","ELÿ ZAPOTE","SUR/TLA","TLALPAN","PE¥Aÿ POBRE","SANÿ FERNANDOÿ Yÿ CALLEJONÿ DELÿ ZAPOTEÿ U.H.ÿ",249,481293,2134058,"Dot",-99.178060460413,19.3002355370858
"381","iii_1_2_pozos_sacmex.381","MULTIPOINT ((481700 2132798))","Unknown Point Feature",422,"284","FUENTESÿ BROTANTESÿ No.1","SUR/TLA","TLALPAN","BARRIOÿ CAMISETAS","AV.ÿ DEÿ LASÿ FUENTESÿ BROTANTESÿ S/N",0,481700,2132798,"Dot",-99.1741744437731,19.2888522073599
"382","iii_1_2_pozos_sacmex.382","MULTIPOINT ((481320 2132522))","Unknown Point Feature",423,"285","FUENTESÿ BROTANTESÿ No.2","SUR/TLA","TLALPAN","BARRIOÿ CAMISETAS","AV.ÿ DEÿ LASÿ FUENTESÿ BROTANTESÿ S/N",0,481320,2132522,"Dot",-99.1777884756168,19.2863544117283
"383","iii_1_2_pozos_sacmex.383","MULTIPOINT ((475748 2134311))","Unknown Point Feature",424,"286","FUENTESÿ PEDREGAL","SUR/TLA","TLALPAN","FUENTESÿ DELÿ PEDREGAL","FUENTEÿ DEÿ LAÿ INFANCIAÿ ESQ.ÿ CTO.ÿ FUENTESÿ",0,475748,2134311,"Dot",-99.2308428398542,19.3024628759308
"384","iii_1_2_pozos_sacmex.384","MULTIPOINT ((482488 2132213))","Unknown Point Feature",425,"191","GALEANAÿ TLALPAN","SUR/TLA","TLALPAN","TLALPAN","HERMENEGILDOÿ GALEANAÿ ENTREÿ CONGRESOÿ Yÿ MAGI",287,482488,2132213,"Dot",-99.1666691477912,19.2835723453008
"385","iii_1_2_pozos_sacmex.385","MULTIPOINT ((487713 2133746))","Unknown Point Feature",426,"186","GRANJASÿ AGRICOLAÿ COAPAÿ (sanÿ","","TLALPAN","POTRETOÿ ACOXPA","HDA.ÿ SANÿ NICOLASÿ TOLENTINO",200,487713,2133746,"Dot",-99.116950533581,19.297465246494
"386","iii_1_2_pozos_sacmex.386","MULTIPOINT ((480825 2133137))","Unknown Point Feature",427,"54","HIDALGOÿ TLALPANÿ (TENALCALCO)","SUR/TLA","TLALPAN","BARRIOÿ LAÿ LONJA","CERRADAÿ DEÿ LAÿ CORREGIDORAÿ Yÿ AV.ÿ LAÿ CORRE",240,480825,2133137,"Dot",-99.1825058213498,19.2919077399711
"387","iii_1_2_pozos_sacmex.387","MULTIPOINT ((485582 2132579))","Unknown Point Feature",428,"226","HUIPULCO","SUR/COY","TLALPAN","A.M.S.A.","CANALÿ DEÿ MIRAMONTESÿ S/Nÿ CASIÿ ESQ.ÿ TRANSMI",202,485582,2132579,"Dot",-99.1372250594925,19.2869045148922
"388","iii_1_2_pozos_sacmex.388","MULTIPOINT ((481643 2134335))","Unknown Point Feature",429,"PS?18","INYECCIONÿ DIRECTAÿ No.18","SUR/COY","TLALPAN","INSURGENTESÿ CUICUILCO","ANILLOÿ PERIFERICOÿ ENTREÿÿ PANAMERICANAÿ Yÿ CE",0,481643,2134335,"Dot",-99.1747316944343,19.3027421009408
"389","iii_1_2_pozos_sacmex.389","MULTIPOINT ((481060 2134335))","Unknown Point Feature",430,"PS?19","INYECCIONÿ DIRECTAÿ No.19","SUR/COY","TLALPAN","INSURGENTESÿ CUICULCO","ANILLOÿ PERIFERICOÿ SURÿ ENTREÿ SELVAÿ YCREPUSC",0,481060,2134335,"Dot",-99.1802809785717,19.302736705192
"390","iii_1_2_pozos_sacmex.390","MULTIPOINT ((480417 2134275))","Unknown Point Feature",431,"PS?20?B","INYECCIONÿ DIRECTAÿ No.20?B","SUR/COY","TLALPAN","JARDINESÿ DELÿ PEDREGALÿ DEÿ","ANILLOÿ PERIFERICOÿ ENTREÿ ZACATEPETLÿ Yÿ AV.ÿ",0,480417,2134275,"Dot",-99.1864007562091,19.3021883180802
"391","iii_1_2_pozos_sacmex.391","MULTIPOINT ((479834 2134152))","Unknown Point Feature",432,"PS?21","INYECCIONÿ DIRECTAÿ No.21","SUR/COY","TLALPAN","JARDINÿ PEDREGALÿ DEÿ SANÿ AN","ZACATEPETLÿ S/Nÿ CASIÿ ESQ.ÿ PERIFERICO",0,479834,2134152,"Dot",-99.191948721564,19.3010709751375
"392","iii_1_2_pozos_sacmex.392","MULTIPOINT ((479221 2134337))","Unknown Point Feature",433,"PS?22","INYECCIONÿ DIRECTAÿ No.22","CENTRO","TLALPAN","JARDINÿ PEDREGALÿ DEÿ SANÿ AN","ANILLOÿ PERIFERICOÿ Yÿ SERRANIA",0,479221,2134337,"Dot",-99.1977855048726,19.3027366544089
"393","iii_1_2_pozos_sacmex.393","MULTIPOINT ((482199 2135287))","Unknown Point Feature",434,"PS?24?B","INYECCIONÿ DIRECTAÿ No.24?B","SUR/COY","TLALPAN","RINCONADAÿ DEÿ LASÿ PLAYASÿ I","CHICOMOZTOCÿ Yÿ AV.ÿ AZTECAS",0,482199,2135287,"Dot",-99.1694482686543,19.3113506415799
"394","iii_1_2_pozos_sacmex.394","MULTIPOINT ((483628 2134732))","Unknown Point Feature",435,"PS?25","INYECCIONÿ DIRECTAÿ No.25","SUR/COY","TLALPAN","PEDREGALÿ DEÿ SANTOÿ DOMINGO","AV.ÿ PAPALOTLÿ S/Nÿ ESQ.ÿ ESQUINAPAÿ Yÿ SANTOÿ",0,483628,2134732,"Dot",-99.1558408611038,19.3063470366541
"395","iii_1_2_pozos_sacmex.395","MULTIPOINT ((483160 2132950))","Unknown Point Feature",436,"PS?27?B","INYECCIONÿ DIRECTAÿ No.27?B","CENTRO","TLALPAN","TORIELLOÿ GERRA","CALZ.ÿ DEÿ TLALPANÿ ESQ.ÿ XONTEPEC",0,483160,2132950,"Dot",-99.160279938231,19.290238608167
"396","iii_1_2_pozos_sacmex.396","MULTIPOINT ((483129 2131444))","Unknown Point Feature",439,"287","ISSFAM","SUR/TLA","TLALPAN","SANÿ PEDROÿ MARTIR","AV.ÿ CEDRALÿ Yÿ CALLEÿ GARDENA",2470,483129,2131444,"Dot",-99.1605617243396,19.2766280670033
"397","iii_1_2_pozos_sacmex.397","MULTIPOINT ((486896 2133470))","Unknown Point Feature",440,"305","ISSSTEÿ COAPAÿ No.1","SUR/COY","TLALPAN","REALÿ DELÿ SUR","AV.ÿ CANALÿ DEÿ MIRAMONTESÿ Yÿ CALZADAÿ DEÿ LAS",0,486896,2133470,"Dot",-99.1247250272395,19.2949657852742
"398","iii_1_2_pozos_sacmex.398","MULTIPOINT ((488647 2133561))","Unknown Point Feature",441,"306","ISSSTEÿ COAPAÿ No.2","SUR/COY","TLALPAN","VILLAÿ DELÿ PUENTE","CALLEÿ PERALESÿ S/N",0,488647,2133561,"Dot",-99.1080594183803,19.2957988089297
"399","iii_1_2_pozos_sacmex.399","MULTIPOINT ((486955 2134730))","Unknown Point Feature",442,"307","ISSSTEÿ COAPAÿ No.3","SUR/COY","TLALPAN","EX?EJIDOÿ DEÿ SANÿ PEDROÿ TEP","CANALÿ DEÿ MIRAMONTESÿ Yÿ RANCHOÿ VISTAÿ HERMOS",0,486955,2134730,"Dot",-99.1241720516712,19.3063532531068
"400","iii_1_2_pozos_sacmex.400","MULTIPOINT ((487481 2135498))","Unknown Point Feature",443,"308","ISSSTEÿ COAPAÿ No.4","SUR/COY","TLALPAN","CONJUNTOÿ HAB.ÿ POPULARÿ REVO","AV.ÿ CENTRALÿ ENTREÿ TEPETLAPAÿ Yÿ CALZ.ÿ DEÿ L",0,487481,2135498,"Dot",-99.1191702270128,19.313297284391
"401","iii_1_2_pozos_sacmex.401","MULTIPOINT ((481263 2133382))","Unknown Point Feature",444,"62","JARDINÿ BELISARIOÿ DOMINGUEZ","SUR/TLA","TLALPAN","PE¥Aÿ POBRE","BELISARIOÿ DOMINGUEZÿ ENTREÿ AYUNTAMIENTOYÿ LAS",250,481263,2133382,"Dot",-99.1783393924216,19.2941260098199
"402","iii_1_2_pozos_sacmex.402","MULTIPOINT ((478170 2134123))","Unknown Point Feature",446,"251","JARDINESÿ DEÿ LAÿ MONTA¥Aÿ No.2","SUR/TLA","TLALPAN","JARDINESÿ DEÿ LAÿ MONTA¥A","SIERRAÿ RORAIMAÿ ENTREÿ SIERRAÿ GREDOSÿ Yÿ SIER",250,478170,2134123,"Dot",-99.2077869888915,19.3007915533338
"403","iii_1_2_pozos_sacmex.403","MULTIPOINT ((481583 2132091))","Unknown Point Feature",447,"288","LIMANTITLA","SUR/TLA","TLALPAN","SANTAÿ URSULAÿ XITLA","INSURGENTESÿ SURÿ ESQ.ÿ LIMANTITLA",0,481583,2132091,"Dot",-99.1752812152245,19.2824617266572
"404","iii_1_2_pozos_sacmex.404","MULTIPOINT ((486604 2133347))","Unknown Point Feature",448,"94","MULTIFAMILIARÿ COAPAÿ No.7","SUR/COY","TLALPAN","VILLAÿ COAPA","CALZ.ÿ ACOXPAÿ ENTREÿ AV.ÿ ACEQUIAÿ Yÿ ALTILLO",884,486604,2133347,"Dot",-99.1275034430825,19.2938522689162
"405","iii_1_2_pozos_sacmex.405","MULTIPOINT ((487712 2132762))","Unknown Point Feature",449,"95","MULTIFAMILIARÿ COAPAÿ No.8","SUR/COY","TLALPAN","VILLAÿ COAPA","ELÿ PORTILLOÿ ESQ.ÿ CALZ.ÿ ACOXPA",800,487712,2132762,"Dot",-99.1169537352183,19.288572459329
"406","iii_1_2_pozos_sacmex.406","MULTIPOINT ((476683 2135109))","Unknown Point Feature",451,"291","PADIERNAÿ No.2","SUR/TLA","TLALPAN","FUENTESÿ DELÿ PEDREGAL","FUENTEÿ DEÿ LAÿ LUNAÿ Yÿ CIRCUITOÿ FUENTESÿ DEL",0,476683,2135109,"Dot",-99.2219528142881,19.309685691538
"407","iii_1_2_pozos_sacmex.407","MULTIPOINT ((477149 2134739))","Unknown Point Feature",452,"292","PADIERNAÿ No.3","SUR/TLA","TLALPAN","RECIDENCIALÿ PEDREGALÿ PICACH","FUENTEÿ BELLAÿ ENTREÿ FUENTEÿ DEÿ LAÿ PI¥Aÿ Yÿ",0,477149,2134739,"Dot",-99.217512597488,19.3063472247386
"408","iii_1_2_pozos_sacmex.408","MULTIPOINT ((477732 2133909))","Unknown Point Feature",453,"293","PADIERNAÿ No.5","SUR/TLA","TLALPAN","JARDINESÿ DEÿ LAÿ MONTA¥A","CARRETERAÿ PICACHOÿ AJUSCOÿ KM.3.0",300,477732,2133909,"Dot",-99.2119535429831,19.2988527724751
"409","iii_1_2_pozos_sacmex.409","MULTIPOINT ((476915 2134002))","Unknown Point Feature",454,"294","PADIERNAÿ PICACHO","SUR/TLA","TLALPAN","U.H.ÿ PEMEX","ANILLOÿ PERIFERICOÿ SURÿ Yÿ AV.ÿ DEÿÿ LAÿ UNION",0,476915,2134002,"Dot",-99.2197310757397,19.2996840510208
"410","iii_1_2_pozos_sacmex.410","MULTIPOINT ((482048 2130923))","Unknown Point Feature",455,"295","PEDREGALÿ AGUILAS","SUR/TLA","TLALPAN","TLALCOLIGIA","CARR.ÿ FED.ÿ Aÿ CUERNAVACAÿ ENTREÿ LIRIOÿ Yÿ GU",299,482048,2130923,"Dot",-99.1708447147795,19.2719102664407
"411","iii_1_2_pozos_sacmex.411","MULTIPOINT ((479833 2133261))","Unknown Point Feature",456,"296","PE¥Aÿ POBRE","SUR/TLA","TLALPAN","BOSQUEÿ DEÿ TLALPAN","VIAÿ ABETOSÿ Yÿ VIAÿ OCOTEÿ INTERIORÿ DELÿ BOSQ",0,479833,2133261,"Dot",-99.1919488506773,19.2930186924324
"412","iii_1_2_pozos_sacmex.412","MULTIPOINT ((486632 2132394))","Unknown Point Feature",457,"PER?10","PERIFERICOÿ No.10","SUR/COY","TLALPAN","EJIDOSÿ DEÿ HUIPULCO","ANILLOÿÿ PERIFERICOÿ SURÿ ESQ.ÿ AV.ÿ DIVISIONÿ",300,486632,2132394,"Dot",-99.1272302850856,19.2852398325064
"413","iii_1_2_pozos_sacmex.413","MULTIPOINT ((488413 2133100))","Unknown Point Feature",458,"PER?11","PERIFERICOÿ No.11","SUR/COY","TLALPAN","RINCONADAÿ COAPAÿ 1a.ÿ SECCIO","ANILLOÿ PERIFERICOÿ SURÿ ENTREÿ CA¥AVERALESÿ Yÿ",125,488413,2133100,"Dot",-99.1102838689963,19.291631244968
"414","iii_1_2_pozos_sacmex.414","MULTIPOINT ((486313 2134577))","Unknown Point Feature",459,"PER?2","PERIFERICOÿ No.2","SUR/COY","TLALPAN","EXHACIENDAÿ COAPA","HACIENDAÿ DEÿ MIMIHUAPANÿ PTE.ÿ ENTREÿ CALZ.ÿ D",301,486313,2134577,"Dot",-99.1302819808084,19.3049662771576
"415","iii_1_2_pozos_sacmex.415","MULTIPOINT ((484123 2132857))","Unknown Point Feature",460,"PER?6","PERIFERICOÿ No.6","SUR/COY","TLALPAN","ARENALÿ TEPEPAN","ANILLOÿ PERIFERICOÿ SURÿ ESQ.ÿ VIADUCTOÿ TLALPA",303,484123,2132857,"Dot",-99.1511135393783,19.2894059455866
"416","iii_1_2_pozos_sacmex.416","MULTIPOINT ((483568 2132550))","Unknown Point Feature",461,"PER?7","PERIFERICOÿ No.7","SUR/COY","TLALPAN","BARRIOÿ NI¥Oÿ JESUS","ARENALÿ Yÿ VIADUCTOÿ TLALPAN",400,483568,2132550,"Dot",-99.156393249529,19.286627026912
"417","iii_1_2_pozos_sacmex.417","MULTIPOINT ((485729 2134362))","Unknown Point Feature",462,"122","PREPARATORIAÿ No.5","SUR/COY","TLALPAN","VERGELÿ TLALPAN","CALZ.ÿ DEÿ GUADALUPEÿ ESQ.ÿ TENANGO",200,485729,2134362,"Dot",-99.1358392663878,19.303019192273
"418","iii_1_2_pozos_sacmex.418","MULTIPOINT ((482865 2130614))","Unknown Point Feature",463,"R?1","R?1","SUR/TLA","TLALPAN","EJIDOSÿ DEÿ SANÿ PEDROÿ MARTI","AV.ÿ PENSAMIENTOÿ Yÿ RIOÿ SANÿÿ BUERNAVENTURA",0,482865,2130614,"Dot",-99.1630667910102,19.2691248161152
"419","iii_1_2_pozos_sacmex.419","MULTIPOINT ((483566 2130552))","Unknown Point Feature",464,"R?10","R?10","SUR/TLA","TLALPAN","EJIDOSÿ DEÿ SANÿ PEDROÿ MARTI","PROLONGACIONÿ MARIANOÿÿ ABASOLO",209,483566,2130552,"Dot",-99.1563951479187,19.2685703264728
"420","iii_1_2_pozos_sacmex.420","MULTIPOINT ((482778 2130246))","Unknown Point Feature",465,"R?2","R?2","SUR/TLA","TLALPAN","EJIDOSÿ DEÿ SANÿ PEDROÿ MARTI","CEDRALÿ ESQ.ÿ CDA.ÿ XOCHITL",201,482778,2130246,"Dot",-99.1638914263551,19.2657983176783
"421","iii_1_2_pozos_sacmex.421","MULTIPOINT ((483274 2130122))","Unknown Point Feature",466,"R?3","R?3","SUR/TLA","TLALPAN","EJIDOSÿ DEÿ SANÿ PEDROÿ MARTI","OJOÿ DEÿ AGUAÿ ESQ.ÿ TEPOZAN",199,483274,2130122,"Dot",-99.1591702244912,19.2646818510078
"422","iii_1_2_pozos_sacmex.422","MULTIPOINT ((483391 2130860))","Unknown Point Feature",467,"R?4","R?4","SUR/TLA","TLALPAN","REALÿ DEÿ TEPEPAN","PIEDRALÿ DELÿ COMAL",202,483391,2130860,"Dot",-99.1580632098142,19.2713524092627
"423","iii_1_2_pozos_sacmex.423","MULTIPOINT ((484209 2131259))","Unknown Point Feature",468,"R?5","R?5","SUR/TLA","TLALPAN","VALLEÿ DEÿ TEPEPAN","PROLONGACIONÿ ABASOLOÿ ESQ.ÿ PROL.ÿ ABASOLO",200,484209,2131259,"Dot",-99.1502818403034,19.2749648916323
"424","iii_1_2_pozos_sacmex.424","MULTIPOINT ((485143 2131104))","Unknown Point Feature",469,"R?6","R?6","SUR/TLA","TLALPAN","PUEBLOÿ DEÿ TEPEPAN","MARIANOÿ ABASOLOÿ ENTREÿ JOYAÿ Yÿ CDA.ÿ ABASOLO",200,485143,2131104,"Dot",-99.1413918468911,19.2735711886196
"425","iii_1_2_pozos_sacmex.425","MULTIPOINT ((484383 2130767))","Unknown Point Feature",470,"R?7","R?7","IXTLAHUACA","TLALPAN","FUENTESÿ DEÿ TEPEPAN","PROLONG.ÿ ABASOLOÿ ENTREÿ CDA.ÿ PROLONG.ÿ ABASO",200,484383,2130767,"Dot",-99.1486218897897,19.2705198509887
"426","iii_1_2_pozos_sacmex.426","MULTIPOINT ((484209 2131474))","Unknown Point Feature",471,"R?8","R?8","SUR/TLA","TLALPAN","LASÿ TORTOLAS","CERRADAÿ DEÿ ABASOLOÿ S/Nÿ ENTREÿ LAÿ MALINCHEÿ",200,484209,2131474,"Dot",-99.1502836120165,19.2769079291259
"427","iii_1_2_pozos_sacmex.427","MULTIPOINT ((484909 2131320))","Unknown Point Feature",472,"R?9","R?9","SUR/TLA","TLALPAN","RESIDENCIALÿÿ ESCONDIDA","ABASOLOÿ ESQ.ÿ JOYAÿ (FRENTEÿ RELUSORIOÿ FEMENI",202,484909,2131320,"Dot",-99.1436204856392,19.2755215282337
"428","iii_1_2_pozos_sacmex.428","MULTIPOINT ((477761 2133694))","Unknown Point Feature",473,"297","REINOÿ AVENTURAÿ (B.ÿ DEÿ TLALP","SUR/TLA","TLALPAN","JARDINESÿ DEÿ LAÿ MONTA¥A","CARRETERAÿ PICACHOÿ AJUSCOÿ INT.ÿ PARQUEÿ DEÿ D",0,477761,2133694,"Dot",-99.2116750150767,19.2969100664704
"429","iii_1_2_pozos_sacmex.429","MULTIPOINT ((481555 2133474))","Unknown Point Feature",474,"133","SANÿ FERNANDOÿ TLALPAN","SUR/TLA","TLALPAN","BARRIOÿ SANÿ FERNANDO","SANÿ FERNANDOÿ ESQUINAÿ SANÿ PEDROÿÿ APOSTOL",280,481555,2133474,"Dot",-99.1755610229994,19.2949601392537
"430","iii_1_2_pozos_sacmex.430","MULTIPOINT ((483099 2130338))","Unknown Point Feature",475,"223","SANÿ PEDROÿ MARTIRÿ No.1","SUR/TLA","TLALPAN","SANÿ PEDROÿ MARTIR","PROLONG.ÿ 5ÿ DEÿ MAYOÿ ENTREÿ DILIGENCIASÿ Yÿ C",200,483099,2130338,"Dot",-99.1608374821797,19.2666324699184
"431","iii_1_2_pozos_sacmex.431","MULTIPOINT ((481055 2129571))","Unknown Point Feature",476,"257","SANÿ PEDROÿ MARTIRÿ No.3","SUR/TLA","TLALPAN","ELÿ MIRADOR","BULEVARÿ DEÿ LOSÿ ARCOSÿ Yÿ CAMPANARIO",253,481055,2129571,"Dot",-99.1802814566795,19.2596826525483
"432","iii_1_2_pozos_sacmex.432","MULTIPOINT ((481232 2131661))","Unknown Point Feature",477,"148","SANTAÿ URSULAÿ XITLA","SUR/TLA","TLALPAN","SANTAÿ URSULAÿ XITLA","CAMINOÿ SANTAÿ URSULAÿ Yÿ ALGIBE",200,481232,2131661,"Dot",-99.1786175839184,19.2785724240253
"433","iii_1_2_pozos_sacmex.433","MULTIPOINT ((481727 2130984))","Unknown Point Feature",478,"299","TLALCOLIGIA","SUR/TLA","TLALPAN","TLALCOLIGIA","AV.ÿ UNIVERSIDADÿ ESQ.ÿ OTOMIES",0,481727,2130984,"Dot",-99.1739001630499,19.2724586658776
"434","iii_1_2_pozos_sacmex.434","MULTIPOINT ((483160 2133411))","Unknown Point Feature",479,"159","TORIELLO","SUR/TLA","TLALPAN","TORIELLOÿ GUERRA","RASTROÿ ENTREÿ CHIMLACOYOTLÿ Yÿ PE¥Aÿ POBRE",300,483160,2133411,"Dot",-99.1602839935924,19.2944048326032
"435","iii_1_2_pozos_sacmex.435","MULTIPOINT ((483246 2132305))","Unknown Point Feature",495,"300","VIADUCTOÿ TLALPANÿ No.1","SUR/TLA","TLALPAN","LAÿ JOYA","LATERALÿ DEÿ VIADUCTOÿ TLALPANÿ ESQ.ÿ HERMENEGI",0,483246,2132305,"Dot",-99.1594557655794,19.2844102218992
"436","iii_1_2_pozos_sacmex.436","MULTIPOINT ((484764 2131904))","Unknown Point Feature",496,"301","VIADUCTOÿ TLALPANÿ No.2","SUR/TLA","TLALPAN","LAÿ JOYA","LATERALÿ DEÿ VIADUCTOÿ TLALPANÿ ESQ.ÿ TEZOQUIPA",0,484764,2131904,"Dot",-99.1450050859446,19.2807982707369
"437","iii_1_2_pozos_sacmex.437","MULTIPOINT ((480417 2133998))","Unknown Point Feature",497,"172","VILLAÿ OLIMPICAÿ No.2","SUR/TLA","TLALPAN","PARQUEÿ DELÿ PEDREGAL","AV.ÿ INSURGENTESÿ SURÿ ESQ.ÿ ANILLOÿ PERIFERICO",175,480417,2133998,"Dot",-99.1863979210518,19.2996849743033
"438","iii_1_2_pozos_sacmex.438","MULTIPOINT ((479804 2133599))","Unknown Point Feature",498,"173","VILLAÿ OLIMPICAÿ No.3","SUR/TLA","TLALPAN","VILLAÿ OLIMPICA","CAMINOÿ SANTAÿ TERESAÿ Yÿ AV.ÿ ZACATEPETL",183,479804,2133599,"Dot",-99.1922284369652,19.2960730248793
"439","iii_1_2_pozos_sacmex.439","MULTIPOINT ((482110 2134242))","Unknown Point Feature",501,"PS?17","ZAPATAÿ No.17","SUR/COY","TLALPAN","PEDREGALÿ DELÿ SUR","ANILLOÿ PERIFERICOÿ SURÿ ENTREÿ CALLEÿ PIERREÿ",0,482110,2134242,"Dot",-99.1702856850461,19.3019058279834
"440","iii_1_2_pozos_sacmex.440","MULTIPOINT ((487897 2146870))","Unknown Point Feature",502,"2","ABRILÿ 24","ORIENTE","V.ÿ CARRANZA","24 DEÿ ABRIL","CUCURPEÿ CASIÿ ESQ.ÿ L.ÿ BOTURINI",150,487897,2146870,"Dot",-99.1152824880669,19.4160721022155
"441","iii_1_2_pozos_sacmex.441","MULTIPOINT ((488422 2146501))","Unknown Point Feature",503,"27","BALBUENAÿ No.1","ORIENTE","V.ÿ CARRANZA","JARDINÿ BALBUENA","RETORNOÿ 16ÿ DEÿ FRANCISCOÿ DELÿ PASOÿ Yÿ TRONC",220,488422,2146501,"Dot",-99.1102795601375,19.4127404575613
"442","iii_1_2_pozos_sacmex.442","MULTIPOINT ((488334 2146071))","Unknown Point Feature",504,"190","CIUDADÿ DEPORTIVAÿ No.1","ORIENTE","V.ÿ CARRANZA","JARDINÿ BALBUENA","AV.ÿ MORELOSÿ (EJE3)ÿ ESQ.ÿ AGUSTINÿ LARA",208,488334,2146071,"Dot",-99.1111151124636,19.4088539232387
"443","iii_1_2_pozos_sacmex.443","MULTIPOINT ((487171 2150990))","Unknown Point Feature",505,"201","COBREÿ Yÿ CANANEA","CENTRO","V.ÿ CARRANZA","NICOLASÿ BRAVO","CANANEAÿ ENTREÿÿ COBREÿ Yÿ ALUMINIO",0,487171,2150990,"Dot",-99.1222255663534,19.4533009982534
"444","iii_1_2_pozos_sacmex.444","MULTIPOINT ((487430 2146840))","Unknown Point Feature",506,"51","FRACCIONAMIENTOÿ DELÿ PARQUE","ORIENTE","V.ÿ CARRANZA","AERONAUTICAÿ MILITAR","LIC.ÿ LAZAROÿ PAVIAÿ FRENTEÿ ALÿ HOSPITALÿÿ GEN",195,487430,2146840,"Dot",-99.1197305119979,19.4157981072027
"445","iii_1_2_pozos_sacmex.445","MULTIPOINT ((498015 2128117))","Unknown Point Feature",507,"206","CERRILLOSÿ No.1","SUR/M.ALT","XOCHIMILCO","LOSÿ CERRILLOS","LOSÿ CERRITOSÿ ESQ.ÿ GRAL.ÿ ENRIQUEZÿ GUZMAN",254,498015,2128117,"Dot",-99.0188878779746,19.2466300935432
"446","iii_1_2_pozos_sacmex.446","MULTIPOINT ((498307 2127932))","Unknown Point Feature",508,"207","CERRILLOSÿ No.2","SUR/M.ALT","XOCHIMILCO","LOSÿ CERRILLOS","CAMINOÿ ANCHOÿ S/Nÿ ENTREÿ MARTIRESÿ DEÿ RIOÿ B",206,498307,2127932,"Dot",-99.0161092462229,19.2449584320107
"447","iii_1_2_pozos_sacmex.447","MULTIPOINT ((498628 2127871))","Unknown Point Feature",509,"276","CERRILLOSÿ No.3","SUR/M.ALT","XOCHIMILCO","LASÿ MESITAS","CAMINOÿ REALÿ Aÿ MILPAÿ ALTAÿ ESQ.ÿ PIRULES",250,498628,2127871,"Dot",-99.0130548211053,19.2444073911886
"448","iii_1_2_pozos_sacmex.448","MULTIPOINT ((499095 2128147))","Unknown Point Feature",510,"208","ESCUDOÿ NACIONALÿ No.1","SUR/M.ALT","XOCHIMILCO","BARRIOÿ SANTAÿ MARIAÿ DEÿ LOS","ESCUDOÿ NACIONALÿ ENTREÿ AGUSTINÿ DEÿ ITURBIDEÿ",204,499095,2128147,"Dot",-99.008611364188,19.2469019889473
"449","iii_1_2_pozos_sacmex.449","MULTIPOINT ((499183 2127102))","Unknown Point Feature",511,"252","ESCUDOÿ NACIONALÿ No.2","SUR/M.ALT","XOCHIMILCO","BARRIOÿ SANTAÿ MARIAÿ DEÿ LOS","BUENAÿ VISTAÿ ENTREÿ PABELLONÿ TRICOLORÿ Yÿ CAM",181,499183,2127102,"Dot",-99.007773571469,19.2374578930829
"450","iii_1_2_pozos_sacmex.450","MULTIPOINT ((494044 2127657))","Unknown Point Feature",512,"273","MIRADORÿ No.1","SUR/XOC","XOCHIMILCO","CHALMITAÿ (PBLO.ÿ SANÿ GREGOR","CAMINOÿ VIEJOÿ Aÿ SANÿ PEDROÿ ACTOPAN",0,494044,2127657,"Dot",-99.0566717131144,19.2424650699291
"451","iii_1_2_pozos_sacmex.451","MULTIPOINT ((494220 2127841))","Unknown Point Feature",513,"274","MIRADORÿ No.2","SUR/XOC","XOCHIMILCO","CHALMITAÿ (PBLO.SANÿ GREGORIO","CARRETERAÿ Aÿ XOCHIMILCOÿ ?ÿ OAXTEPEC",0,494220,2127841,"Dot",-99.0549976165455,19.2441284702721
"452","iii_1_2_pozos_sacmex.452","MULTIPOINT ((494190 2127349))","Unknown Point Feature",514,"275","MIRADORÿ No.3","SUR/XOC","XOCHIMILCO","CHALMITAÿ (PBLO.SANÿ GREGORIO","CARRETERAÿ Aÿ XOCHIMILCO?OAXTEPECÿ PARAJEÿ ELÿ",0,494190,2127349,"Dot",-99.0552815826323,19.2396819616737
"453","iii_1_2_pozos_sacmex.453","MULTIPOINT ((487678 2125508))","Unknown Point Feature",515,"303","MONTEÿ SURÿ No.1","SUR/XOC","XOCHIMILCO","SANÿ JUANÿ DEÿ LOSÿ LAGOS","CARRETERAÿ XOCHIMILCOÿ ?ÿ SANÿ PABLO",0,487678,2125508,"Dot",-99.117230750507,19.2230148376414
"454","iii_1_2_pozos_sacmex.454","MULTIPOINT ((487707 2125078))","Unknown Point Feature",516,"304","MONTEÿ SURÿ No.2","SUR/XOC","XOCHIMILCO","SANÿ JUANÿ DEÿ LOSÿ LAGOS","CARRETERAÿ XOCHIMILCOÿ ?ÿ SANÿ PABLO",0,487707,2125078,"Dot",-99.1169520976056,19.2191289104264
"455","iii_1_2_pozos_sacmex.455","MULTIPOINT ((490015 2127505))","Unknown Point Feature",517,"227","NATIVITASÿ No.1","SUR/XOC","XOCHIMILCO","PBLOÿ SANÿ LORENZOÿ ATEMOAYA","CAMINOÿ VIEJOÿ Aÿ SANÿ LORENZOÿ S/Nÿ ENTREÿ HER",200,490015,2127505,"Dot",-99.0950070789231,19.2410754956122
"456","iii_1_2_pozos_sacmex.456","MULTIPOINT ((493840 2126427))","Unknown Point Feature",518,"278","NATIVITASÿ No.2","SUR/XOC","XOCHIMILCO","JOYAÿÿ DEÿ VARGAS","CALLEÿ ESMERALDAÿ S/N",0,493840,2126427,"Dot",-99.0586088407648,19.231348396736
"457","iii_1_2_pozos_sacmex.457","MULTIPOINT ((490540 2126736))","Unknown Point Feature",519,"279","NATIVITASÿ No.3","SUR/XOC","XOCHIMILCO","JOYAÿÿ DEÿ VARGAS","4TAÿ PRIV.ÿ DEÿ DIAMANTE",0,490540,2126736,"Dot",-99.0900079316365,19.2341282275794
"458","iii_1_2_pozos_sacmex.458","MULTIPOINT ((486572 2130058))","Unknown Point Feature",520,"N?1","NORIAÿ No.1","SUR/XOC","XOCHIMILCO","LAÿ NORIA","PROLONG.ÿ ACUEDUCTOÿ ESQ.ÿ AV.ÿ DEÿ LASÿ ARBOLE",150,486572,2130058,"Dot",-99.1277849675675,19.2641280825267
"459","iii_1_2_pozos_sacmex.459","MULTIPOINT ((486922 2129566))","Unknown Point Feature",521,"N?2","NORIAÿ No.2","SUR/XOC","XOCHIMILCO","LAÿ NORIA","ANTIGUOÿ CAMINOÿ Aÿ XOCHIMILCOÿ ENTREÿ PROLONG.",195,486922,2129566,"Dot",-99.1244509112495,19.2596839752333
"460","iii_1_2_pozos_sacmex.460","MULTIPOINT ((487564 2128951))","Unknown Point Feature",522,"N?3","NORIAÿ No.3","SUR/XOC","XOCHIMILCO","VILLAÿ SANTIAGO","PROLONG.ÿ ACUEDUCTOÿ S/Nÿ ENTREÿ MERTIRESÿ DEÿ",51,487564,2128951,"Dot",-99.1183376301485,19.2541300202972
"461","iii_1_2_pozos_sacmex.461","MULTIPOINT ((488002 2128920))","Unknown Point Feature",523,"N?4","NORIAÿ No.4","SUR/XOC","XOCHIMILCO","RESIDENCIALÿ XOCHIMILCO","PLAZAÿ DEÿ LASÿ FUENTES",35,488002,2128920,"Dot",-99.1141695524167,19.2538525088183
"462","iii_1_2_pozos_sacmex.462","MULTIPOINT ((488002 2128520))","Unknown Point Feature",524,"N?5","NORIAÿ No.5","SUR/XOC","XOCHIMILCO","SANTIAGOÿ TEPALCATLALPAN","EMILIANOÿ ZAPATAÿ S/Nÿ ESQ.ÿ CARRET.ÿ XOCHIMILC",52,488002,2128520,"Dot",-99.1141670516652,19.25023754062
"463","iii_1_2_pozos_sacmex.463","MULTIPOINT ((488060 2128028))","Unknown Point Feature",525,"N?6","NORIAÿ No.6","SUR/XOC","XOCHIMILCO","PUEBLOÿ SANÿ LUCASÿ XOCHIMANC","AV.ÿ LAÿ BOMBAÿ ENTREÿ AV.ÿ ACUEDUCTOÿ Yÿ CAMIN",175,488060,2128028,"Dot",-99.1136120927845,19.2457914712135
"464","iii_1_2_pozos_sacmex.464","MULTIPOINT ((489256 2127905))","Unknown Point Feature",526,"N?7","NORIAÿ No.7","SUR/XOC","XOCHIMILCO","TABLASÿ DEÿ SANÿ LORENZO","NVA.ÿ CARRETERAÿ XOCHIMILCOÿ FRENTEÿ ALÿ BOSQUE",66,489256,2127905,"Dot",-99.1022311788888,19.244686578103
"465","iii_1_2_pozos_sacmex.465","MULTIPOINT ((488380 2126983))","Unknown Point Feature",527,"277","PANTEONÿ SN.ÿ LUCASÿ XOCHIMANCA","SUR/XOC","XOCHIMILCO","PUEBLOÿ DEÿ SANÿ LUCASÿ XOCHI","CAMINOÿ ALÿ PANTEONÿ SANÿ LUCASÿ XOCHIMANCA",250,488380,2126983,"Dot",-99.1105608937718,19.2363492192022
"466","iii_1_2_pozos_sacmex.466","MULTIPOINT ((485406 2132057))","Unknown Point Feature",528,"PER?8","PERIFERICOÿ No.8","SUR/COY","XOCHIMILCO","PUEBLOÿ DEÿ TEPEPAN","AV.ÿ GUADALUPEÿ Yÿ CALLEÿ ACUEDUCTO",200,485406,2132057,"Dot",-99.1388961795426,19.2821857367179
"467","iii_1_2_pozos_sacmex.467","MULTIPOINT ((486048 2131472))","Unknown Point Feature",529,"PER?9","PERIFERICOÿ No.9","SUR/XOC","XOCHIMILCO","PUEBLOÿ DEÿ TEPEPAN","AV.ÿ 16ÿ DEÿ SEPTIEMBREÿ Yÿ AV.ÿ ACUEDUCTOÿ ENT",170,486048,2131472,"Dot",-99.132781794223,19.2769034078025
"468","iii_1_2_pozos_sacmex.468","MULTIPOINT ((488938 2132976))","Unknown Point Feature",530,"117","PISTAÿ OLIMPICAÿ No.1","SUR/XOC","XOCHIMILCO","VILLAÿ CUEMANCO","ANILLOÿ PERIFERICOÿ SURÿ Yÿ CANALÿ NACIONALÿ BA",NA,488938,2132976,"Dot",-99.1052862631612,19.2905135580979
"469","iii_1_2_pozos_sacmex.469","MULTIPOINT ((488909 2132608))","Unknown Point Feature",531,"118","PISTAÿ OLIMPICAÿ No.2","SUR/COY","XOCHIMILCO","LAÿ CEBADA","CAMINOÿ DEÿ LASÿ CIENEGASÿ Yÿ CANALÿ CUEMANCO",350,488909,2132608,"Dot",-99.1055601483245,19.2871876404583
"470","iii_1_2_pozos_sacmex.470","MULTIPOINT ((499153 2127410))","Unknown Point Feature",532,"R?11","R?11","SUR/M.ALT","XOCHIMILCO","OLIVARÿ SANTAÿ MARIA","ALTAVISTAÿ ENTREÿ GRAL.ÿ ANGELÿ PANDALÿ Yÿ TEPO",200,499153,2127410,"Dot",-99.008059150553,19.2402414157905
"471","iii_1_2_pozos_sacmex.471","MULTIPOINT ((486803 2126277))","Unknown Point Feature",533,"209","RECLUSORIOÿ SURÿ No.1","SUR/XOC","XOCHIMILCO","SANÿ MATEOÿ XALPA","MARTIRESÿ DEÿ CASTROÿ S/Nÿ ESPALDASÿ RECLUSORIO",210,486803,2126277,"Dot",-99.12556071212,19.2299591142041
"472","iii_1_2_pozos_sacmex.472","MULTIPOINT ((486511 2126677))","Unknown Point Feature",534,"210","RECLUSORIOÿ SURÿ No.2","SUR/XOC","XOCHIMILCO","PUEBLOÿ SANÿ MATEOÿ XALPA","MARTIRESÿ DEÿ CASTROÿ S/Nÿ FRENTEÿ RECLUSORIOÿ",210,486511,2126677,"Dot",-99.1283417015351,19.2335721627081
"473","iii_1_2_pozos_sacmex.473","MULTIPOINT ((486019 2131841))","Unknown Point Feature",535,"271","RESIDENCIALÿ DELÿ SUR","SUR/XOC","XOCHIMILCO","BOSQUEÿ RESIDENCIALÿ DELÿ SUR","AV.ÿ GUADALUPEÿ ENTREÿ HERMENEGILDOÿ GALEANAÿ Y",200,486019,2131841,"Dot",-99.1330604805963,19.2802380031925
"474","iii_1_2_pozos_sacmex.474","MULTIPOINT ((488906 2127382))","Unknown Point Feature",536,"S?1","S?1","SUR/XOC","XOCHIMILCO","TESMIC","AV.ÿ GPE.ÿ Iÿ RAMIREZÿ ENTREÿ DCA.ÿ FCO.ÿ CELAD",201,488906,2127382,"Dot",-99.1055584689782,19.2399581102727
"475","iii_1_2_pozos_sacmex.475","MULTIPOINT ((485171 2130489))","Unknown Point Feature",537,"S?10","S?10","SUR/XOC","XOCHIMILCO","PUEBLOÿ TEPEPAN","CAMINOÿ REALÿ ALÿ AJUSCOÿ ESQ.ÿ CAMINOÿ Aÿ LAÿ",201,485171,2130489,"Dot",-99.1411206180159,19.2680133981796
"476","iii_1_2_pozos_sacmex.476","MULTIPOINT ((496497 2128086))","Unknown Point Feature",538,"S?11","S?11","SUR/XOC","XOCHIMILCO","BARRIOÿ GUADALUPANA","MEXTITLAÿ ENTREÿ XOCHITEPECÿ AV.ÿ LASÿ TORRES",202,496497,2128086,"Dot",-99.0333320511028,19.2463478720306
"477","iii_1_2_pozos_sacmex.477","MULTIPOINT ((497723 2128516))","Unknown Point Feature",539,"S?12","S?12","SUR/M.ALT","XOCHIMILCO","ELÿ MIRADOR","CASAHUATESÿ Yÿ LAZAROÿ CARDENAZ",200,497723,2128516,"Dot",-99.0216668198406,19.2502357248266
"478","iii_1_2_pozos_sacmex.478","MULTIPOINT ((498307 2128270))","Unknown Point Feature",540,"S?13","S?13","SUR/M.ALT","XOCHIMILCO","LOSÿ CERRILLOSÿ 2da.ÿ SECCION","LOSÿ ANGELESÿ ENTREÿ 2DAÿ CDA.ÿ Yÿ MELCHORÿ OCA",200,498307,2128270,"Dot",-99.0161095442982,19.2480130879676
"479","iii_1_2_pozos_sacmex.479","MULTIPOINT ((486862 2126615))","Unknown Point Feature",541,"S?2","S?2","SUR/XOC","XOCHIMILCO","PUEBLOÿ DEÿ SANÿ MATEOÿ XALPA","MARTINEZÿ DEÿ CASTROÿ S/N,ÿ FRENTEÿ ALÿ RECLUSO",200,486862,2126615,"Dot",-99.125001678164,19.2330141519715
"480","iii_1_2_pozos_sacmex.480","MULTIPOINT ((489402 2126921))","Unknown Point Feature",542,"S?3","S?3","SUR/XOC","XOCHIMILCO","ELÿ MIRADOR","CJON.ÿ TLAHUILTEPECÿ S/Nÿ ENTREÿ CJONÿ XOCHITLÿ",196,489402,2126921,"Dot",-99.1008365330305,19.2357945116812
"481","iii_1_2_pozos_sacmex.481","MULTIPOINT ((486336 2126339))","Unknown Point Feature",543,"S?4","S?4","SUR/XOC","XOCHIMILCO","PUEBLOÿ DEÿ SANÿ MATEOÿ XALPA","MARTINEZÿ DELÿ CASTROÿ S/N",201,486336,2126339,"Dot",-99.1300043402311,19.2305163351291
"482","iii_1_2_pozos_sacmex.482","MULTIPOINT ((493314 2126520))","Unknown Point Feature",544,"S?5","S?5","SUR/XOC","XOCHIMILCO","SANÿ LORENZOÿ ATEMOAYA","CARRETERAÿ NUEVAÿÿ Aÿ SANTAÿ CECILIAÿ S/N",200,493314,2126520,"Dot",-99.0636137482396,19.2321872098021
"483","iii_1_2_pozos_sacmex.483","MULTIPOINT ((494453 2126150))","Unknown Point Feature",545,"S?6","S?6","SUR/XOC","XOCHIMILCO","PUEBLOÿ DEÿ SANÿ LORENZOÿ ATE","CARRETERAÿ NUEVAÿÿ Aÿ SANTAÿ CECILIAÿ S/N",200,494453,2126150,"Dot",-99.0527757023394,19.2288467950486
"484","iii_1_2_pozos_sacmex.484","MULTIPOINT ((492935 2127073))","Unknown Point Feature",546,"S?7","S?7","SUR/XOC","XOCHIMILCO","RINCONADAÿ SANTAÿ CRUZ","PROL.ÿ 2ÿ DEÿ ABRILÿ Yÿ 2ÿ DEÿ ABRIL",201,492935,2127073,"Dot",-99.0672217643052,19.2371836311581
"485","iii_1_2_pozos_sacmex.485","MULTIPOINT ((488293 2127506))","Unknown Point Feature",547,"S?8","S?8","SUR/XOC","XOCHIMILCO","PUEBLOÿ SANÿ LUCASÿ XOCHIMANC","MONTEÿ BELLOÿ Yÿ MONTEÿ CARMELO",200,488293,2127506,"Dot",-99.1113918598995,19.2410752957161
"486","iii_1_2_pozos_sacmex.486","MULTIPOINT ((486018 2130243))","Unknown Point Feature",548,"S?9","S?9","SUR/XOC","XOCHIMILCO","AMPL.ÿ TEPEPAN","LASÿ TORRESÿÿ ESQ.ÿ 5ÿ DEÿ MAYO",200,486018,2130243,"Dot",-99.1330583401124,19.2657962417274
"487","iii_1_2_pozos_sacmex.487","MULTIPOINT ((492994 2128333))","Unknown Point Feature",549,"211","SANÿ GREGORIOÿ ATLAPULCOÿ No.1","SUR/XOC","XOCHIMILCO","SANÿ GREGORIOÿ ATLAPULCO","CALLEÿ SANÿ JUANÿ MINAÿ S/Nÿ ESQ.ÿ LAÿ LOMA",203,492994,2128333,"Dot",-99.0666649910964,19.248571012614
"488","iii_1_2_pozos_sacmex.488","MULTIPOINT ((492993 2128026))","Unknown Point Feature",550,"212","SANÿ GREGORIOÿ ATLAPULCOÿ No.2","SUR/XOC","XOCHIMILCO","PBLO.ÿ SANÿ GREGORIOÿ ATLAPUL","JACARANDASÿ S/Nÿ ENTREÿ 1RAÿ Yÿ 2DAÿ CDA.ÿ JACA",200,492993,2128026,"Dot",-99.0666733859294,19.2457965159335
"489","iii_1_2_pozos_sacmex.489","MULTIPOINT ((489256 2127321))","Unknown Point Feature",551,"213","SANÿ LORENZOÿ ATEMOAYAÿ No.1","SUR/XOC","XOCHIMILCO","PUEBLOÿ SANÿ LORENZOÿ ATEMOAY","CAMINOÿ Aÿ SANTAÿ CECILIAÿ ETREÿ CHABACANOÿ Yÿ",201,489256,2127321,"Dot",-99.1022279114234,19.2394087166854
"490","iii_1_2_pozos_sacmex.490","MULTIPOINT ((489578 2128120))","Unknown Point Feature",552,"214","SANÿ LORENZOÿ ATEMOAYAÿ No.2","SUR/XOC","XOCHIMILCO","PUEBLOÿ DEÿ SN.ÿ LORENZOÿ ATE","IGNACIOÿ CHAVEZÿ S/Nÿ CASIÿ ESQ.ÿ MICAELAÿ ORDO",200,489578,2128120,"Dot",-99.0991684589729,19.2466313115779
"491","iii_1_2_pozos_sacmex.491","MULTIPOINT ((487971 2127137))","Unknown Point Feature",553,"216","SANÿ LUCASÿ XOCHIMANCA","SUR/XOC","XOCHIMILCO","SANÿ LUCAS","PROLG.ÿ GPE.ÿ IGNACIONÿ RAMIREZÿ ENTREÿ CHABACA",NA,487971,2127137,"Dot",-99.1144533675899,19.2377385929193
"492","iii_1_2_pozos_sacmex.492","MULTIPOINT ((497489 2129162))","Unknown Point Feature",554,"SL?1","SANÿ LUISÿ No.1","SUR/XOC","XOCHIMILCO","SANTIAGUITO","AV.ÿ 5ÿ DEÿ MAYOÿ ENTREÿ ANGELÿ PANDALÿ DEÿ LAÿ",60,497489,2129162,"Dot",-99.0238942947113,19.2560736316929
"493","iii_1_2_pozos_sacmex.493","MULTIPOINT ((495884 2129070))","Unknown Point Feature",555,"SL?10","SANÿ LUISÿ No.10","SUR/XOC","XOCHIMILCO","PBLO.ÿ SANÿ LUISÿ TLAXIALTEMA","AV.ÿ ACUEDUCTOÿ ESQ.ÿ FLORICULTOR",66,495884,2129070,"Dot",-99.039167031501,19.2552395553585
"494","iii_1_2_pozos_sacmex.494","MULTIPOINT ((495271 2128763))","Unknown Point Feature",556,"SL?11","SANÿ LUISÿ No.11","SUR/XOC","XOCHIMILCO","PBLO.ÿ SANÿ LUISÿ TLAXIALTEMA","ACUEDUCTOÿ ESQ.ÿ CDAÿ CDA.ÿ TEMACOALCO",86,495271,2128763,"Dot",-99.0449994588715,19.2524637212476
"495","iii_1_2_pozos_sacmex.495","MULTIPOINT ((495008 2128886))","Unknown Point Feature",557,"SL?12","SANÿ LUISÿ No.12","SUR/XOC","XOCHIMILCO","SANÿ GREGORIOÿ ATLAPULCO","CUACONTLEÿ ESQ.ÿ ACUEDUCTO",63,495008,2128886,"Dot",-99.0475023913891,19.2535746930438
"496","iii_1_2_pozos_sacmex.496","MULTIPOINT ((497022 2129469))","Unknown Point Feature",558,"SL?13","SANÿ LUISÿ No.13","SUR/XOC","XOCHIMILCO","SANÿ GREGORIOÿ ATLAPULCO","ACUEDUCTOÿ ENTREÿ SANÿ ANDRESÿ Yÿ SANÿ MIGUEL",36,497022,2129469,"Dot",-99.0283386719796,19.2588474889037
"497","iii_1_2_pozos_sacmex.497","MULTIPOINT ((493694 2128855))","Unknown Point Feature",559,"SL?14","SANÿ LUISÿ No.14","SUR/XOC","XOCHIMILCO","SANÿ GREGORIOÿ ATLAPULCO","24 DEÿ JUNIOÿ ESQ.ÿ SANÿ GREGORIOÿ ATLAPULCO",36,493694,2128855,"Dot",-99.0600059192265,19.253290858854
"498","iii_1_2_pozos_sacmex.498","MULTIPOINT ((493286 2128917))","Unknown Point Feature",560,"SL?15","SANÿ LUISÿ No.15","SUR/XOC","XOCHIMILCO","SANÿ GREGORIOÿ ATLAPULCO","CHAPULTEPECÿ ENTREÿ SANÿ JUANÿ MINASÿ Yÿ CUAHUT",67,493286,2128917,"Dot",-99.0638885345188,19.2538498650352
"499","iii_1_2_pozos_sacmex.499","MULTIPOINT ((492380 2128026))","Unknown Point Feature",561,"SL?16","SANÿ LUISÿ No.16","SUR/XOC","XOCHIMILCO","SANÿ GREGORIOÿ ATLAPULCO","CARRETERAÿ Aÿ OAXTEPECÿ ENTREÿ CIRCUITOÿ PANAME",64,492380,2128026,"Dot",-99.0725062334031,19.2457942980211
"500","iii_1_2_pozos_sacmex.500","MULTIPOINT ((492731 2128548))","Unknown Point Feature",562,"SL?17","SANÿ LUISÿ No.17","SUR/XOC","XOCHIMILCO","SANÿ GRAGORIOÿ ATLALPULCO","AV.ÿ MEXICOÿ ENTREÿ OJOÿ DEÿ AGUAÿ Yÿ OTICA",129,492731,2128548,"Dot",-99.0691683579025,19.2505131321941
"501","iii_1_2_pozos_sacmex.501","MULTIPOINT ((492585 2128180))","Unknown Point Feature",563,"SL?18","SANÿ LUISÿ No.18","SUR/XOC","XOCHIMILCO","SANÿ GRAGORIOÿ ATLALPULCO","AV.ÿ MEXICOÿ ENTREÿ OJOÿ DEÿ AGUAÿ Yÿ OTICA",63,492585,2128180,"Dot",-99.0705562023205,19.2471868257436
"502","iii_1_2_pozos_sacmex.502","MULTIPOINT ((491826 2127903))","Unknown Point Feature",564,"SL?19","SANÿ LUISÿ No.19","SUR/XOC","XOCHIMILCO","BARRIOÿ LAÿ PLANTA","AV.ÿ MEXICOÿ ENTREÿ OJOÿ DEÿ AGUAÿ ENTREÿ HUACA",101,491826,2127903,"Dot",-99.0777771568127,19.24468052892
"503","iii_1_2_pozos_sacmex.503","MULTIPOINT ((497519 2129131))","Unknown Point Feature",565,"SL?2","SANÿ LUISÿ No.2","SUR/XOC","XOCHIMILCO","SANÿ LUISÿ TLAXIALTEMALCO","LASÿ TORRESÿ Yÿ LIC.ÿ ANTONIOÿ LANZÿ GALERA",31,497519,2129131,"Dot",-99.0236087791986,19.2557935083071
"504","iii_1_2_pozos_sacmex.504","MULTIPOINT ((489986 2128027))","Unknown Point Feature",566,"SL?20","SANÿ LUISÿ No.20","SUR/XOC","XOCHIMILCO","RANCHOÿ TEJOMULCO","AV.ÿ TENOCHTITLANÿ Yÿ AV.ÿ MEXICOÿ ENTREÿ CISNE",165,489986,2128027,"Dot",-99.0952857354442,19.2457928929795
"505","iii_1_2_pozos_sacmex.505","MULTIPOINT ((494891 2128578))","Unknown Point Feature",567,"SL?3","SANÿ LUISÿ No.3","SUR/XOC","XOCHIMILCO","PBLO.ÿ SANÿ LUISÿ TLAXIALTEMA","CARRETERAÿ XOCHIMILCO?ÿ TULYEHUALCOÿ INT.ÿ DELÿ",40,494891,2128578,"Dot",-99.0486149084334,19.2507908705637
"506","iii_1_2_pozos_sacmex.506","MULTIPOINT ((497139 2129469))","Unknown Point Feature",568,"SL?4","SANÿ LUISÿ No.4","SUR/XOC","XOCHIMILCO","PBLO.ÿ SANÿ LUISÿ TLAXIALTEMA","CARRETERAÿ XOCHIMILCO?ÿ TULYEHUALCOÿ INT.ÿ DELÿ",37,497139,2129469,"Dot",-99.0272252991328,19.258847658014
"507","iii_1_2_pozos_sacmex.507","MULTIPOINT ((497198 2129439))","Unknown Point Feature",569,"SL?5","SANÿ LUISÿ No.5","SUR/XOC","XOCHIMILCO","PBLO.ÿ SANÿ LUISÿ TLAXIALTEMA","CARRETERAÿ XOCHIMILCO?ÿ TULYEHUALCOÿ INT.ÿ DELÿ",51,497198,2129439,"Dot",-99.0266638108814,19.2585766177923
"508","iii_1_2_pozos_sacmex.508","MULTIPOINT ((497431 2129408))","Unknown Point Feature",570,"SL?6","SANÿ LUISÿ No.6","SUR/XOC","XOCHIMILCO","PBLO.ÿ SANÿ LUISÿ TLAXIALTEMA","CARRETERAÿ XOCHIMILCOÿ TULYEHUALCOÿ INT.ÿ VIVER",72,497431,2129408,"Dot",-99.0244465432797,19.2582967671968
"509","iii_1_2_pozos_sacmex.509","MULTIPOINT ((496526 2129193))","Unknown Point Feature",571,"SL?7","SANÿ LUISÿ No.7","SUR/XOC","XOCHIMILCO","PBLO.ÿ SANÿ LUISÿ TLAXIALTEMA","AV.ÿ ACUEDUCTOÿ S/Nÿ CASIÿ ESQ.ÿ AV.ÿ 5ÿ DEÿ MA",111,496526,2129193,"Dot",-99.0330581116379,19.2563523656226
"510","iii_1_2_pozos_sacmex.510","MULTIPOINT ((497168 2128947))","Unknown Point Feature",572,"SL?8","SANÿ LUISÿ No.8","SUR/XOC","XOCHIMILCO","PBLO.ÿ SANÿ LUISÿ TLAXIALTEMA","ACUEDUCTOÿ Yÿ CALVARIO",55,497168,2128947,"Dot",-99.0269485643978,19.2541301587816
"511","iii_1_2_pozos_sacmex.511","MULTIPOINT ((496263 2129070))","Unknown Point Feature",573,"SL?9","SANÿ LUISÿ No.9","SUR/XOC","XOCHIMILCO","PBLO.ÿ SANÿ LUISÿ TLAXIALTEMA","VICTORÿ SUAREZÿ ENTREÿ 2DAÿ Yÿ 3RAÿ CDA.ÿ VICTO",60,496263,2129070,"Dot",-99.0355605439627,19.2552402919607
"512","iii_1_2_pozos_sacmex.512","MULTIPOINT ((496147 2128793))","Unknown Point Feature",574,"215","SANÿ LUISÿ TLAXIALTEMALCO","SUR/XOC","XOCHIMILCO","LAÿ GUADALUPANA","FLORICULTORÿ S/Nÿ CASIÿ ESQ.ÿ LAÿ AMISTAD",253,496147,2128793,"Dot",-99.0366638203745,19.2527367046331
"513","iii_1_2_pozos_sacmex.513","MULTIPOINT ((492643 2127503))","Unknown Point Feature",575,"228","SANTAÿ CRUZÿ ACALPIXCAÿ No.1","SUR/XOC","XOCHIMILCO","SANTAÿ CRUZÿ ACALPIXCA","CALLEÿ 2ÿ DEÿ ABRILÿ S/N",204,492643,2127503,"Dot",-99.0700017192027,19.2410686911075
"514","iii_1_2_pozos_sacmex.514","MULTIPOINT ((492731 2127657))","Unknown Point Feature",576,"249","SANTAÿ CRUZÿ ACALPIXCAÿ No.2","SUR/XOC","XOCHIMILCO","LAÿ TABLA","CALLEÿ AHUALAPAÿ S/Nÿ INT.ÿ DELÿ DEPVO.ÿ STA.ÿ",200,492731,2127657,"Dot",-99.0691649842178,19.2424607754734
"515","iii_1_2_pozos_sacmex.515","MULTIPOINT ((486746 2128644))","Unknown Point Feature",577,"224","SANTAÿ CRUZÿ XOCHITEPEC","SUR/XOC","XOCHIMILCO","PUEBLOÿ DEÿ SANTAÿ CRUZÿ XOCH","AV.ÿ DELÿ COMERCIOÿ Yÿ AV.ÿ ARBOLEDAS",200,486746,2128644,"Dot",-99.1261193641544,19.2513503330996
"516","iii_1_2_pozos_sacmex.516","MULTIPOINT ((487125 2127629))","Unknown Point Feature",578,"222","SANTIAGOÿ TEPALCATLALPAN","SUR/XOC","XOCHIMILCO","SANTIAGOÿ TEPALCATLALPAN","ROVIROSAÿ ESQ.ÿ CJONÿ TRIUNFO",253,487125,2127629,"Dot",-99.1225061620926,19.2421797991165
"517","iii_1_2_pozos_sacmex.517","MULTIPOINT ((485406 2131288))","Unknown Point Feature",579,"219","TEPEPANÿ No.1","SUR/XOC","XOCHIMILCO","PUEBLOÿ DEÿ TEPEPAN","CERRADAÿ DELÿ PANTEONÿ S/N",205,485406,2131288,"Dot",-99.1388903219269,19.2752359872622
"518","iii_1_2_pozos_sacmex.518","MULTIPOINT ((484850 2130582))","Unknown Point Feature",580,"220","TEPEPANÿ No.2ÿ (ELÿ MIRADOR)","SUR/XOC","XOCHIMILCO","PUEBLOÿ DEÿ TEPEPAN","CUAUHTEMOC.ÿ ESQ.ÿ IGNACIONÿ ALDAMA",201,484850,2130582,"Dot",-99.1441761518396,19.2688514924235
"519","iii_1_2_pozos_sacmex.519","MULTIPOINT ((485581 2131473))","Unknown Point Feature",581,"221","TEPEPANÿ No.3","SUR/XOC","XOCHIMILCO","ELÿ MIRADOR","PRIV.ÿ SANÿ DIEGOÿ ESQUINAÿ BELLAVISTA",205,485581,2131473,"Dot",-99.1372262518568,19.2769091621606
"520","iii_1_2_pozos_sacmex.520","MULTIPOINT ((486392 2123573))","Unknown Point Feature",582,"225","TOPILEJO","SUR/TLA","XOCHIMILCO","PEDREGALÿ DEÿ TOPILEJO","CALLEÿ 16ÿ DEÿ SEPTIEMBREÿ S/Nÿ ESQ.ÿ LASÿ BOMB",0,486392,2123573,"Dot",-99.1294519648079,19.2055191289481
"521","iii_1_2_pozos_sacmex.521","MULTIPOINT ((497986 2129193))","Unknown Point Feature",583,"TUL?10","TULYEHUALCOÿ No.10","SUR/XOC","XOCHIMILCO","BARRIOÿ LAÿ GUADALUPITA","FRANCISCOÿ I.ÿ MADEROÿ Yÿ ALLENDE",42,497986,2129193,"Dot",-99.0191649509416,19.2563543487572
"522","iii_1_2_pozos_sacmex.522","MULTIPOINT ((499066 2128424))","Unknown Point Feature",584,"TUL?6","TULYEHUALCOÿ No.6","ORIENTE","XOCHIMILCO","BARRIOÿ CALYEQUITA","FRANCISCOÿ Iÿ MADEROÿ Yÿ MELCHORÿ OCAMPO",161,499066,2128424,"Dot",-99.0088874432319,19.2494053472616
"523","iii_1_2_pozos_sacmex.523","MULTIPOINT ((498628 2128455))","Unknown Point Feature",585,"TUL?7","TULYEHUALCOÿ No.7","ORIENTE","XOCHIMILCO","NATIVITAS","IGNACIOÿ ZARAGOZAÿ ESQ.ÿ FRANCISCOÿ MORA",60,498628,2128455,"Dot",-99.0130552384879,19.2496852580347
"524","iii_1_2_pozos_sacmex.524","MULTIPOINT ((498540 2128793))","Unknown Point Feature",586,"TUL?8","TULYEHUALCOÿ No.8","SUR/M.ALT","XOCHIMILCO","SANÿ FELIPEÿ DEÿ JESUS","M.ÿ OCAMPOÿ ESQ.ÿ LOSÿ ANGELES",146,498540,2128793,"Dot",-99.0138928578335,19.252739850787
"525","iii_1_2_pozos_sacmex.525","MULTIPOINT ((492906 2128333))","Unknown Point Feature",587,"TUL?9","TULYEHUALCOÿ No.9","SUR/M.ALT","XOCHIMILCO","SANÿ FELIPEÿ DEÿ JESUS","FRANCISCOÿ JAVIERÿ ESQ.ÿ CITLALI",75,492906,2128333,"Dot",-99.0675023471071,19.2485707056426
"526","iii_1_2_pozos_sacmex.526","MULTIPOINT ((398930 2123662))","Unknown Point Feature",588,"TEC?22","","SUR/M.ALT","","","",126,398930,2123662,"Dot",-99.9614272727365,19.2038482071509
